[
  {
    "id": 2815,
    "name": "Aigues-Juntes",
    "state_id": 9,
    "postal_code": "09240",
    "state_name": "Ariège",
    "query": "https://www.facebook.com/events/search?q=Home%20%26%20Garden&sde=Abq6hpNmijm8kReC4KYmmDP0NuT4IxNliFRnd3vuRZUj8uh4BsVIK3dVq186DripYNQbuwiy5LR0V3y0W_iqLV_W&filters=eyJmaWx0ZXJfZXZlbnRzX2RhdGVfcmFuZ2U6MCI6IntcIm5hbWVcIjpcImZpbHRlcl9ldmVudHNfZGF0ZVwiLFwiYXJnc1wiOlwiMjAyNC0wNi0xN34yMDI0LTA3LTE3XCJ9IiwicnBfZXZlbnRzX2xvY2F0aW9uOjAiOiJ7XCJuYW1lXCI6XCJmaWx0ZXJfZXZlbnRzX2xvY2F0aW9uXCIsXCJhcmdzXCI6XCIxMDc3ODcxNDU5MTczMzFcIn0ifQ%3D%3D"
  },
  {
    "id": 2816,
    "name": "Aigues-Vives",
    "state_id": 9,
    "postal_code": "09600",
    "state_name": "Ariège",
    "query": ""
  },
  {
    "id": 2817,
    "name": "L'Aiguillon",
    "state_id": 9,
    "postal_code": "09300",
    "state_name": "Ariège",
    "query": ""
  },
  {
    "id": 2818,
    "name": "Albiès",
    "state_id": 9,
    "postal_code": "09310",
    "state_name": "Ariège",
    "query": "https://www.facebook.com/events/search?q=Home%20%26%20Garden&sde=Abq6hpNmijm8kReC4KYmmDP0NuT4IxNliFRnd3vuRZUj8uh4BsVIK3dVq186DripYNQbuwiy5LR0V3y0W_iqLV_W&filters=eyJmaWx0ZXJfZXZlbnRzX2RhdGVfcmFuZ2U6MCI6IntcIm5hbWVcIjpcImZpbHRlcl9ldmVudHNfZGF0ZVwiLFwiYXJnc1wiOlwiMjAyNC0wNi0xN34yMDI0LTA3LTE3XCJ9IiwicnBfZXZlbnRzX2xvY2F0aW9uOjAiOiJ7XCJuYW1lXCI6XCJmaWx0ZXJfZXZlbnRzX2xvY2F0aW9uXCIsXCJhcmdzXCI6XCIxMDc1MjAxMDkyNzA0MTRcIn0ifQ%3D%3D"
  },
  {
    "id": 2819,
    "name": "Aleu",
    "state_id": 9,
    "postal_code": "09320",
    "state_name": "Ariège",
    "query": "https://www.facebook.com/events/search?q=Home%20%26%20Garden&sde=Abq6hpNmijm8kReC4KYmmDP0NuT4IxNliFRnd3vuRZUj8uh4BsVIK3dVq186DripYNQbuwiy5LR0V3y0W_iqLV_W&filters=eyJmaWx0ZXJfZXZlbnRzX2RhdGVfcmFuZ2U6MCI6IntcIm5hbWVcIjpcImZpbHRlcl9ldmVudHNfZGF0ZVwiLFwiYXJnc1wiOlwiMjAyNC0wNi0xN34yMDI0LTA3LTE3XCJ9IiwicnBfZXZlbnRzX2xvY2F0aW9uOjAiOiJ7XCJuYW1lXCI6XCJmaWx0ZXJfZXZlbnRzX2xvY2F0aW9uXCIsXCJhcmdzXCI6XCIxMDkyMTAzNjI0MzAyMDVcIn0ifQ%3D%3D"
  },
  {
    "id": 2820,
    "name": "Alliat",
    "state_id": 9,
    "postal_code": "09400",
    "state_name": "Ariège",
    "query": ""
  },
  {
    "id": 2821,
    "name": "Allières",
    "state_id": 9,
    "postal_code": "09240",
    "state_name": "Ariège",
    "query": "https://www.facebook.com/events/search?q=Home%20%26%20Garden&sde=Abq6hpNmijm8kReC4KYmmDP0NuT4IxNliFRnd3vuRZUj8uh4BsVIK3dVq186DripYNQbuwiy5LR0V3y0W_iqLV_W&filters=eyJmaWx0ZXJfZXZlbnRzX2RhdGVfcmFuZ2U6MCI6IntcIm5hbWVcIjpcImZpbHRlcl9ldmVudHNfZGF0ZVwiLFwiYXJnc1wiOlwiMjAyNC0wNi0xN34yMDI0LTA3LTE3XCJ9IiwicnBfZXZlbnRzX2xvY2F0aW9uOjAiOiJ7XCJuYW1lXCI6XCJmaWx0ZXJfZXZlbnRzX2xvY2F0aW9uXCIsXCJhcmdzXCI6XCIxMDgyMDk5MDkxOTkzMjBcIn0ifQ%3D%3D"
  },
  {
    "id": 2822,
    "name": "Alos",
    "state_id": 9,
    "postal_code": "09200",
    "state_name": "Ariège",
    "query": ""
  },
  {
    "id": 2823,
    "name": "Alzen",
    "state_id": 9,
    "postal_code": "09240",
    "state_name": "Ariège",
    "query": "https://www.facebook.com/events/search?q=Home%20%26%20Garden&sde=Abq6hpNmijm8kReC4KYmmDP0NuT4IxNliFRnd3vuRZUj8uh4BsVIK3dVq186DripYNQbuwiy5LR0V3y0W_iqLV_W&filters=eyJmaWx0ZXJfZXZlbnRzX2RhdGVfcmFuZ2U6MCI6IntcIm5hbWVcIjpcImZpbHRlcl9ldmVudHNfZGF0ZVwiLFwiYXJnc1wiOlwiMjAyNC0wNi0xN34yMDI0LTA3LTE3XCJ9IiwicnBfZXZlbnRzX2xvY2F0aW9uOjAiOiJ7XCJuYW1lXCI6XCJmaWx0ZXJfZXZlbnRzX2xvY2F0aW9uXCIsXCJhcmdzXCI6XCIxMTE1NjYwNDU1MjcwMDFcIn0ifQ%3D%3D"
  },
  {
    "id": 2824,
    "name": "Antras",
    "state_id": 9,
    "postal_code": "09800",
    "state_name": "Ariège",
    "query": ""
  },
  {
    "id": 2825,
    "name": "Appy",
    "state_id": 9,
    "postal_code": "09250",
    "state_name": "Ariège",
    "query": ""
  },
  {
    "id": 2826,
    "name": "Arabaux",
    "state_id": 9,
    "postal_code": "09000",
    "state_name": "Ariège",
    "query": ""
  },
  {
    "id": 2827,
    "name": "Argein",
    "state_id": 9,
    "postal_code": "09800",
    "state_name": "Ariège",
    "query": "https://www.facebook.com/events/search?q=Home%20%26%20Garden&sde=Abq6hpNmijm8kReC4KYmmDP0NuT4IxNliFRnd3vuRZUj8uh4BsVIK3dVq186DripYNQbuwiy5LR0V3y0W_iqLV_W&filters=eyJmaWx0ZXJfZXZlbnRzX2RhdGVfcmFuZ2U6MCI6IntcIm5hbWVcIjpcImZpbHRlcl9ldmVudHNfZGF0ZVwiLFwiYXJnc1wiOlwiMjAyNC0wNi0xN34yMDI0LTA3LTE3XCJ9IiwicnBfZXZlbnRzX2xvY2F0aW9uOjAiOiJ7XCJuYW1lXCI6XCJmaWx0ZXJfZXZlbnRzX2xvY2F0aW9uXCIsXCJhcmdzXCI6XCIxMDg3NTQ1NjI0ODI5ODVcIn0ifQ%3D%3D"
  },
  {
    "id": 2828,
    "name": "Arignac",
    "state_id": 9,
    "postal_code": "09400",
    "state_name": "Ariège",
    "query": "https://www.facebook.com/events/search?q=Home%20%26%20Garden&sde=Abq6hpNmijm8kReC4KYmmDP0NuT4IxNliFRnd3vuRZUj8uh4BsVIK3dVq186DripYNQbuwiy5LR0V3y0W_iqLV_W&filters=eyJmaWx0ZXJfZXZlbnRzX2RhdGVfcmFuZ2U6MCI6IntcIm5hbWVcIjpcImZpbHRlcl9ldmVudHNfZGF0ZVwiLFwiYXJnc1wiOlwiMjAyNC0wNi0xN34yMDI0LTA3LTE3XCJ9IiwicnBfZXZlbnRzX2xvY2F0aW9uOjAiOiJ7XCJuYW1lXCI6XCJmaWx0ZXJfZXZlbnRzX2xvY2F0aW9uXCIsXCJhcmdzXCI6XCIxMTIxNzE3OTU0NjQ5NTVcIn0ifQ%3D%3D"
  },
  {
    "id": 2829,
    "name": "Arnave",
    "state_id": 9,
    "postal_code": "09400",
    "state_name": "Ariège",
    "query": ""
  },
  {
    "id": 2830,
    "name": "Arrien-en-Bethmale",
    "state_id": 9,
    "postal_code": "09800",
    "state_name": "Ariège",
    "query": ""
  },
  {
    "id": 2831,
    "name": "Arrout",
    "state_id": 9,
    "postal_code": "09800",
    "state_name": "Ariège",
    "query": "https://www.facebook.com/events/search?q=Home%20%26%20Garden&sde=Abq6hpNmijm8kReC4KYmmDP0NuT4IxNliFRnd3vuRZUj8uh4BsVIK3dVq186DripYNQbuwiy5LR0V3y0W_iqLV_W&filters=eyJmaWx0ZXJfZXZlbnRzX2RhdGVfcmFuZ2U6MCI6IntcIm5hbWVcIjpcImZpbHRlcl9ldmVudHNfZGF0ZVwiLFwiYXJnc1wiOlwiMjAyNC0wNi0xN34yMDI0LTA3LTE3XCJ9IiwicnBfZXZlbnRzX2xvY2F0aW9uOjAiOiJ7XCJuYW1lXCI6XCJmaWx0ZXJfZXZlbnRzX2xvY2F0aW9uXCIsXCJhcmdzXCI6XCIxMDkzNzYzNzU3NTU2ODFcIn0ifQ%3D%3D"
  },
  {
    "id": 2832,
    "name": "Artigat",
    "state_id": 9,
    "postal_code": "09130",
    "state_name": "Ariège",
    "query": "https://www.facebook.com/events/search?q=Home%20%26%20Garden&sde=Abq6hpNmijm8kReC4KYmmDP0NuT4IxNliFRnd3vuRZUj8uh4BsVIK3dVq186DripYNQbuwiy5LR0V3y0W_iqLV_W&filters=eyJmaWx0ZXJfZXZlbnRzX2RhdGVfcmFuZ2U6MCI6IntcIm5hbWVcIjpcImZpbHRlcl9ldmVudHNfZGF0ZVwiLFwiYXJnc1wiOlwiMjAyNC0wNi0xN34yMDI0LTA3LTE3XCJ9IiwicnBfZXZlbnRzX2xvY2F0aW9uOjAiOiJ7XCJuYW1lXCI6XCJmaWx0ZXJfZXZlbnRzX2xvY2F0aW9uXCIsXCJhcmdzXCI6XCIxMDgzODk4MDI1MTgyOTVcIn0ifQ%3D%3D"
  },
  {
    "id": 2833,
    "name": "Artigues",
    "state_id": 9,
    "postal_code": "09460",
    "state_name": "Ariège",
    "query": ""
  },
  {
    "id": 2834,
    "name": "Artix",
    "state_id": 9,
    "postal_code": "09120",
    "state_name": "Ariège",
    "query": ""
  },
  {
    "id": 2835,
    "name": "Arvigna",
    "state_id": 9,
    "postal_code": "09100",
    "state_name": "Ariège",
    "query": ""
  },
  {
    "id": 2836,
    "name": "Ascou",
    "state_id": 9,
    "postal_code": "09110",
    "state_name": "Ariège",
    "query": "https://www.facebook.com/events/search?q=Home%20%26%20Garden&sde=Abq6hpNmijm8kReC4KYmmDP0NuT4IxNliFRnd3vuRZUj8uh4BsVIK3dVq186DripYNQbuwiy5LR0V3y0W_iqLV_W&filters=eyJmaWx0ZXJfZXZlbnRzX2RhdGVfcmFuZ2U6MCI6IntcIm5hbWVcIjpcImZpbHRlcl9ldmVudHNfZGF0ZVwiLFwiYXJnc1wiOlwiMjAyNC0wNi0xN34yMDI0LTA3LTE3XCJ9IiwicnBfZXZlbnRzX2xvY2F0aW9uOjAiOiJ7XCJuYW1lXCI6XCJmaWx0ZXJfZXZlbnRzX2xvY2F0aW9uXCIsXCJhcmdzXCI6XCIxMDYwNzAyNzYwOTEwMTVcIn0ifQ%3D%3D"
  },
  {
    "id": 2837,
    "name": "Aston",
    "state_id": 9,
    "postal_code": "09310",
    "state_name": "Ariège",
    "query": ""
  },
  {
    "id": 2838,
    "name": "Aucazein",
    "state_id": 9,
    "postal_code": "09800",
    "state_name": "Ariège",
    "query": ""
  },
  {
    "id": 2839,
    "name": "Audressein",
    "state_id": 9,
    "postal_code": "09800",
    "state_name": "Ariège",
    "query": ""
  },
  {
    "id": 2840,
    "name": "Augirein",
    "state_id": 9,
    "postal_code": "09800",
    "state_name": "Ariège",
    "query": ""
  },
  {
    "id": 2841,
    "name": "Aulus-les-Bains",
    "state_id": 9,
    "postal_code": "09140",
    "state_name": "Ariège",
    "query": "https://www.facebook.com/events/search?q=Home%20%26%20Garden&sde=Abq6hpNmijm8kReC4KYmmDP0NuT4IxNliFRnd3vuRZUj8uh4BsVIK3dVq186DripYNQbuwiy5LR0V3y0W_iqLV_W&filters=eyJmaWx0ZXJfZXZlbnRzX2RhdGVfcmFuZ2U6MCI6IntcIm5hbWVcIjpcImZpbHRlcl9ldmVudHNfZGF0ZVwiLFwiYXJnc1wiOlwiMjAyNC0wNi0xN34yMDI0LTA3LTE3XCJ9IiwicnBfZXZlbnRzX2xvY2F0aW9uOjAiOiJ7XCJuYW1lXCI6XCJmaWx0ZXJfZXZlbnRzX2xvY2F0aW9uXCIsXCJhcmdzXCI6XCIxMDQwOTMyMTI5NjAwMzNcIn0ifQ%3D%3D"
  },
  {
    "id": 2842,
    "name": "Auzat",
    "state_id": 9,
    "postal_code": "09220",
    "state_name": "Ariège",
    "query": "https://www.facebook.com/events/search?q=Home%20%26%20Garden&sde=Abq6hpNmijm8kReC4KYmmDP0NuT4IxNliFRnd3vuRZUj8uh4BsVIK3dVq186DripYNQbuwiy5LR0V3y0W_iqLV_W&filters=eyJmaWx0ZXJfZXZlbnRzX2RhdGVfcmFuZ2U6MCI6IntcIm5hbWVcIjpcImZpbHRlcl9ldmVudHNfZGF0ZVwiLFwiYXJnc1wiOlwiMjAyNC0wNi0xN34yMDI0LTA3LTE3XCJ9IiwicnBfZXZlbnRzX2xvY2F0aW9uOjAiOiJ7XCJuYW1lXCI6XCJmaWx0ZXJfZXZlbnRzX2xvY2F0aW9uXCIsXCJhcmdzXCI6XCIxMDU2MzUwMTYxMzc0MzZcIn0ifQ%3D%3D"
  },
  {
    "id": 2843,
    "name": "Axiat",
    "state_id": 9,
    "postal_code": "09250",
    "state_name": "Ariège",
    "query": ""
  },
  {
    "id": 2844,
    "name": "Ax-les-Thermes",
    "state_id": 9,
    "postal_code": "09110",
    "state_name": "Ariège",
    "query": "https://www.facebook.com/events/search?q=Home%20%26%20Garden&sde=Abq6hpNmijm8kReC4KYmmDP0NuT4IxNliFRnd3vuRZUj8uh4BsVIK3dVq186DripYNQbuwiy5LR0V3y0W_iqLV_W&filters=eyJmaWx0ZXJfZXZlbnRzX2RhdGVfcmFuZ2U6MCI6IntcIm5hbWVcIjpcImZpbHRlcl9ldmVudHNfZGF0ZVwiLFwiYXJnc1wiOlwiMjAyNC0wNi0xN34yMDI0LTA3LTE3XCJ9IiwicnBfZXZlbnRzX2xvY2F0aW9uOjAiOiJ7XCJuYW1lXCI6XCJmaWx0ZXJfZXZlbnRzX2xvY2F0aW9uXCIsXCJhcmdzXCI6XCIxMTI4ODI4Mjg3MjUwMTFcIn0ifQ%3D%3D"
  },
  {
    "id": 2845,
    "name": "Bagert",
    "state_id": 9,
    "postal_code": "09230",
    "state_name": "Ariège",
    "query": ""
  },
  {
    "id": 2846,
    "name": "Balacet",
    "state_id": 9,
    "postal_code": "09800",
    "state_name": "Ariège",
    "query": ""
  },
  {
    "id": 2847,
    "name": "Balaguères",
    "state_id": 9,
    "postal_code": "09800",
    "state_name": "Ariège",
    "query": ""
  },
  {
    "id": 2848,
    "name": "Barjac",
    "state_id": 9,
    "postal_code": "09230",
    "state_name": "Ariège",
    "query": ""
  },
  {
    "id": 2849,
    "name": "La Bastide-de-Besplas",
    "state_id": 9,
    "postal_code": "09350",
    "state_name": "Ariège",
    "query": "https://www.facebook.com/events/search?q=Home%20%26%20Garden&sde=Abq6hpNmijm8kReC4KYmmDP0NuT4IxNliFRnd3vuRZUj8uh4BsVIK3dVq186DripYNQbuwiy5LR0V3y0W_iqLV_W&filters=eyJmaWx0ZXJfZXZlbnRzX2RhdGVfcmFuZ2U6MCI6IntcIm5hbWVcIjpcImZpbHRlcl9ldmVudHNfZGF0ZVwiLFwiYXJnc1wiOlwiMjAyNC0wNi0xN34yMDI0LTA3LTE3XCJ9IiwicnBfZXZlbnRzX2xvY2F0aW9uOjAiOiJ7XCJuYW1lXCI6XCJmaWx0ZXJfZXZlbnRzX2xvY2F0aW9uXCIsXCJhcmdzXCI6XCIxMTIwMjY4Mjg4MTQ0NzVcIn0ifQ%3D%3D"
  },
  {
    "id": 2850,
    "name": "La Bastide-de-Bousignac",
    "state_id": 9,
    "postal_code": "09500",
    "state_name": "Ariège",
    "query": "https://www.facebook.com/events/search?q=Home%20%26%20Garden&sde=Abq6hpNmijm8kReC4KYmmDP0NuT4IxNliFRnd3vuRZUj8uh4BsVIK3dVq186DripYNQbuwiy5LR0V3y0W_iqLV_W&filters=eyJmaWx0ZXJfZXZlbnRzX2RhdGVfcmFuZ2U6MCI6IntcIm5hbWVcIjpcImZpbHRlcl9ldmVudHNfZGF0ZVwiLFwiYXJnc1wiOlwiMjAyNC0wNi0xN34yMDI0LTA3LTE3XCJ9IiwicnBfZXZlbnRzX2xvY2F0aW9uOjAiOiJ7XCJuYW1lXCI6XCJmaWx0ZXJfZXZlbnRzX2xvY2F0aW9uXCIsXCJhcmdzXCI6XCIxMDk3MTY0NTIzODc0MjFcIn0ifQ%3D%3D"
  },
  {
    "id": 2851,
    "name": "La Bastide-de-Lordat",
    "state_id": 9,
    "postal_code": "09700",
    "state_name": "Ariège",
    "query": ""
  },
  {
    "id": 2852,
    "name": "La Bastide-du-Salat",
    "state_id": 9,
    "postal_code": "09160",
    "state_name": "Ariège",
    "query": ""
  },
  {
    "id": 2853,
    "name": "La Bastide-de-Sérou",
    "state_id": 9,
    "postal_code": "09240",
    "state_name": "Ariège",
    "query": "https://www.facebook.com/events/search?q=Home%20%26%20Garden&sde=Abq6hpNmijm8kReC4KYmmDP0NuT4IxNliFRnd3vuRZUj8uh4BsVIK3dVq186DripYNQbuwiy5LR0V3y0W_iqLV_W&filters=eyJmaWx0ZXJfZXZlbnRzX2RhdGVfcmFuZ2U6MCI6IntcIm5hbWVcIjpcImZpbHRlcl9ldmVudHNfZGF0ZVwiLFwiYXJnc1wiOlwiMjAyNC0wNi0xN34yMDI0LTA3LTE3XCJ9IiwicnBfZXZlbnRzX2xvY2F0aW9uOjAiOiJ7XCJuYW1lXCI6XCJmaWx0ZXJfZXZlbnRzX2xvY2F0aW9uXCIsXCJhcmdzXCI6XCIxMTE5NjQ2ODIxNTI5MDVcIn0ifQ%3D%3D"
  },
  {
    "id": 2854,
    "name": "La Bastide-sur-l'Hers",
    "state_id": 9,
    "postal_code": "09600",
    "state_name": "Ariège",
    "query": "https://www.facebook.com/events/search?q=Home%20%26%20Garden&sde=Abq6hpNmijm8kReC4KYmmDP0NuT4IxNliFRnd3vuRZUj8uh4BsVIK3dVq186DripYNQbuwiy5LR0V3y0W_iqLV_W&filters=eyJmaWx0ZXJfZXZlbnRzX2RhdGVfcmFuZ2U6MCI6IntcIm5hbWVcIjpcImZpbHRlcl9ldmVudHNfZGF0ZVwiLFwiYXJnc1wiOlwiMjAyNC0wNi0xN34yMDI0LTA3LTE3XCJ9IiwicnBfZXZlbnRzX2xvY2F0aW9uOjAiOiJ7XCJuYW1lXCI6XCJmaWx0ZXJfZXZlbnRzX2xvY2F0aW9uXCIsXCJhcmdzXCI6XCIxMDQwNzQ0ODI5NjI5MTdcIn0ifQ%3D%3D"
  },
  {
    "id": 2855,
    "name": "Baulou",
    "state_id": 9,
    "postal_code": "09000",
    "state_name": "Ariège",
    "query": ""
  },
  {
    "id": 2856,
    "name": "Bédeilhac-et-Aynat",
    "state_id": 9,
    "postal_code": "09400",
    "state_name": "Ariège",
    "query": "https://www.facebook.com/events/search?q=Home%20%26%20Garden&sde=Abq6hpNmijm8kReC4KYmmDP0NuT4IxNliFRnd3vuRZUj8uh4BsVIK3dVq186DripYNQbuwiy5LR0V3y0W_iqLV_W&filters=eyJmaWx0ZXJfZXZlbnRzX2RhdGVfcmFuZ2U6MCI6IntcIm5hbWVcIjpcImZpbHRlcl9ldmVudHNfZGF0ZVwiLFwiYXJnc1wiOlwiMjAyNC0wNi0xN34yMDI0LTA3LTE3XCJ9IiwicnBfZXZlbnRzX2xvY2F0aW9uOjAiOiJ7XCJuYW1lXCI6XCJmaWx0ZXJfZXZlbnRzX2xvY2F0aW9uXCIsXCJhcmdzXCI6XCIxMDU1MDM4OTk0ODI3OTBcIn0ifQ%3D%3D"
  },
  {
    "id": 2857,
    "name": "Bédeille",
    "state_id": 9,
    "postal_code": "09230",
    "state_name": "Ariège",
    "query": ""
  },
  {
    "id": 2858,
    "name": "Bélesta",
    "state_id": 9,
    "postal_code": "09300",
    "state_name": "Ariège",
    "query": ""
  },
  {
    "id": 2859,
    "name": "Belloc",
    "state_id": 9,
    "postal_code": "09600",
    "state_name": "Ariège",
    "query": "https://www.facebook.com/events/search?q=Home%20%26%20Garden&sde=Abq6hpNmijm8kReC4KYmmDP0NuT4IxNliFRnd3vuRZUj8uh4BsVIK3dVq186DripYNQbuwiy5LR0V3y0W_iqLV_W&filters=eyJmaWx0ZXJfZXZlbnRzX2RhdGVfcmFuZ2U6MCI6IntcIm5hbWVcIjpcImZpbHRlcl9ldmVudHNfZGF0ZVwiLFwiYXJnc1wiOlwiMjAyNC0wNi0xN34yMDI0LTA3LTE3XCJ9IiwicnBfZXZlbnRzX2xvY2F0aW9uOjAiOiJ7XCJuYW1lXCI6XCJmaWx0ZXJfZXZlbnRzX2xvY2F0aW9uXCIsXCJhcmdzXCI6XCIxMTE5MTc2OTIxNTgwNTNcIn0ifQ%3D%3D"
  },
  {
    "id": 2860,
    "name": "Bénac",
    "state_id": 9,
    "postal_code": "09000",
    "state_name": "Ariège",
    "query": "https://www.facebook.com/events/search?q=Home%20%26%20Garden&sde=Abq6hpNmijm8kReC4KYmmDP0NuT4IxNliFRnd3vuRZUj8uh4BsVIK3dVq186DripYNQbuwiy5LR0V3y0W_iqLV_W&filters=eyJmaWx0ZXJfZXZlbnRzX2RhdGVfcmFuZ2U6MCI6IntcIm5hbWVcIjpcImZpbHRlcl9ldmVudHNfZGF0ZVwiLFwiYXJnc1wiOlwiMjAyNC0wNi0xN34yMDI0LTA3LTE3XCJ9IiwicnBfZXZlbnRzX2xvY2F0aW9uOjAiOiJ7XCJuYW1lXCI6XCJmaWx0ZXJfZXZlbnRzX2xvY2F0aW9uXCIsXCJhcmdzXCI6XCIxMDQ2ODM1NzYyMzc4MTdcIn0ifQ%3D%3D"
  },
  {
    "id": 2861,
    "name": "Benagues",
    "state_id": 9,
    "postal_code": "09100",
    "state_name": "Ariège",
    "query": "https://www.facebook.com/events/search?q=Home%20%26%20Garden&sde=Abq6hpNmijm8kReC4KYmmDP0NuT4IxNliFRnd3vuRZUj8uh4BsVIK3dVq186DripYNQbuwiy5LR0V3y0W_iqLV_W&filters=eyJmaWx0ZXJfZXZlbnRzX2RhdGVfcmFuZ2U6MCI6IntcIm5hbWVcIjpcImZpbHRlcl9ldmVudHNfZGF0ZVwiLFwiYXJnc1wiOlwiMjAyNC0wNi0xN34yMDI0LTA3LTE3XCJ9IiwicnBfZXZlbnRzX2xvY2F0aW9uOjAiOiJ7XCJuYW1lXCI6XCJmaWx0ZXJfZXZlbnRzX2xvY2F0aW9uXCIsXCJhcmdzXCI6XCIxMTQyMDIxOTUyNTcwMTFcIn0ifQ%3D%3D"
  },
  {
    "id": 2862,
    "name": "Bénaix",
    "state_id": 9,
    "postal_code": "09300",
    "state_name": "Ariège",
    "query": ""
  },
  {
    "id": 2863,
    "name": "Besset",
    "state_id": 9,
    "postal_code": "09500",
    "state_name": "Ariège",
    "query": ""
  },
  {
    "id": 2864,
    "name": "Bestiac",
    "state_id": 9,
    "postal_code": "09250",
    "state_name": "Ariège",
    "query": ""
  },
  {
    "id": 2865,
    "name": "Betchat",
    "state_id": 9,
    "postal_code": "09160",
    "state_name": "Ariège",
    "query": "https://www.facebook.com/events/search?q=Home%20%26%20Garden&sde=Abq6hpNmijm8kReC4KYmmDP0NuT4IxNliFRnd3vuRZUj8uh4BsVIK3dVq186DripYNQbuwiy5LR0V3y0W_iqLV_W&filters=eyJmaWx0ZXJfZXZlbnRzX2RhdGVfcmFuZ2U6MCI6IntcIm5hbWVcIjpcImZpbHRlcl9ldmVudHNfZGF0ZVwiLFwiYXJnc1wiOlwiMjAyNC0wNi0xN34yMDI0LTA3LTE3XCJ9IiwicnBfZXZlbnRzX2xvY2F0aW9uOjAiOiJ7XCJuYW1lXCI6XCJmaWx0ZXJfZXZlbnRzX2xvY2F0aW9uXCIsXCJhcmdzXCI6XCIxMDg2OTIwODI0ODg1MzFcIn0ifQ%3D%3D"
  },
  {
    "id": 2866,
    "name": "Bethmale",
    "state_id": 9,
    "postal_code": "09800",
    "state_name": "Ariège",
    "query": "https://www.facebook.com/events/search?q=Home%20%26%20Garden&sde=Abq6hpNmijm8kReC4KYmmDP0NuT4IxNliFRnd3vuRZUj8uh4BsVIK3dVq186DripYNQbuwiy5LR0V3y0W_iqLV_W&filters=eyJmaWx0ZXJfZXZlbnRzX2RhdGVfcmFuZ2U6MCI6IntcIm5hbWVcIjpcImZpbHRlcl9ldmVudHNfZGF0ZVwiLFwiYXJnc1wiOlwiMjAyNC0wNi0xN34yMDI0LTA3LTE3XCJ9IiwicnBfZXZlbnRzX2xvY2F0aW9uOjAiOiJ7XCJuYW1lXCI6XCJmaWx0ZXJfZXZlbnRzX2xvY2F0aW9uXCIsXCJhcmdzXCI6XCIxMDk0NDA2MDU3NDI1MTNcIn0ifQ%3D%3D"
  },
  {
    "id": 2867,
    "name": "Bézac",
    "state_id": 9,
    "postal_code": "09100",
    "state_name": "Ariège",
    "query": ""
  },
  {
    "id": 2868,
    "name": "Biert",
    "state_id": 9,
    "postal_code": "09320",
    "state_name": "Ariège",
    "query": "https://www.facebook.com/events/search?q=Home%20%26%20Garden&sde=Abq6hpNmijm8kReC4KYmmDP0NuT4IxNliFRnd3vuRZUj8uh4BsVIK3dVq186DripYNQbuwiy5LR0V3y0W_iqLV_W&filters=eyJmaWx0ZXJfZXZlbnRzX2RhdGVfcmFuZ2U6MCI6IntcIm5hbWVcIjpcImZpbHRlcl9ldmVudHNfZGF0ZVwiLFwiYXJnc1wiOlwiMjAyNC0wNi0xN34yMDI0LTA3LTE3XCJ9IiwicnBfZXZlbnRzX2xvY2F0aW9uOjAiOiJ7XCJuYW1lXCI6XCJmaWx0ZXJfZXZlbnRzX2xvY2F0aW9uXCIsXCJhcmdzXCI6XCIxMDYwMDEyMDYwOTgyNzJcIn0ifQ%3D%3D"
  },
  {
    "id": 2869,
    "name": "Bompas",
    "state_id": 9,
    "postal_code": "09400",
    "state_name": "Ariège",
    "query": "https://www.facebook.com/events/search?q=Home%20%26%20Garden&sde=Abq6hpNmijm8kReC4KYmmDP0NuT4IxNliFRnd3vuRZUj8uh4BsVIK3dVq186DripYNQbuwiy5LR0V3y0W_iqLV_W&filters=eyJmaWx0ZXJfZXZlbnRzX2RhdGVfcmFuZ2U6MCI6IntcIm5hbWVcIjpcImZpbHRlcl9ldmVudHNfZGF0ZVwiLFwiYXJnc1wiOlwiMjAyNC0wNi0xN34yMDI0LTA3LTE3XCJ9IiwicnBfZXZlbnRzX2xvY2F0aW9uOjAiOiJ7XCJuYW1lXCI6XCJmaWx0ZXJfZXZlbnRzX2xvY2F0aW9uXCIsXCJhcmdzXCI6XCIxMTM0OTkxNzE5OTUzMjBcIn0ifQ%3D%3D"
  },
  {
    "id": 2870,
    "name": "Bonac-Irazein",
    "state_id": 9,
    "postal_code": "09800",
    "state_name": "Ariège",
    "query": ""
  },
  {
    "id": 2871,
    "name": "Bonnac",
    "state_id": 9,
    "postal_code": "09100",
    "state_name": "Ariège",
    "query": "https://www.facebook.com/events/search?q=Home%20%26%20Garden&sde=Abq6hpNmijm8kReC4KYmmDP0NuT4IxNliFRnd3vuRZUj8uh4BsVIK3dVq186DripYNQbuwiy5LR0V3y0W_iqLV_W&filters=eyJmaWx0ZXJfZXZlbnRzX2RhdGVfcmFuZ2U6MCI6IntcIm5hbWVcIjpcImZpbHRlcl9ldmVudHNfZGF0ZVwiLFwiYXJnc1wiOlwiMjAyNC0wNi0xN34yMDI0LTA3LTE3XCJ9IiwicnBfZXZlbnRzX2xvY2F0aW9uOjAiOiJ7XCJuYW1lXCI6XCJmaWx0ZXJfZXZlbnRzX2xvY2F0aW9uXCIsXCJhcmdzXCI6XCIxMDg4NDA1NjI0Njk5NTdcIn0ifQ%3D%3D"
  },
  {
    "id": 2872,
    "name": "Les Bordes-sur-Arize",
    "state_id": 9,
    "postal_code": "09350",
    "state_name": "Ariège",
    "query": "https://www.facebook.com/events/search?q=Home%20%26%20Garden&sde=Abq6hpNmijm8kReC4KYmmDP0NuT4IxNliFRnd3vuRZUj8uh4BsVIK3dVq186DripYNQbuwiy5LR0V3y0W_iqLV_W&filters=eyJmaWx0ZXJfZXZlbnRzX2RhdGVfcmFuZ2U6MCI6IntcIm5hbWVcIjpcImZpbHRlcl9ldmVudHNfZGF0ZVwiLFwiYXJnc1wiOlwiMjAyNC0wNi0xN34yMDI0LTA3LTE3XCJ9IiwicnBfZXZlbnRzX2xvY2F0aW9uOjAiOiJ7XCJuYW1lXCI6XCJmaWx0ZXJfZXZlbnRzX2xvY2F0aW9uXCIsXCJhcmdzXCI6XCIxMDgyMTExMTkyMDc4NzVcIn0ifQ%3D%3D"
  },
  {
    "id": 2873,
    "name": "Bordes-Uchentein",
    "state_id": 9,
    "postal_code": "09800",
    "state_name": "Ariège",
    "query": ""
  },
  {
    "id": 2874,
    "name": "Le Bosc",
    "state_id": 9,
    "postal_code": "09000",
    "state_name": "Ariège",
    "query": "https://www.facebook.com/events/search?q=Home%20%26%20Garden&sde=Abq6hpNmijm8kReC4KYmmDP0NuT4IxNliFRnd3vuRZUj8uh4BsVIK3dVq186DripYNQbuwiy5LR0V3y0W_iqLV_W&filters=eyJmaWx0ZXJfZXZlbnRzX2RhdGVfcmFuZ2U6MCI6IntcIm5hbWVcIjpcImZpbHRlcl9ldmVudHNfZGF0ZVwiLFwiYXJnc1wiOlwiMjAyNC0wNi0xN34yMDI0LTA3LTE3XCJ9IiwicnBfZXZlbnRzX2xvY2F0aW9uOjAiOiJ7XCJuYW1lXCI6XCJmaWx0ZXJfZXZlbnRzX2xvY2F0aW9uXCIsXCJhcmdzXCI6XCIxMDQ2NjM0NDYyMzkxODFcIn0ifQ%3D%3D"
  },
  {
    "id": 2875,
    "name": "Bouan",
    "state_id": 9,
    "postal_code": "09310",
    "state_name": "Ariège",
    "query": ""
  },
  {
    "id": 2876,
    "name": "Boussenac",
    "state_id": 9,
    "postal_code": "09320",
    "state_name": "Ariège",
    "query": "https://www.facebook.com/events/search?q=Home%20%26%20Garden&sde=Abq6hpNmijm8kReC4KYmmDP0NuT4IxNliFRnd3vuRZUj8uh4BsVIK3dVq186DripYNQbuwiy5LR0V3y0W_iqLV_W&filters=eyJmaWx0ZXJfZXZlbnRzX2RhdGVfcmFuZ2U6MCI6IntcIm5hbWVcIjpcImZpbHRlcl9ldmVudHNfZGF0ZVwiLFwiYXJnc1wiOlwiMjAyNC0wNi0xN34yMDI0LTA3LTE3XCJ9IiwicnBfZXZlbnRzX2xvY2F0aW9uOjAiOiJ7XCJuYW1lXCI6XCJmaWx0ZXJfZXZlbnRzX2xvY2F0aW9uXCIsXCJhcmdzXCI6XCIxMDU3NDczMjI3OTI2MDBcIn0ifQ%3D%3D"
  },
  {
    "id": 2877,
    "name": "Brassac",
    "state_id": 9,
    "postal_code": "09000",
    "state_name": "Ariège",
    "query": "https://www.facebook.com/events/search?q=Home%20%26%20Garden&sde=Abq6hpNmijm8kReC4KYmmDP0NuT4IxNliFRnd3vuRZUj8uh4BsVIK3dVq186DripYNQbuwiy5LR0V3y0W_iqLV_W&filters=eyJmaWx0ZXJfZXZlbnRzX2RhdGVfcmFuZ2U6MCI6IntcIm5hbWVcIjpcImZpbHRlcl9ldmVudHNfZGF0ZVwiLFwiYXJnc1wiOlwiMjAyNC0wNi0xN34yMDI0LTA3LTE3XCJ9IiwicnBfZXZlbnRzX2xvY2F0aW9uOjAiOiJ7XCJuYW1lXCI6XCJmaWx0ZXJfZXZlbnRzX2xvY2F0aW9uXCIsXCJhcmdzXCI6XCIxMDQzNDIwOTYyNzI4ODhcIn0ifQ%3D%3D"
  },
  {
    "id": 2878,
    "name": "Brie",
    "state_id": 9,
    "postal_code": "09700",
    "state_name": "Ariège",
    "query": ""
  },
  {
    "id": 2879,
    "name": "Burret",
    "state_id": 9,
    "postal_code": "09000",
    "state_name": "Ariège",
    "query": ""
  },
  {
    "id": 2880,
    "name": "Buzan",
    "state_id": 9,
    "postal_code": "09800",
    "state_name": "Ariège",
    "query": ""
  },
  {
    "id": 2881,
    "name": "Les Cabannes",
    "state_id": 9,
    "postal_code": "09310",
    "state_name": "Ariège",
    "query": "https://www.facebook.com/events/search?q=Home%20%26%20Garden&sde=Abq6hpNmijm8kReC4KYmmDP0NuT4IxNliFRnd3vuRZUj8uh4BsVIK3dVq186DripYNQbuwiy5LR0V3y0W_iqLV_W&filters=eyJmaWx0ZXJfZXZlbnRzX2RhdGVfcmFuZ2U6MCI6IntcIm5hbWVcIjpcImZpbHRlcl9ldmVudHNfZGF0ZVwiLFwiYXJnc1wiOlwiMjAyNC0wNi0xN34yMDI0LTA3LTE3XCJ9IiwicnBfZXZlbnRzX2xvY2F0aW9uOjAiOiJ7XCJuYW1lXCI6XCJmaWx0ZXJfZXZlbnRzX2xvY2F0aW9uXCIsXCJhcmdzXCI6XCIxMDQzNDYyNjI5Mzg5MjRcIn0ifQ%3D%3D"
  },
  {
    "id": 2882,
    "name": "Cadarcet",
    "state_id": 9,
    "postal_code": "09240",
    "state_name": "Ariège",
    "query": "https://www.facebook.com/events/search?q=Home%20%26%20Garden&sde=Abq6hpNmijm8kReC4KYmmDP0NuT4IxNliFRnd3vuRZUj8uh4BsVIK3dVq186DripYNQbuwiy5LR0V3y0W_iqLV_W&filters=eyJmaWx0ZXJfZXZlbnRzX2RhdGVfcmFuZ2U6MCI6IntcIm5hbWVcIjpcImZpbHRlcl9ldmVudHNfZGF0ZVwiLFwiYXJnc1wiOlwiMjAyNC0wNi0xN34yMDI0LTA3LTE3XCJ9IiwicnBfZXZlbnRzX2xvY2F0aW9uOjAiOiJ7XCJuYW1lXCI6XCJmaWx0ZXJfZXZlbnRzX2xvY2F0aW9uXCIsXCJhcmdzXCI6XCIxMTI3OTc1NzIwNjgzMjdcIn0ifQ%3D%3D"
  },
  {
    "id": 2883,
    "name": "Calzan",
    "state_id": 9,
    "postal_code": "09120",
    "state_name": "Ariège",
    "query": ""
  },
  {
    "id": 2884,
    "name": "Camarade",
    "state_id": 9,
    "postal_code": "09290",
    "state_name": "Ariège",
    "query": "https://www.facebook.com/events/search/?q=Home%20%26%20Garden&sde=Abq6hpNmijm8kReC4KYmmDP0NuT4IxNliFRnd3vuRZUj8uh4BsVIK3dVq186DripYNQbuwiy5LR0V3y0W_iqLV_W&filters=eyJmaWx0ZXJfZXZlbnRzX2RhdGVfcmFuZ2U6MCI6IntcIm5hbWVcIjpcImZpbHRlcl9ldmVudHNfZGF0ZVwiLFwiYXJnc1wiOlwiMjAyNC0wNi0xN34yMDI0LTA3LTE3XCJ9IiwicnBfZXZlbnRzX2xvY2F0aW9uOjAiOiJ7XCJuYW1lXCI6XCJmaWx0ZXJfZXZlbnRzX2xvY2F0aW9uXCIsXCJhcmdzXCI6XCIxMDQxMzQ0MzI5NTcxNzJcIn0ifQ%3D%3D"
  },
  {
    "id": 2885,
    "name": "Camon",
    "state_id": 9,
    "postal_code": "09500",
    "state_name": "Ariège",
    "query": "https://www.facebook.com/events/search?q=Home%20%26%20Garden&sde=Abq6hpNmijm8kReC4KYmmDP0NuT4IxNliFRnd3vuRZUj8uh4BsVIK3dVq186DripYNQbuwiy5LR0V3y0W_iqLV_W&filters=eyJmaWx0ZXJfZXZlbnRzX2RhdGVfcmFuZ2U6MCI6IntcIm5hbWVcIjpcImZpbHRlcl9ldmVudHNfZGF0ZVwiLFwiYXJnc1wiOlwiMjAyNC0wNi0xN34yMDI0LTA3LTE3XCJ9IiwicnBfZXZlbnRzX2xvY2F0aW9uOjAiOiJ7XCJuYW1lXCI6XCJmaWx0ZXJfZXZlbnRzX2xvY2F0aW9uXCIsXCJhcmdzXCI6XCIxMTAzMzMyNzU2NTI2MjRcIn0ifQ%3D%3D"
  },
  {
    "id": 2886,
    "name": "Campagne-sur-Arize",
    "state_id": 9,
    "postal_code": "09350",
    "state_name": "Ariège",
    "query": "https://www.facebook.com/events/search?q=Home%20%26%20Garden&sde=Abq6hpNmijm8kReC4KYmmDP0NuT4IxNliFRnd3vuRZUj8uh4BsVIK3dVq186DripYNQbuwiy5LR0V3y0W_iqLV_W&filters=eyJmaWx0ZXJfZXZlbnRzX2RhdGVfcmFuZ2U6MCI6IntcIm5hbWVcIjpcImZpbHRlcl9ldmVudHNfZGF0ZVwiLFwiYXJnc1wiOlwiMjAyNC0wNi0xN34yMDI0LTA3LTE3XCJ9IiwicnBfZXZlbnRzX2xvY2F0aW9uOjAiOiJ7XCJuYW1lXCI6XCJmaWx0ZXJfZXZlbnRzX2xvY2F0aW9uXCIsXCJhcmdzXCI6XCIxMTI4MzkzMTUzOTczMThcIn0ifQ%3D%3D"
  },
  {
    "id": 2887,
    "name": "Canté",
    "state_id": 9,
    "postal_code": "09700",
    "state_name": "Ariège",
    "query": "https://www.facebook.com/events/search?q=Home%20%26%20Garden&sde=Abq6hpNmijm8kReC4KYmmDP0NuT4IxNliFRnd3vuRZUj8uh4BsVIK3dVq186DripYNQbuwiy5LR0V3y0W_iqLV_W&filters=eyJmaWx0ZXJfZXZlbnRzX2RhdGVfcmFuZ2U6MCI6IntcIm5hbWVcIjpcImZpbHRlcl9ldmVudHNfZGF0ZVwiLFwiYXJnc1wiOlwiMjAyNC0wNi0xN34yMDI0LTA3LTE3XCJ9IiwicnBfZXZlbnRzX2xvY2F0aW9uOjAiOiJ7XCJuYW1lXCI6XCJmaWx0ZXJfZXZlbnRzX2xvY2F0aW9uXCIsXCJhcmdzXCI6XCIxMDgwMDA1MzU4OTAwMTRcIn0ifQ%3D%3D"
  },
  {
    "id": 2888,
    "name": "Capoulet-et-Junac",
    "state_id": 9,
    "postal_code": "09400",
    "state_name": "Ariège",
    "query": ""
  },
  {
    "id": 2889,
    "name": "Carcanières",
    "state_id": 9,
    "postal_code": "09460",
    "state_name": "Ariège",
    "query": ""
  },
  {
    "id": 2890,
    "name": "Carla-Bayle",
    "state_id": 9,
    "postal_code": "09130",
    "state_name": "Ariège",
    "query": "https://www.facebook.com/events/search?q=Home%20%26%20Garden&sde=Abq6hpNmijm8kReC4KYmmDP0NuT4IxNliFRnd3vuRZUj8uh4BsVIK3dVq186DripYNQbuwiy5LR0V3y0W_iqLV_W&filters=eyJmaWx0ZXJfZXZlbnRzX2RhdGVfcmFuZ2U6MCI6IntcIm5hbWVcIjpcImZpbHRlcl9ldmVudHNfZGF0ZVwiLFwiYXJnc1wiOlwiMjAyNC0wNi0xN34yMDI0LTA3LTE3XCJ9IiwicnBfZXZlbnRzX2xvY2F0aW9uOjAiOiJ7XCJuYW1lXCI6XCJmaWx0ZXJfZXZlbnRzX2xvY2F0aW9uXCIsXCJhcmdzXCI6XCIxMDQwMzQ1OTYyOTk1NzBcIn0ifQ%3D%3D"
  },
  {
    "id": 2891,
    "name": "Carla-de-Roquefort",
    "state_id": 9,
    "postal_code": "09300",
    "state_name": "Ariège",
    "query": ""
  },
  {
    "id": 2892,
    "name": "Le Carlaret",
    "state_id": 9,
    "postal_code": "09100",
    "state_name": "Ariège",
    "query": ""
  },
  {
    "id": 2893,
    "name": "Castelnau-Durban",
    "state_id": 9,
    "postal_code": "09420",
    "state_name": "Ariège",
    "query": "https://www.facebook.com/events/search?q=Home%20%26%20Garden&sde=Abq6hpNmijm8kReC4KYmmDP0NuT4IxNliFRnd3vuRZUj8uh4BsVIK3dVq186DripYNQbuwiy5LR0V3y0W_iqLV_W&filters=eyJmaWx0ZXJfZXZlbnRzX2RhdGVfcmFuZ2U6MCI6IntcIm5hbWVcIjpcImZpbHRlcl9ldmVudHNfZGF0ZVwiLFwiYXJnc1wiOlwiMjAyNC0wNi0xN34yMDI0LTA3LTE3XCJ9IiwicnBfZXZlbnRzX2xvY2F0aW9uOjAiOiJ7XCJuYW1lXCI6XCJmaWx0ZXJfZXZlbnRzX2xvY2F0aW9uXCIsXCJhcmdzXCI6XCIxMDk2NjkyODIzODU2MDdcIn0ifQ%3D%3D"
  },
  {
    "id": 2894,
    "name": "Castéras",
    "state_id": 9,
    "postal_code": "09130",
    "state_name": "Ariège",
    "query": ""
  },
  {
    "id": 2895,
    "name": "Castex",
    "state_id": 9,
    "postal_code": "09350",
    "state_name": "Ariège",
    "query": "https://www.facebook.com/events/search?q=Home%20%26%20Garden&sde=Abq6hpNmijm8kReC4KYmmDP0NuT4IxNliFRnd3vuRZUj8uh4BsVIK3dVq186DripYNQbuwiy5LR0V3y0W_iqLV_W&filters=eyJmaWx0ZXJfZXZlbnRzX2RhdGVfcmFuZ2U6MCI6IntcIm5hbWVcIjpcImZpbHRlcl9ldmVudHNfZGF0ZVwiLFwiYXJnc1wiOlwiMjAyNC0wNi0xN34yMDI0LTA3LTE3XCJ9IiwicnBfZXZlbnRzX2xvY2F0aW9uOjAiOiJ7XCJuYW1lXCI6XCJmaWx0ZXJfZXZlbnRzX2xvY2F0aW9uXCIsXCJhcmdzXCI6XCIxMDQ5MDY4Mzk1NDY2MDNcIn0ifQ%3D%3D"
  },
  {
    "id": 2896,
    "name": "Castillon-en-Couserans",
    "state_id": 9,
    "postal_code": "09800",
    "state_name": "Ariège",
    "query": "https://www.facebook.com/events/search?q=Home%20%26%20Garden&sde=Abq6hpNmijm8kReC4KYmmDP0NuT4IxNliFRnd3vuRZUj8uh4BsVIK3dVq186DripYNQbuwiy5LR0V3y0W_iqLV_W&filters=eyJmaWx0ZXJfZXZlbnRzX2RhdGVfcmFuZ2U6MCI6IntcIm5hbWVcIjpcImZpbHRlcl9ldmVudHNfZGF0ZVwiLFwiYXJnc1wiOlwiMjAyNC0wNi0xN34yMDI0LTA3LTE3XCJ9IiwicnBfZXZlbnRzX2xvY2F0aW9uOjAiOiJ7XCJuYW1lXCI6XCJmaWx0ZXJfZXZlbnRzX2xvY2F0aW9uXCIsXCJhcmdzXCI6XCIxMDU2MDQ3NDI4MDYxNTNcIn0ifQ%3D%3D"
  },
  {
    "id": 2897,
    "name": "Caumont",
    "state_id": 9,
    "postal_code": "09160",
    "state_name": "Ariège",
    "query": "https://www.facebook.com/events/search?q=Home%20%26%20Garden&sde=Abq6hpNmijm8kReC4KYmmDP0NuT4IxNliFRnd3vuRZUj8uh4BsVIK3dVq186DripYNQbuwiy5LR0V3y0W_iqLV_W&filters=eyJmaWx0ZXJfZXZlbnRzX2RhdGVfcmFuZ2U6MCI6IntcIm5hbWVcIjpcImZpbHRlcl9ldmVudHNfZGF0ZVwiLFwiYXJnc1wiOlwiMjAyNC0wNi0xN34yMDI0LTA3LTE3XCJ9IiwicnBfZXZlbnRzX2xvY2F0aW9uOjAiOiJ7XCJuYW1lXCI6XCJmaWx0ZXJfZXZlbnRzX2xvY2F0aW9uXCIsXCJhcmdzXCI6XCIxMTMyMzI4OTUzNTkyNjJcIn0ifQ%3D%3D"
  },
  {
    "id": 2898,
    "name": "Caussou",
    "state_id": 9,
    "postal_code": "09250",
    "state_name": "Ariège",
    "query": ""
  },
  {
    "id": 2899,
    "name": "Caychax",
    "state_id": 9,
    "postal_code": "09250",
    "state_name": "Ariège",
    "query": ""
  },
  {
    "id": 2900,
    "name": "Cazals-des-Baylès",
    "state_id": 9,
    "postal_code": "09500",
    "state_name": "Ariège",
    "query": ""
  },
  {
    "id": 2901,
    "name": "Cazaux",
    "state_id": 9,
    "postal_code": "09120",
    "state_name": "Ariège",
    "query": "https://www.facebook.com/events/search?q=Home%20%26%20Garden&sde=Abq6hpNmijm8kReC4KYmmDP0NuT4IxNliFRnd3vuRZUj8uh4BsVIK3dVq186DripYNQbuwiy5LR0V3y0W_iqLV_W&filters=eyJmaWx0ZXJfZXZlbnRzX2RhdGVfcmFuZ2U6MCI6IntcIm5hbWVcIjpcImZpbHRlcl9ldmVudHNfZGF0ZVwiLFwiYXJnc1wiOlwiMjAyNC0wNi0xN34yMDI0LTA3LTE3XCJ9IiwicnBfZXZlbnRzX2xvY2F0aW9uOjAiOiJ7XCJuYW1lXCI6XCJmaWx0ZXJfZXZlbnRzX2xvY2F0aW9uXCIsXCJhcmdzXCI6XCIxMTY2MTIxODgzNTIzODJcIn0ifQ%3D%3D"
  },
  {
    "id": 2902,
    "name": "Cazavet",
    "state_id": 9,
    "postal_code": "09160",
    "state_name": "Ariège",
    "query": "https://www.facebook.com/events/search?q=Home%20%26%20Garden&sde=Abq6hpNmijm8kReC4KYmmDP0NuT4IxNliFRnd3vuRZUj8uh4BsVIK3dVq186DripYNQbuwiy5LR0V3y0W_iqLV_W&filters=eyJmaWx0ZXJfZXZlbnRzX2RhdGVfcmFuZ2U6MCI6IntcIm5hbWVcIjpcImZpbHRlcl9ldmVudHNfZGF0ZVwiLFwiYXJnc1wiOlwiMjAyNC0wNi0xN34yMDI0LTA3LTE3XCJ9IiwicnBfZXZlbnRzX2xvY2F0aW9uOjAiOiJ7XCJuYW1lXCI6XCJmaWx0ZXJfZXZlbnRzX2xvY2F0aW9uXCIsXCJhcmdzXCI6XCIxMDg0NDk1MTkxODAxOTBcIn0ifQ%3D%3D"
  },
  {
    "id": 2903,
    "name": "Cazenave-Serres-et-Allens",
    "state_id": 9,
    "postal_code": "09400",
    "state_name": "Ariège",
    "query": ""
  },
  {
    "id": 2904,
    "name": "Celles",
    "state_id": 9,
    "postal_code": "09000",
    "state_name": "Ariège",
    "query": ""
  },
  {
    "id": 2905,
    "name": "Cérizols",
    "state_id": 9,
    "postal_code": "09230",
    "state_name": "Ariège",
    "query": ""
  },
  {
    "id": 2906,
    "name": "Cescau",
    "state_id": 9,
    "postal_code": "09800",
    "state_name": "Ariège",
    "query": ""
  },
  {
    "id": 2907,
    "name": "Château-Verdun",
    "state_id": 9,
    "postal_code": "09310",
    "state_name": "Ariège",
    "query": ""
  },
  {
    "id": 2908,
    "name": "Clermont",
    "state_id": 9,
    "postal_code": "09420",
    "state_name": "Ariège",
    "query": ""
  },
  {
    "id": 2909,
    "name": "Contrazy",
    "state_id": 9,
    "postal_code": "09230",
    "state_name": "Ariège",
    "query": ""
  },
  {
    "id": 2910,
    "name": "Cos",
    "state_id": 9,
    "postal_code": "09000",
    "state_name": "Ariège",
    "query": "https://www.facebook.com/events/search?q=Home%20%26%20Garden&sde=Abq6hpNmijm8kReC4KYmmDP0NuT4IxNliFRnd3vuRZUj8uh4BsVIK3dVq186DripYNQbuwiy5LR0V3y0W_iqLV_W&filters=eyJmaWx0ZXJfZXZlbnRzX2RhdGVfcmFuZ2U6MCI6IntcIm5hbWVcIjpcImZpbHRlcl9ldmVudHNfZGF0ZVwiLFwiYXJnc1wiOlwiMjAyNC0wNi0xN34yMDI0LTA3LTE3XCJ9IiwicnBfZXZlbnRzX2xvY2F0aW9uOjAiOiJ7XCJuYW1lXCI6XCJmaWx0ZXJfZXZlbnRzX2xvY2F0aW9uXCIsXCJhcmdzXCI6XCIxMTQyMjYyMDUyNTQ1NDhcIn0ifQ%3D%3D"
  },
  {
    "id": 2911,
    "name": "Couflens",
    "state_id": 9,
    "postal_code": "09140",
    "state_name": "Ariège",
    "query": "https://www.facebook.com/events/search?q=Home%20%26%20Garden&sde=Abq6hpNmijm8kReC4KYmmDP0NuT4IxNliFRnd3vuRZUj8uh4BsVIK3dVq186DripYNQbuwiy5LR0V3y0W_iqLV_W&filters=eyJmaWx0ZXJfZXZlbnRzX2RhdGVfcmFuZ2U6MCI6IntcIm5hbWVcIjpcImZpbHRlcl9ldmVudHNfZGF0ZVwiLFwiYXJnc1wiOlwiMjAyNC0wNi0xN34yMDI0LTA3LTE3XCJ9IiwicnBfZXZlbnRzX2xvY2F0aW9uOjAiOiJ7XCJuYW1lXCI6XCJmaWx0ZXJfZXZlbnRzX2xvY2F0aW9uXCIsXCJhcmdzXCI6XCIxMDQxMDc1MTYyOTI4OTZcIn0ifQ%3D%3D"
  },
  {
    "id": 2912,
    "name": "Coussa",
    "state_id": 9,
    "postal_code": "09120",
    "state_name": "Ariège",
    "query": "https://www.facebook.com/events/search?q=Home%20%26%20Garden&sde=Abq6hpNmijm8kReC4KYmmDP0NuT4IxNliFRnd3vuRZUj8uh4BsVIK3dVq186DripYNQbuwiy5LR0V3y0W_iqLV_W&filters=eyJmaWx0ZXJfZXZlbnRzX2RhdGVfcmFuZ2U6MCI6IntcIm5hbWVcIjpcImZpbHRlcl9ldmVudHNfZGF0ZVwiLFwiYXJnc1wiOlwiMjAyNC0wNi0xN34yMDI0LTA3LTE3XCJ9IiwicnBfZXZlbnRzX2xvY2F0aW9uOjAiOiJ7XCJuYW1lXCI6XCJmaWx0ZXJfZXZlbnRzX2xvY2F0aW9uXCIsXCJhcmdzXCI6XCIxMDM3ODc0MTYzMjY1MzlcIn0ifQ%3D%3D"
  },
  {
    "id": 2913,
    "name": "Coutens",
    "state_id": 9,
    "postal_code": "09500",
    "state_name": "Ariège",
    "query": ""
  },
  {
    "id": 2914,
    "name": "Crampagna",
    "state_id": 9,
    "postal_code": "09120",
    "state_name": "Ariège",
    "query": "https://www.facebook.com/events/search?q=Home%20%26%20Garden&sde=Abq6hpNmijm8kReC4KYmmDP0NuT4IxNliFRnd3vuRZUj8uh4BsVIK3dVq186DripYNQbuwiy5LR0V3y0W_iqLV_W&filters=eyJmaWx0ZXJfZXZlbnRzX2RhdGVfcmFuZ2U6MCI6IntcIm5hbWVcIjpcImZpbHRlcl9ldmVudHNfZGF0ZVwiLFwiYXJnc1wiOlwiMjAyNC0wNi0xN34yMDI0LTA3LTE3XCJ9IiwicnBfZXZlbnRzX2xvY2F0aW9uOjAiOiJ7XCJuYW1lXCI6XCJmaWx0ZXJfZXZlbnRzX2xvY2F0aW9uXCIsXCJhcmdzXCI6XCIxMTE4ODA4ODU0OTUwNjNcIn0ifQ%3D%3D"
  },
  {
    "id": 2915,
    "name": "Dalou",
    "state_id": 9,
    "postal_code": "09120",
    "state_name": "Ariège",
    "query": "https://www.facebook.com/events/search?q=Home%20%26%20Garden&sde=Abq6hpNmijm8kReC4KYmmDP0NuT4IxNliFRnd3vuRZUj8uh4BsVIK3dVq186DripYNQbuwiy5LR0V3y0W_iqLV_W&filters=eyJmaWx0ZXJfZXZlbnRzX2RhdGVfcmFuZ2U6MCI6IntcIm5hbWVcIjpcImZpbHRlcl9ldmVudHNfZGF0ZVwiLFwiYXJnc1wiOlwiMjAyNC0wNi0xN34yMDI0LTA3LTE3XCJ9IiwicnBfZXZlbnRzX2xvY2F0aW9uOjAiOiJ7XCJuYW1lXCI6XCJmaWx0ZXJfZXZlbnRzX2xvY2F0aW9uXCIsXCJhcmdzXCI6XCIxMDg2NDM3NzU4MjY2MTBcIn0ifQ%3D%3D"
  },
  {
    "id": 2916,
    "name": "Daumazan-sur-Arize",
    "state_id": 9,
    "postal_code": "09350",
    "state_name": "Ariège",
    "query": "https://www.facebook.com/events/search?q=Home%20%26%20Garden&sde=Abq6hpNmijm8kReC4KYmmDP0NuT4IxNliFRnd3vuRZUj8uh4BsVIK3dVq186DripYNQbuwiy5LR0V3y0W_iqLV_W&filters=eyJmaWx0ZXJfZXZlbnRzX2RhdGVfcmFuZ2U6MCI6IntcIm5hbWVcIjpcImZpbHRlcl9ldmVudHNfZGF0ZVwiLFwiYXJnc1wiOlwiMjAyNC0wNi0xN34yMDI0LTA3LTE3XCJ9IiwicnBfZXZlbnRzX2xvY2F0aW9uOjAiOiJ7XCJuYW1lXCI6XCJmaWx0ZXJfZXZlbnRzX2xvY2F0aW9uXCIsXCJhcmdzXCI6XCIxMDc2MzkzMjkyNjU4NTFcIn0ifQ%3D%3D"
  },
  {
    "id": 2917,
    "name": "Dreuilhe",
    "state_id": 9,
    "postal_code": "09300",
    "state_name": "Ariège",
    "query": "https://www.facebook.com/events/search?q=Home%20%26%20Garden&sde=Abq6hpNmijm8kReC4KYmmDP0NuT4IxNliFRnd3vuRZUj8uh4BsVIK3dVq186DripYNQbuwiy5LR0V3y0W_iqLV_W&filters=eyJmaWx0ZXJfZXZlbnRzX2RhdGVfcmFuZ2U6MCI6IntcIm5hbWVcIjpcImZpbHRlcl9ldmVudHNfZGF0ZVwiLFwiYXJnc1wiOlwiMjAyNC0wNi0xN34yMDI0LTA3LTE3XCJ9IiwicnBfZXZlbnRzX2xvY2F0aW9uOjAiOiJ7XCJuYW1lXCI6XCJmaWx0ZXJfZXZlbnRzX2xvY2F0aW9uXCIsXCJhcmdzXCI6XCIxMDgwODcyOTU4ODU1MTJcIn0ifQ%3D%3D"
  },
  {
    "id": 2918,
    "name": "Dun",
    "state_id": 9,
    "postal_code": "09600",
    "state_name": "Ariège",
    "query": "https://www.facebook.com/events/search?q=Home%20%26%20Garden&sde=Abq6hpNmijm8kReC4KYmmDP0NuT4IxNliFRnd3vuRZUj8uh4BsVIK3dVq186DripYNQbuwiy5LR0V3y0W_iqLV_W&filters=eyJmaWx0ZXJfZXZlbnRzX2RhdGVfcmFuZ2U6MCI6IntcIm5hbWVcIjpcImZpbHRlcl9ldmVudHNfZGF0ZVwiLFwiYXJnc1wiOlwiMjAyNC0wNi0xN34yMDI0LTA3LTE3XCJ9IiwicnBfZXZlbnRzX2xvY2F0aW9uOjAiOiJ7XCJuYW1lXCI6XCJmaWx0ZXJfZXZlbnRzX2xvY2F0aW9uXCIsXCJhcmdzXCI6XCIxMTExNjQ0MzIyNDE3NjRcIn0ifQ%3D%3D"
  },
  {
    "id": 2919,
    "name": "Durban-sur-Arize",
    "state_id": 9,
    "postal_code": "09240",
    "state_name": "Ariège",
    "query": "https://www.facebook.com/events/search?q=Home%20%26%20Garden&sde=Abq6hpNmijm8kReC4KYmmDP0NuT4IxNliFRnd3vuRZUj8uh4BsVIK3dVq186DripYNQbuwiy5LR0V3y0W_iqLV_W&filters=eyJmaWx0ZXJfZXZlbnRzX2RhdGVfcmFuZ2U6MCI6IntcIm5hbWVcIjpcImZpbHRlcl9ldmVudHNfZGF0ZVwiLFwiYXJnc1wiOlwiMjAyNC0wNi0xN34yMDI0LTA3LTE3XCJ9IiwicnBfZXZlbnRzX2xvY2F0aW9uOjAiOiJ7XCJuYW1lXCI6XCJmaWx0ZXJfZXZlbnRzX2xvY2F0aW9uXCIsXCJhcmdzXCI6XCIxMTI3MjQ5Mjg3MzkxNDlcIn0ifQ%3D%3D"
  },
  {
    "id": 2920,
    "name": "Durfort",
    "state_id": 9,
    "postal_code": "09130",
    "state_name": "Ariège",
    "query": "https://www.facebook.com/events/search?q=Home%20%26%20Garden&sde=Abq6hpNmijm8kReC4KYmmDP0NuT4IxNliFRnd3vuRZUj8uh4BsVIK3dVq186DripYNQbuwiy5LR0V3y0W_iqLV_W&filters=eyJmaWx0ZXJfZXZlbnRzX2RhdGVfcmFuZ2U6MCI6IntcIm5hbWVcIjpcImZpbHRlcl9ldmVudHNfZGF0ZVwiLFwiYXJnc1wiOlwiMjAyNC0wNi0xN34yMDI0LTA3LTE3XCJ9IiwicnBfZXZlbnRzX2xvY2F0aW9uOjAiOiJ7XCJuYW1lXCI6XCJmaWx0ZXJfZXZlbnRzX2xvY2F0aW9uXCIsXCJhcmdzXCI6XCIxMDkyMjI0MTkwOTgzMjhcIn0ifQ%3D%3D"
  },
  {
    "id": 2921,
    "name": "Encourtiech",
    "state_id": 9,
    "postal_code": "09200",
    "state_name": "Ariège",
    "query": ""
  },
  {
    "id": 2922,
    "name": "Engomer",
    "state_id": 9,
    "postal_code": "09800",
    "state_name": "Ariège",
    "query": "https://www.facebook.com/events/search?q=Home%20%26%20Garden&sde=Abq6hpNmijm8kReC4KYmmDP0NuT4IxNliFRnd3vuRZUj8uh4BsVIK3dVq186DripYNQbuwiy5LR0V3y0W_iqLV_W&filters=eyJmaWx0ZXJfZXZlbnRzX2RhdGVfcmFuZ2U6MCI6IntcIm5hbWVcIjpcImZpbHRlcl9ldmVudHNfZGF0ZVwiLFwiYXJnc1wiOlwiMjAyNC0wNi0xN34yMDI0LTA3LTE3XCJ9IiwicnBfZXZlbnRzX2xvY2F0aW9uOjAiOiJ7XCJuYW1lXCI6XCJmaWx0ZXJfZXZlbnRzX2xvY2F0aW9uXCIsXCJhcmdzXCI6XCIxMTMxMTg4NTIwMzU0MTVcIn0ifQ%3D%3D"
  },
  {
    "id": 2923,
    "name": "Ercé",
    "state_id": 9,
    "postal_code": "09140",
    "state_name": "Ariège",
    "query": "https://www.facebook.com/events/search?q=Home%20%26%20Garden&sde=Abq6hpNmijm8kReC4KYmmDP0NuT4IxNliFRnd3vuRZUj8uh4BsVIK3dVq186DripYNQbuwiy5LR0V3y0W_iqLV_W&filters=eyJmaWx0ZXJfZXZlbnRzX2RhdGVfcmFuZ2U6MCI6IntcIm5hbWVcIjpcImZpbHRlcl9ldmVudHNfZGF0ZVwiLFwiYXJnc1wiOlwiMjAyNC0wNi0xN34yMDI0LTA3LTE3XCJ9IiwicnBfZXZlbnRzX2xvY2F0aW9uOjAiOiJ7XCJuYW1lXCI6XCJmaWx0ZXJfZXZlbnRzX2xvY2F0aW9uXCIsXCJhcmdzXCI6XCIxMTIxNDk2MDIxMzM5MDlcIn0ifQ%3D%3D"
  },
  {
    "id": 2924,
    "name": "Erp",
    "state_id": 9,
    "postal_code": "09200",
    "state_name": "Ariège",
    "query": ""
  },
  {
    "id": 2925,
    "name": "Esclagne",
    "state_id": 9,
    "postal_code": "09600",
    "state_name": "Ariège",
    "query": ""
  },
  {
    "id": 2926,
    "name": "Escosse",
    "state_id": 9,
    "postal_code": "09100",
    "state_name": "Ariège",
    "query": "https://www.facebook.com/events/search?q=Home%20%26%20Garden&sde=Abq6hpNmijm8kReC4KYmmDP0NuT4IxNliFRnd3vuRZUj8uh4BsVIK3dVq186DripYNQbuwiy5LR0V3y0W_iqLV_W&filters=eyJmaWx0ZXJfZXZlbnRzX2RhdGVfcmFuZ2U6MCI6IntcIm5hbWVcIjpcImZpbHRlcl9ldmVudHNfZGF0ZVwiLFwiYXJnc1wiOlwiMjAyNC0wNi0xN34yMDI0LTA3LTE3XCJ9IiwicnBfZXZlbnRzX2xvY2F0aW9uOjAiOiJ7XCJuYW1lXCI6XCJmaWx0ZXJfZXZlbnRzX2xvY2F0aW9uXCIsXCJhcmdzXCI6XCIxMDg2Nzc2NDU4MjI2MDVcIn0ifQ%3D%3D"
  },
  {
    "id": 2927,
    "name": "Esplas",
    "state_id": 9,
    "postal_code": "09700",
    "state_name": "Ariège",
    "query": "https://www.facebook.com/events/search?q=Home%20%26%20Garden&sde=Abq6hpNmijm8kReC4KYmmDP0NuT4IxNliFRnd3vuRZUj8uh4BsVIK3dVq186DripYNQbuwiy5LR0V3y0W_iqLV_W&filters=eyJmaWx0ZXJfZXZlbnRzX2RhdGVfcmFuZ2U6MCI6IntcIm5hbWVcIjpcImZpbHRlcl9ldmVudHNfZGF0ZVwiLFwiYXJnc1wiOlwiMjAyNC0wNi0xN34yMDI0LTA3LTE3XCJ9IiwicnBfZXZlbnRzX2xvY2F0aW9uOjAiOiJ7XCJuYW1lXCI6XCJmaWx0ZXJfZXZlbnRzX2xvY2F0aW9uXCIsXCJhcmdzXCI6XCIxMDgxMDUxMjkyMTA3MTNcIn0ifQ%3D%3D"
  },
  {
    "id": 2928,
    "name": "Esplas-de-Sérou",
    "state_id": 9,
    "postal_code": "09420",
    "state_name": "Ariège",
    "query": ""
  },
  {
    "id": 2929,
    "name": "Eycheil",
    "state_id": 9,
    "postal_code": "09200",
    "state_name": "Ariège",
    "query": ""
  },
  {
    "id": 2930,
    "name": "Fabas",
    "state_id": 9,
    "postal_code": "09230",
    "state_name": "Ariège",
    "query": "https://www.facebook.com/events/search?q=Home%20%26%20Garden&sde=Abq6hpNmijm8kReC4KYmmDP0NuT4IxNliFRnd3vuRZUj8uh4BsVIK3dVq186DripYNQbuwiy5LR0V3y0W_iqLV_W&filters=eyJmaWx0ZXJfZXZlbnRzX2RhdGVfcmFuZ2U6MCI6IntcIm5hbWVcIjpcImZpbHRlcl9ldmVudHNfZGF0ZVwiLFwiYXJnc1wiOlwiMjAyNC0wNi0xN34yMDI0LTA3LTE3XCJ9IiwicnBfZXZlbnRzX2xvY2F0aW9uOjAiOiJ7XCJuYW1lXCI6XCJmaWx0ZXJfZXZlbnRzX2xvY2F0aW9uXCIsXCJhcmdzXCI6XCIxMDQ2NDk2NjYyNDAzMTdcIn0ifQ%3D%3D"
  },
  {
    "id": 2931,
    "name": "Ferrières-sur-Ariège",
    "state_id": 9,
    "postal_code": "09000",
    "state_name": "Ariège",
    "query": "https://www.facebook.com/events/search?q=Home%20%26%20Garden&sde=Abq6hpNmijm8kReC4KYmmDP0NuT4IxNliFRnd3vuRZUj8uh4BsVIK3dVq186DripYNQbuwiy5LR0V3y0W_iqLV_W&filters=eyJmaWx0ZXJfZXZlbnRzX2RhdGVfcmFuZ2U6MCI6IntcIm5hbWVcIjpcImZpbHRlcl9ldmVudHNfZGF0ZVwiLFwiYXJnc1wiOlwiMjAyNC0wNi0xN34yMDI0LTA3LTE3XCJ9IiwicnBfZXZlbnRzX2xvY2F0aW9uOjAiOiJ7XCJuYW1lXCI6XCJmaWx0ZXJfZXZlbnRzX2xvY2F0aW9uXCIsXCJhcmdzXCI6XCIxMDgxMTUwMjI1NDIzNjlcIn0ifQ%3D%3D"
  },
  {
    "id": 2932,
    "name": "Foix",
    "state_id": 9,
    "postal_code": "09000",
    "state_name": "Ariège",
    "query": "https://www.facebook.com/events/search?q=Home%20%26%20Garden&sde=Abq6hpNmijm8kReC4KYmmDP0NuT4IxNliFRnd3vuRZUj8uh4BsVIK3dVq186DripYNQbuwiy5LR0V3y0W_iqLV_W&filters=eyJmaWx0ZXJfZXZlbnRzX2RhdGVfcmFuZ2U6MCI6IntcIm5hbWVcIjpcImZpbHRlcl9ldmVudHNfZGF0ZVwiLFwiYXJnc1wiOlwiMjAyNC0wNi0xN34yMDI0LTA3LTE3XCJ9IiwicnBfZXZlbnRzX2xvY2F0aW9uOjAiOiJ7XCJuYW1lXCI6XCJmaWx0ZXJfZXZlbnRzX2xvY2F0aW9uXCIsXCJhcmdzXCI6XCIxMDc5ODYwNTI1NjM3OTBcIn0ifQ%3D%3D"
  },
  {
    "id": 2933,
    "name": "Fornex",
    "state_id": 9,
    "postal_code": "09350",
    "state_name": "Ariège",
    "query": ""
  },
  {
    "id": 2934,
    "name": "Le Fossat",
    "state_id": 9,
    "postal_code": "09130",
    "state_name": "Ariège",
    "query": "https://www.facebook.com/events/search?q=Home%20%26%20Garden&sde=Abq6hpNmijm8kReC4KYmmDP0NuT4IxNliFRnd3vuRZUj8uh4BsVIK3dVq186DripYNQbuwiy5LR0V3y0W_iqLV_W&filters=eyJmaWx0ZXJfZXZlbnRzX2RhdGVfcmFuZ2U6MCI6IntcIm5hbWVcIjpcImZpbHRlcl9ldmVudHNfZGF0ZVwiLFwiYXJnc1wiOlwiMjAyNC0wNi0xN34yMDI0LTA3LTE3XCJ9IiwicnBfZXZlbnRzX2xvY2F0aW9uOjAiOiJ7XCJuYW1lXCI6XCJmaWx0ZXJfZXZlbnRzX2xvY2F0aW9uXCIsXCJhcmdzXCI6XCIxMTI1MDAxNzg3NjI0ODFcIn0ifQ%3D%3D"
  },
  {
    "id": 2935,
    "name": "Fougax-et-Barrineuf",
    "state_id": 9,
    "postal_code": "09300",
    "state_name": "Ariège",
    "query": "https://www.facebook.com/events/search?q=Home%20%26%20Garden&sde=Abq6hpNmijm8kReC4KYmmDP0NuT4IxNliFRnd3vuRZUj8uh4BsVIK3dVq186DripYNQbuwiy5LR0V3y0W_iqLV_W&filters=eyJmaWx0ZXJfZXZlbnRzX2RhdGVfcmFuZ2U6MCI6IntcIm5hbWVcIjpcImZpbHRlcl9ldmVudHNfZGF0ZVwiLFwiYXJnc1wiOlwiMjAyNC0wNi0xN34yMDI0LTA3LTE3XCJ9IiwicnBfZXZlbnRzX2xvY2F0aW9uOjAiOiJ7XCJuYW1lXCI6XCJmaWx0ZXJfZXZlbnRzX2xvY2F0aW9uXCIsXCJhcmdzXCI6XCIxMTI2ODM1OTg3NDQ1NDRcIn0ifQ%3D%3D"
  },
  {
    "id": 2936,
    "name": "Freychenet",
    "state_id": 9,
    "postal_code": "09300",
    "state_name": "Ariège",
    "query": ""
  },
  {
    "id": 2937,
    "name": "Gabre",
    "state_id": 9,
    "postal_code": "09290",
    "state_name": "Ariège",
    "query": ""
  },
  {
    "id": 2938,
    "name": "Gajan",
    "state_id": 9,
    "postal_code": "09190",
    "state_name": "Ariège",
    "query": "https://www.facebook.com/events/search?q=Home%20%26%20Garden&sde=Abq6hpNmijm8kReC4KYmmDP0NuT4IxNliFRnd3vuRZUj8uh4BsVIK3dVq186DripYNQbuwiy5LR0V3y0W_iqLV_W&filters=eyJmaWx0ZXJfZXZlbnRzX2RhdGVfcmFuZ2U6MCI6IntcIm5hbWVcIjpcImZpbHRlcl9ldmVudHNfZGF0ZVwiLFwiYXJnc1wiOlwiMjAyNC0wNi0xN34yMDI0LTA3LTE3XCJ9IiwicnBfZXZlbnRzX2xvY2F0aW9uOjAiOiJ7XCJuYW1lXCI6XCJmaWx0ZXJfZXZlbnRzX2xvY2F0aW9uXCIsXCJhcmdzXCI6XCIxMDg5OTQwMDkxMjgyODFcIn0ifQ%3D%3D"
  },
  {
    "id": 2939,
    "name": "Galey",
    "state_id": 9,
    "postal_code": "09800",
    "state_name": "Ariège",
    "query": ""
  },
  {
    "id": 2940,
    "name": "Ganac",
    "state_id": 9,
    "postal_code": "09000",
    "state_name": "Ariège",
    "query": "https://www.facebook.com/events/search?q=Home%20%26%20Garden&sde=Abq6hpNmijm8kReC4KYmmDP0NuT4IxNliFRnd3vuRZUj8uh4BsVIK3dVq186DripYNQbuwiy5LR0V3y0W_iqLV_W&filters=eyJmaWx0ZXJfZXZlbnRzX2RhdGVfcmFuZ2U6MCI6IntcIm5hbWVcIjpcImZpbHRlcl9ldmVudHNfZGF0ZVwiLFwiYXJnc1wiOlwiMjAyNC0wNi0xN34yMDI0LTA3LTE3XCJ9IiwicnBfZXZlbnRzX2xvY2F0aW9uOjAiOiJ7XCJuYW1lXCI6XCJmaWx0ZXJfZXZlbnRzX2xvY2F0aW9uXCIsXCJhcmdzXCI6XCIxMTMwMTUyMDUzNzg1MDRcIn0ifQ%3D%3D"
  },
  {
    "id": 2941,
    "name": "Garanou",
    "state_id": 9,
    "postal_code": "09250",
    "state_name": "Ariège",
    "query": ""
  },
  {
    "id": 2942,
    "name": "Gaudiès",
    "state_id": 9,
    "postal_code": "09700",
    "state_name": "Ariège",
    "query": "https://www.facebook.com/events/search?q=Home%20%26%20Garden&sde=Abq6hpNmijm8kReC4KYmmDP0NuT4IxNliFRnd3vuRZUj8uh4BsVIK3dVq186DripYNQbuwiy5LR0V3y0W_iqLV_W&filters=eyJmaWx0ZXJfZXZlbnRzX2RhdGVfcmFuZ2U6MCI6IntcIm5hbWVcIjpcImZpbHRlcl9ldmVudHNfZGF0ZVwiLFwiYXJnc1wiOlwiMjAyNC0wNi0xN34yMDI0LTA3LTE3XCJ9IiwicnBfZXZlbnRzX2xvY2F0aW9uOjAiOiJ7XCJuYW1lXCI6XCJmaWx0ZXJfZXZlbnRzX2xvY2F0aW9uXCIsXCJhcmdzXCI6XCIxMTI5NTMwMTIwNDkzNDdcIn0ifQ%3D%3D"
  },
  {
    "id": 2943,
    "name": "Génat",
    "state_id": 9,
    "postal_code": "09400",
    "state_name": "Ariège",
    "query": ""
  },
  {
    "id": 2944,
    "name": "Gestiès",
    "state_id": 9,
    "postal_code": "09220",
    "state_name": "Ariège",
    "query": ""
  },
  {
    "id": 2945,
    "name": "Gourbit",
    "state_id": 9,
    "postal_code": "09400",
    "state_name": "Ariège",
    "query": ""
  },
  {
    "id": 2946,
    "name": "Gudas",
    "state_id": 9,
    "postal_code": "09120",
    "state_name": "Ariège",
    "query": "https://www.facebook.com/events/search?q=Home%20%26%20Garden&sde=Abq6hpNmijm8kReC4KYmmDP0NuT4IxNliFRnd3vuRZUj8uh4BsVIK3dVq186DripYNQbuwiy5LR0V3y0W_iqLV_W&filters=eyJmaWx0ZXJfZXZlbnRzX2RhdGVfcmFuZ2U6MCI6IntcIm5hbWVcIjpcImZpbHRlcl9ldmVudHNfZGF0ZVwiLFwiYXJnc1wiOlwiMjAyNC0wNi0xN34yMDI0LTA3LTE3XCJ9IiwicnBfZXZlbnRzX2xvY2F0aW9uOjAiOiJ7XCJuYW1lXCI6XCJmaWx0ZXJfZXZlbnRzX2xvY2F0aW9uXCIsXCJhcmdzXCI6XCIxMTIzNjA5MjU0NDMxMzBcIn0ifQ%3D%3D"
  },
  {
    "id": 2947,
    "name": "L'Herm",
    "state_id": 9,
    "postal_code": "09000",
    "state_name": "Ariège",
    "query": ""
  },
  {
    "id": 2948,
    "name": "L'Hospitalet-près-l'Andorre",
    "state_id": 9,
    "postal_code": "09390",
    "state_name": "Ariège",
    "query": "https://www.facebook.com/events/search?q=Home%20%26%20Garden&sde=Abq6hpNmijm8kReC4KYmmDP0NuT4IxNliFRnd3vuRZUj8uh4BsVIK3dVq186DripYNQbuwiy5LR0V3y0W_iqLV_W&filters=eyJmaWx0ZXJfZXZlbnRzX2RhdGVfcmFuZ2U6MCI6IntcIm5hbWVcIjpcImZpbHRlcl9ldmVudHNfZGF0ZVwiLFwiYXJnc1wiOlwiMjAyNC0wNi0xN34yMDI0LTA3LTE3XCJ9IiwicnBfZXZlbnRzX2xvY2F0aW9uOjAiOiJ7XCJuYW1lXCI6XCJmaWx0ZXJfZXZlbnRzX2xvY2F0aW9uXCIsXCJhcmdzXCI6XCIxMTE4OTk2MjIxNjAwMzBcIn0ifQ%3D%3D"
  },
  {
    "id": 2949,
    "name": "Ignaux",
    "state_id": 9,
    "postal_code": "09110",
    "state_name": "Ariège",
    "query": "https://www.facebook.com/events/search?q=Home%20%26%20Garden&sde=Abq6hpNmijm8kReC4KYmmDP0NuT4IxNliFRnd3vuRZUj8uh4BsVIK3dVq186DripYNQbuwiy5LR0V3y0W_iqLV_W&filters=eyJmaWx0ZXJfZXZlbnRzX2RhdGVfcmFuZ2U6MCI6IntcIm5hbWVcIjpcImZpbHRlcl9ldmVudHNfZGF0ZVwiLFwiYXJnc1wiOlwiMjAyNC0wNi0xN34yMDI0LTA3LTE3XCJ9IiwicnBfZXZlbnRzX2xvY2F0aW9uOjAiOiJ7XCJuYW1lXCI6XCJmaWx0ZXJfZXZlbnRzX2xvY2F0aW9uXCIsXCJhcmdzXCI6XCIxMDU1NjI3OTI4MTA1MDhcIn0ifQ%3D%3D"
  },
  {
    "id": 2950,
    "name": "Illartein",
    "state_id": 9,
    "postal_code": "09800",
    "state_name": "Ariège",
    "query": ""
  },
  {
    "id": 2951,
    "name": "Ilhat",
    "state_id": 9,
    "postal_code": "09300",
    "state_name": "Ariège",
    "query": ""
  },
  {
    "id": 2952,
    "name": "Illier-et-Laramade",
    "state_id": 9,
    "postal_code": "09220",
    "state_name": "Ariège",
    "query": ""
  },
  {
    "id": 2953,
    "name": "Les Issards",
    "state_id": 9,
    "postal_code": "09100",
    "state_name": "Ariège",
    "query": ""
  },
  {
    "id": 2954,
    "name": "Justiniac",
    "state_id": 9,
    "postal_code": "09700",
    "state_name": "Ariège",
    "query": ""
  },
  {
    "id": 2955,
    "name": "Labatut",
    "state_id": 9,
    "postal_code": "09700",
    "state_name": "Ariège",
    "query": ""
  },
  {
    "id": 2956,
    "name": "Lacave",
    "state_id": 9,
    "postal_code": "09160",
    "state_name": "Ariège",
    "query": "https://www.facebook.com/events/search?q=Home%20%26%20Garden&sde=Abq6hpNmijm8kReC4KYmmDP0NuT4IxNliFRnd3vuRZUj8uh4BsVIK3dVq186DripYNQbuwiy5LR0V3y0W_iqLV_W&filters=eyJmaWx0ZXJfZXZlbnRzX2RhdGVfcmFuZ2U6MCI6IntcIm5hbWVcIjpcImZpbHRlcl9ldmVudHNfZGF0ZVwiLFwiYXJnc1wiOlwiMjAyNC0wNi0xN34yMDI0LTA3LTE3XCJ9IiwicnBfZXZlbnRzX2xvY2F0aW9uOjAiOiJ7XCJuYW1lXCI6XCJmaWx0ZXJfZXZlbnRzX2xvY2F0aW9uXCIsXCJhcmdzXCI6XCIxMDUwMTM5Mjk1MzU1MTNcIn0ifQ%3D%3D"
  },
  {
    "id": 2957,
    "name": "Lacourt",
    "state_id": 9,
    "postal_code": "09200",
    "state_name": "Ariège",
    "query": "https://www.facebook.com/events/search?q=Home%20%26%20Garden&sde=Abq6hpNmijm8kReC4KYmmDP0NuT4IxNliFRnd3vuRZUj8uh4BsVIK3dVq186DripYNQbuwiy5LR0V3y0W_iqLV_W&filters=eyJmaWx0ZXJfZXZlbnRzX2RhdGVfcmFuZ2U6MCI6IntcIm5hbWVcIjpcImZpbHRlcl9ldmVudHNfZGF0ZVwiLFwiYXJnc1wiOlwiMjAyNC0wNi0xN34yMDI0LTA3LTE3XCJ9IiwicnBfZXZlbnRzX2xvY2F0aW9uOjAiOiJ7XCJuYW1lXCI6XCJmaWx0ZXJfZXZlbnRzX2xvY2F0aW9uXCIsXCJhcmdzXCI6XCIxMDQwNDQ4OTI5NjY3MzRcIn0ifQ%3D%3D"
  },
  {
    "id": 2958,
    "name": "Lagarde",
    "state_id": 9,
    "postal_code": "09500",
    "state_name": "Ariège",
    "query": "https://www.facebook.com/events/search?q=Home%20%26%20Garden&sde=Abq6hpNmijm8kReC4KYmmDP0NuT4IxNliFRnd3vuRZUj8uh4BsVIK3dVq186DripYNQbuwiy5LR0V3y0W_iqLV_W&filters=eyJmaWx0ZXJfZXZlbnRzX2RhdGVfcmFuZ2U6MCI6IntcIm5hbWVcIjpcImZpbHRlcl9ldmVudHNfZGF0ZVwiLFwiYXJnc1wiOlwiMjAyNC0wNi0xN34yMDI0LTA3LTE3XCJ9IiwicnBfZXZlbnRzX2xvY2F0aW9uOjAiOiJ7XCJuYW1lXCI6XCJmaWx0ZXJfZXZlbnRzX2xvY2F0aW9uXCIsXCJhcmdzXCI6XCIxMTM3NDg5Nzg2Mzk1MTZcIn0ifQ%3D%3D"
  },
  {
    "id": 2959,
    "name": "Lanoux",
    "state_id": 9,
    "postal_code": "09130",
    "state_name": "Ariège",
    "query": ""
  },
  {
    "id": 2960,
    "name": "Lapège",
    "state_id": 9,
    "postal_code": "09400",
    "state_name": "Ariège",
    "query": ""
  },
  {
    "id": 2961,
    "name": "Lapenne",
    "state_id": 9,
    "postal_code": "09500",
    "state_name": "Ariège",
    "query": "https://www.facebook.com/events/search?q=Home%20%26%20Garden&sde=Abq6hpNmijm8kReC4KYmmDP0NuT4IxNliFRnd3vuRZUj8uh4BsVIK3dVq186DripYNQbuwiy5LR0V3y0W_iqLV_W&filters=eyJmaWx0ZXJfZXZlbnRzX2RhdGVfcmFuZ2U6MCI6IntcIm5hbWVcIjpcImZpbHRlcl9ldmVudHNfZGF0ZVwiLFwiYXJnc1wiOlwiMjAyNC0wNi0xN34yMDI0LTA3LTE3XCJ9IiwicnBfZXZlbnRzX2xvY2F0aW9uOjAiOiJ7XCJuYW1lXCI6XCJmaWx0ZXJfZXZlbnRzX2xvY2F0aW9uXCIsXCJhcmdzXCI6XCIxMTE5OTQ3NDU0ODAxMzBcIn0ifQ%3D%3D"
  },
  {
    "id": 2962,
    "name": "Larbont",
    "state_id": 9,
    "postal_code": "09240",
    "state_name": "Ariège",
    "query": ""
  },
  {
    "id": 2963,
    "name": "Larcat",
    "state_id": 9,
    "postal_code": "09310",
    "state_name": "Ariège",
    "query": "https://www.facebook.com/events/search?q=Home%20%26%20Garden&sde=Abq6hpNmijm8kReC4KYmmDP0NuT4IxNliFRnd3vuRZUj8uh4BsVIK3dVq186DripYNQbuwiy5LR0V3y0W_iqLV_W&filters=eyJmaWx0ZXJfZXZlbnRzX2RhdGVfcmFuZ2U6MCI6IntcIm5hbWVcIjpcImZpbHRlcl9ldmVudHNfZGF0ZVwiLFwiYXJnc1wiOlwiMjAyNC0wNi0xN34yMDI0LTA3LTE3XCJ9IiwicnBfZXZlbnRzX2xvY2F0aW9uOjAiOiJ7XCJuYW1lXCI6XCJmaWx0ZXJfZXZlbnRzX2xvY2F0aW9uXCIsXCJhcmdzXCI6XCIxMTIzMDg3OTg3ODA5MDRcIn0ifQ%3D%3D"
  },
  {
    "id": 2964,
    "name": "Larnat",
    "state_id": 9,
    "postal_code": "09310",
    "state_name": "Ariège",
    "query": ""
  },
  {
    "id": 2965,
    "name": "Laroque-d'Olmes",
    "state_id": 9,
    "postal_code": "09600",
    "state_name": "Ariège",
    "query": "https://www.facebook.com/events/search?q=Home%20%26%20Garden&sde=Abq6hpNmijm8kReC4KYmmDP0NuT4IxNliFRnd3vuRZUj8uh4BsVIK3dVq186DripYNQbuwiy5LR0V3y0W_iqLV_W&filters=eyJmaWx0ZXJfZXZlbnRzX2RhdGVfcmFuZ2U6MCI6IntcIm5hbWVcIjpcImZpbHRlcl9ldmVudHNfZGF0ZVwiLFwiYXJnc1wiOlwiMjAyNC0wNi0xN34yMDI0LTA3LTE3XCJ9IiwicnBfZXZlbnRzX2xvY2F0aW9uOjAiOiJ7XCJuYW1lXCI6XCJmaWx0ZXJfZXZlbnRzX2xvY2F0aW9uXCIsXCJhcmdzXCI6XCIxMDMxMjYxMzk3MjcyNDhcIn0ifQ%3D%3D"
  },
  {
    "id": 2966,
    "name": "Lasserre",
    "state_id": 9,
    "postal_code": "09230",
    "state_name": "Ariège",
    "query": "https://www.facebook.com/events/search?q=Home%20%26%20Garden&sde=Abq6hpNmijm8kReC4KYmmDP0NuT4IxNliFRnd3vuRZUj8uh4BsVIK3dVq186DripYNQbuwiy5LR0V3y0W_iqLV_W&filters=eyJmaWx0ZXJfZXZlbnRzX2RhdGVfcmFuZ2U6MCI6IntcIm5hbWVcIjpcImZpbHRlcl9ldmVudHNfZGF0ZVwiLFwiYXJnc1wiOlwiMjAyNC0wNi0xN34yMDI0LTA3LTE3XCJ9IiwicnBfZXZlbnRzX2xvY2F0aW9uOjAiOiJ7XCJuYW1lXCI6XCJmaWx0ZXJfZXZlbnRzX2xvY2F0aW9uXCIsXCJhcmdzXCI6XCIxNzEyNzQ5ODI5MTM3NzNcIn0ifQ%3D%3D"
  },
  {
    "id": 2967,
    "name": "Lassur",
    "state_id": 9,
    "postal_code": "09310",
    "state_name": "Ariège",
    "query": ""
  },
  {
    "id": 2968,
    "name": "Lavelanet",
    "state_id": 9,
    "postal_code": "09300",
    "state_name": "Ariège",
    "query": "https://www.facebook.com/events/search?q=Home%20%26%20Garden&sde=Abq6hpNmijm8kReC4KYmmDP0NuT4IxNliFRnd3vuRZUj8uh4BsVIK3dVq186DripYNQbuwiy5LR0V3y0W_iqLV_W&filters=eyJmaWx0ZXJfZXZlbnRzX2RhdGVfcmFuZ2U6MCI6IntcIm5hbWVcIjpcImZpbHRlcl9ldmVudHNfZGF0ZVwiLFwiYXJnc1wiOlwiMjAyNC0wNi0xN34yMDI0LTA3LTE3XCJ9IiwicnBfZXZlbnRzX2xvY2F0aW9uOjAiOiJ7XCJuYW1lXCI6XCJmaWx0ZXJfZXZlbnRzX2xvY2F0aW9uXCIsXCJhcmdzXCI6XCIxMDgwMzI1MzU4OTExOTlcIn0ifQ%3D%3D"
  },
  {
    "id": 2969,
    "name": "Léran",
    "state_id": 9,
    "postal_code": "09600",
    "state_name": "Ariège",
    "query": "https://www.facebook.com/events/search?q=Home%20%26%20Garden&sde=Abq6hpNmijm8kReC4KYmmDP0NuT4IxNliFRnd3vuRZUj8uh4BsVIK3dVq186DripYNQbuwiy5LR0V3y0W_iqLV_W&filters=eyJmaWx0ZXJfZXZlbnRzX2RhdGVfcmFuZ2U6MCI6IntcIm5hbWVcIjpcImZpbHRlcl9ldmVudHNfZGF0ZVwiLFwiYXJnc1wiOlwiMjAyNC0wNi0xN34yMDI0LTA3LTE3XCJ9IiwicnBfZXZlbnRzX2xvY2F0aW9uOjAiOiJ7XCJuYW1lXCI6XCJmaWx0ZXJfZXZlbnRzX2xvY2F0aW9uXCIsXCJhcmdzXCI6XCIxMDc5MzE1NjI1NjkyMDNcIn0ifQ%3D%3D"
  },
  {
    "id": 2970,
    "name": "Lercoul",
    "state_id": 9,
    "postal_code": "09220",
    "state_name": "Ariège",
    "query": ""
  },
  {
    "id": 2971,
    "name": "Lescousse",
    "state_id": 9,
    "postal_code": "09100",
    "state_name": "Ariège",
    "query": ""
  },
  {
    "id": 2972,
    "name": "Lescure",
    "state_id": 9,
    "postal_code": "09420",
    "state_name": "Ariège",
    "query": "https://www.facebook.com/events/search?q=Home%20%26%20Garden&sde=Abq6hpNmijm8kReC4KYmmDP0NuT4IxNliFRnd3vuRZUj8uh4BsVIK3dVq186DripYNQbuwiy5LR0V3y0W_iqLV_W&filters=eyJmaWx0ZXJfZXZlbnRzX2RhdGVfcmFuZ2U6MCI6IntcIm5hbWVcIjpcImZpbHRlcl9ldmVudHNfZGF0ZVwiLFwiYXJnc1wiOlwiMjAyNC0wNi0xN34yMDI0LTA3LTE3XCJ9IiwicnBfZXZlbnRzX2xvY2F0aW9uOjAiOiJ7XCJuYW1lXCI6XCJmaWx0ZXJfZXZlbnRzX2xvY2F0aW9uXCIsXCJhcmdzXCI6XCIxMTMyNzA3NjIwMjAzNTZcIn0ifQ%3D%3D"
  },
  {
    "id": 2973,
    "name": "Lesparrou",
    "state_id": 9,
    "postal_code": "09300",
    "state_name": "Ariège",
    "query": "https://www.facebook.com/events/search?q=Home%20%26%20Garden&sde=Abq6hpNmijm8kReC4KYmmDP0NuT4IxNliFRnd3vuRZUj8uh4BsVIK3dVq186DripYNQbuwiy5LR0V3y0W_iqLV_W&filters=eyJmaWx0ZXJfZXZlbnRzX2RhdGVfcmFuZ2U6MCI6IntcIm5hbWVcIjpcImZpbHRlcl9ldmVudHNfZGF0ZVwiLFwiYXJnc1wiOlwiMjAyNC0wNi0xN34yMDI0LTA3LTE3XCJ9IiwicnBfZXZlbnRzX2xvY2F0aW9uOjAiOiJ7XCJuYW1lXCI6XCJmaWx0ZXJfZXZlbnRzX2xvY2F0aW9uXCIsXCJhcmdzXCI6XCIxMTI1NzgyMDg3NTQ3MjJcIn0ifQ%3D%3D"
  },
  {
    "id": 2974,
    "name": "Leychert",
    "state_id": 9,
    "postal_code": "09300",
    "state_name": "Ariège",
    "query": ""
  },
  {
    "id": 2975,
    "name": "Lézat-sur-Lèze",
    "state_id": 9,
    "postal_code": "09210",
    "state_name": "Ariège",
    "query": "https://www.facebook.com/events/search?q=Home%20%26%20Garden&sde=Abq6hpNmijm8kReC4KYmmDP0NuT4IxNliFRnd3vuRZUj8uh4BsVIK3dVq186DripYNQbuwiy5LR0V3y0W_iqLV_W&filters=eyJmaWx0ZXJfZXZlbnRzX2RhdGVfcmFuZ2U6MCI6IntcIm5hbWVcIjpcImZpbHRlcl9ldmVudHNfZGF0ZVwiLFwiYXJnc1wiOlwiMjAyNC0wNi0xN34yMDI0LTA3LTE3XCJ9IiwicnBfZXZlbnRzX2xvY2F0aW9uOjAiOiJ7XCJuYW1lXCI6XCJmaWx0ZXJfZXZlbnRzX2xvY2F0aW9uXCIsXCJhcmdzXCI6XCIxMDQwODgwNTYyOTM5ODdcIn0ifQ%3D%3D"
  },
  {
    "id": 2976,
    "name": "Lieurac",
    "state_id": 9,
    "postal_code": "09300",
    "state_name": "Ariège",
    "query": ""
  },
  {
    "id": 2977,
    "name": "Limbrassac",
    "state_id": 9,
    "postal_code": "09600",
    "state_name": "Ariège",
    "query": ""
  },
  {
    "id": 2978,
    "name": "Lissac",
    "state_id": 9,
    "postal_code": "09700",
    "state_name": "Ariège",
    "query": ""
  },
  {
    "id": 2979,
    "name": "Lordat",
    "state_id": 9,
    "postal_code": "09250",
    "state_name": "Ariège",
    "query": ""
  },
  {
    "id": 2980,
    "name": "Loubaut",
    "state_id": 9,
    "postal_code": "09350",
    "state_name": "Ariège",
    "query": ""
  },
  {
    "id": 2981,
    "name": "Loubens",
    "state_id": 9,
    "postal_code": "09120",
    "state_name": "Ariège",
    "query": "https://www.facebook.com/events/search?q=Home%20%26%20Garden&sde=Abq6hpNmijm8kReC4KYmmDP0NuT4IxNliFRnd3vuRZUj8uh4BsVIK3dVq186DripYNQbuwiy5LR0V3y0W_iqLV_W&filters=eyJmaWx0ZXJfZXZlbnRzX2RhdGVfcmFuZ2U6MCI6IntcIm5hbWVcIjpcImZpbHRlcl9ldmVudHNfZGF0ZVwiLFwiYXJnc1wiOlwiMjAyNC0wNi0xN34yMDI0LTA3LTE3XCJ9IiwicnBfZXZlbnRzX2xvY2F0aW9uOjAiOiJ7XCJuYW1lXCI6XCJmaWx0ZXJfZXZlbnRzX2xvY2F0aW9uXCIsXCJhcmdzXCI6XCIxMDkzNjU1NDkwODcwNzVcIn0ifQ%3D%3D"
  },
  {
    "id": 2982,
    "name": "Loubières",
    "state_id": 9,
    "postal_code": "09000",
    "state_name": "Ariège",
    "query": ""
  },
  {
    "id": 2983,
    "name": "Ludiès",
    "state_id": 9,
    "postal_code": "09100",
    "state_name": "Ariège",
    "query": ""
  },
  {
    "id": 2984,
    "name": "Luzenac",
    "state_id": 9,
    "postal_code": "09250",
    "state_name": "Ariège",
    "query": "https://www.facebook.com/events/search/?q=Home%20%26%20Garden&sde=Abq6hpNmijm8kReC4KYmmDP0NuT4IxNliFRnd3vuRZUj8uh4BsVIK3dVq186DripYNQbuwiy5LR0V3y0W_iqLV_W&filters=eyJmaWx0ZXJfZXZlbnRzX2RhdGVfcmFuZ2U6MCI6IntcIm5hbWVcIjpcImZpbHRlcl9ldmVudHNfZGF0ZVwiLFwiYXJnc1wiOlwiMjAyNC0wNi0xN34yMDI0LTA3LTE3XCJ9IiwicnBfZXZlbnRzX2xvY2F0aW9uOjAiOiJ7XCJuYW1lXCI6XCJmaWx0ZXJfZXZlbnRzX2xvY2F0aW9uXCIsXCJhcmdzXCI6XCIxMTIwODQ2NTg4MDQ4MDZcIn0ifQ%3D%3D"
  },
  {
    "id": 2985,
    "name": "Madière",
    "state_id": 9,
    "postal_code": "09100",
    "state_name": "Ariège",
    "query": "https://www.facebook.com/events/search?q=Home%20%26%20Garden&sde=Abq6hpNmijm8kReC4KYmmDP0NuT4IxNliFRnd3vuRZUj8uh4BsVIK3dVq186DripYNQbuwiy5LR0V3y0W_iqLV_W&filters=eyJmaWx0ZXJfZXZlbnRzX2RhdGVfcmFuZ2U6MCI6IntcIm5hbWVcIjpcImZpbHRlcl9ldmVudHNfZGF0ZVwiLFwiYXJnc1wiOlwiMjAyNC0wNi0xN34yMDI0LTA3LTE3XCJ9IiwicnBfZXZlbnRzX2xvY2F0aW9uOjAiOiJ7XCJuYW1lXCI6XCJmaWx0ZXJfZXZlbnRzX2xvY2F0aW9uXCIsXCJhcmdzXCI6XCIxMTI3MDA5MTU0MDg0NDJcIn0ifQ%3D%3D"
  },
  {
    "id": 2986,
    "name": "Malegoude",
    "state_id": 9,
    "postal_code": "09500",
    "state_name": "Ariège",
    "query": ""
  },
  {
    "id": 2987,
    "name": "Malléon",
    "state_id": 9,
    "postal_code": "09120",
    "state_name": "Ariège",
    "query": ""
  },
  {
    "id": 2988,
    "name": "Manses",
    "state_id": 9,
    "postal_code": "09500",
    "state_name": "Ariège",
    "query": "https://www.facebook.com/events/search?q=Home%20%26%20Garden&sde=Abq6hpNmijm8kReC4KYmmDP0NuT4IxNliFRnd3vuRZUj8uh4BsVIK3dVq186DripYNQbuwiy5LR0V3y0W_iqLV_W&filters=eyJmaWx0ZXJfZXZlbnRzX2RhdGVfcmFuZ2U6MCI6IntcIm5hbWVcIjpcImZpbHRlcl9ldmVudHNfZGF0ZVwiLFwiYXJnc1wiOlwiMjAyNC0wNi0xN34yMDI0LTA3LTE3XCJ9IiwicnBfZXZlbnRzX2xvY2F0aW9uOjAiOiJ7XCJuYW1lXCI6XCJmaWx0ZXJfZXZlbnRzX2xvY2F0aW9uXCIsXCJhcmdzXCI6XCIxMDk1NzgzMDkwNjIwOTRcIn0ifQ%3D%3D"
  },
  {
    "id": 2989,
    "name": "Le Mas-d'Azil",
    "state_id": 9,
    "postal_code": "09290",
    "state_name": "Ariège",
    "query": "https://www.facebook.com/events/search?q=Home%20%26%20Garden&sde=Abq6hpNmijm8kReC4KYmmDP0NuT4IxNliFRnd3vuRZUj8uh4BsVIK3dVq186DripYNQbuwiy5LR0V3y0W_iqLV_W&filters=eyJmaWx0ZXJfZXZlbnRzX2RhdGVfcmFuZ2U6MCI6IntcIm5hbWVcIjpcImZpbHRlcl9ldmVudHNfZGF0ZVwiLFwiYXJnc1wiOlwiMjAyNC0wNi0xN34yMDI0LTA3LTE3XCJ9IiwicnBfZXZlbnRzX2xvY2F0aW9uOjAiOiJ7XCJuYW1lXCI6XCJmaWx0ZXJfZXZlbnRzX2xvY2F0aW9uXCIsXCJhcmdzXCI6XCIxMDk1MDgwOTI0MDI0NjNcIn0ifQ%3D%3D"
  },
  {
    "id": 2990,
    "name": "Massat",
    "state_id": 9,
    "postal_code": "09320",
    "state_name": "Ariège",
    "query": "https://www.facebook.com/events/search?q=Home%20%26%20Garden&sde=Abq6hpNmijm8kReC4KYmmDP0NuT4IxNliFRnd3vuRZUj8uh4BsVIK3dVq186DripYNQbuwiy5LR0V3y0W_iqLV_W&filters=eyJmaWx0ZXJfZXZlbnRzX2RhdGVfcmFuZ2U6MCI6IntcIm5hbWVcIjpcImZpbHRlcl9ldmVudHNfZGF0ZVwiLFwiYXJnc1wiOlwiMjAyNC0wNi0xN34yMDI0LTA3LTE3XCJ9IiwicnBfZXZlbnRzX2xvY2F0aW9uOjAiOiJ7XCJuYW1lXCI6XCJmaWx0ZXJfZXZlbnRzX2xvY2F0aW9uXCIsXCJhcmdzXCI6XCIxMDM3NDkxNDYzMzA5NTVcIn0ifQ%3D%3D"
  },
  {
    "id": 2991,
    "name": "Mauvezin-de-Prat",
    "state_id": 9,
    "postal_code": "09160",
    "state_name": "Ariège",
    "query": "https://www.facebook.com/events/search?q=Home%20%26%20Garden&sde=Abq6hpNmijm8kReC4KYmmDP0NuT4IxNliFRnd3vuRZUj8uh4BsVIK3dVq186DripYNQbuwiy5LR0V3y0W_iqLV_W&filters=eyJmaWx0ZXJfZXZlbnRzX2RhdGVfcmFuZ2U6MCI6IntcIm5hbWVcIjpcImZpbHRlcl9ldmVudHNfZGF0ZVwiLFwiYXJnc1wiOlwiMjAyNC0wNi0xN34yMDI0LTA3LTE3XCJ9IiwicnBfZXZlbnRzX2xvY2F0aW9uOjAiOiJ7XCJuYW1lXCI6XCJmaWx0ZXJfZXZlbnRzX2xvY2F0aW9uXCIsXCJhcmdzXCI6XCIxMDkwMzIxMDI0NDg2MjNcIn0ifQ%3D%3D"
  },
  {
    "id": 2992,
    "name": "Mauvezin-de-Sainte-Croix",
    "state_id": 9,
    "postal_code": "09230",
    "state_name": "Ariège",
    "query": ""
  },
  {
    "id": 2993,
    "name": "Mazères",
    "state_id": 9,
    "postal_code": "09270",
    "state_name": "Ariège",
    "query": "https://www.facebook.com/events/search?q=Home%20%26%20Garden&sde=Abq6hpNmijm8kReC4KYmmDP0NuT4IxNliFRnd3vuRZUj8uh4BsVIK3dVq186DripYNQbuwiy5LR0V3y0W_iqLV_W&filters=eyJmaWx0ZXJfZXZlbnRzX2RhdGVfcmFuZ2U6MCI6IntcIm5hbWVcIjpcImZpbHRlcl9ldmVudHNfZGF0ZVwiLFwiYXJnc1wiOlwiMjAyNC0wNi0xN34yMDI0LTA3LTE3XCJ9IiwicnBfZXZlbnRzX2xvY2F0aW9uOjAiOiJ7XCJuYW1lXCI6XCJmaWx0ZXJfZXZlbnRzX2xvY2F0aW9uXCIsXCJhcmdzXCI6XCIxMDg4NDAxMTU4MDQzMDVcIn0ifQ%3D%3D"
  },
  {
    "id": 2994,
    "name": "Méras",
    "state_id": 9,
    "postal_code": "09350",
    "state_name": "Ariège",
    "query": ""
  },
  {
    "id": 2995,
    "name": "Mercenac",
    "state_id": 9,
    "postal_code": "09160",
    "state_name": "Ariège",
    "query": "https://www.facebook.com/events/search?q=Home%20%26%20Garden&sde=Abq6hpNmijm8kReC4KYmmDP0NuT4IxNliFRnd3vuRZUj8uh4BsVIK3dVq186DripYNQbuwiy5LR0V3y0W_iqLV_W&filters=eyJmaWx0ZXJfZXZlbnRzX2RhdGVfcmFuZ2U6MCI6IntcIm5hbWVcIjpcImZpbHRlcl9ldmVudHNfZGF0ZVwiLFwiYXJnc1wiOlwiMjAyNC0wNi0xN34yMDI0LTA3LTE3XCJ9IiwicnBfZXZlbnRzX2xvY2F0aW9uOjAiOiJ7XCJuYW1lXCI6XCJmaWx0ZXJfZXZlbnRzX2xvY2F0aW9uXCIsXCJhcmdzXCI6XCIxMTI5MTMwMjg3MjM0OTZcIn0ifQ%3D%3D"
  },
  {
    "id": 2996,
    "name": "Mercus-Garrabet",
    "state_id": 9,
    "postal_code": "09400",
    "state_name": "Ariège",
    "query": "https://www.facebook.com/events/search?q=Home%20%26%20Garden&sde=Abq6hpNmijm8kReC4KYmmDP0NuT4IxNliFRnd3vuRZUj8uh4BsVIK3dVq186DripYNQbuwiy5LR0V3y0W_iqLV_W&filters=eyJmaWx0ZXJfZXZlbnRzX2RhdGVfcmFuZ2U6MCI6IntcIm5hbWVcIjpcImZpbHRlcl9ldmVudHNfZGF0ZVwiLFwiYXJnc1wiOlwiMjAyNC0wNi0xN34yMDI0LTA3LTE3XCJ9IiwicnBfZXZlbnRzX2xvY2F0aW9uOjAiOiJ7XCJuYW1lXCI6XCJmaWx0ZXJfZXZlbnRzX2xvY2F0aW9uXCIsXCJhcmdzXCI6XCIxMDg0NzQ4OTI1MTMxNjdcIn0ifQ%3D%3D"
  },
  {
    "id": 2997,
    "name": "Mérens-les-Vals",
    "state_id": 9,
    "postal_code": "09110",
    "state_name": "Ariège",
    "query": "https://www.facebook.com/events/search?q=Home%20%26%20Garden&sde=Abq6hpNmijm8kReC4KYmmDP0NuT4IxNliFRnd3vuRZUj8uh4BsVIK3dVq186DripYNQbuwiy5LR0V3y0W_iqLV_W&filters=eyJmaWx0ZXJfZXZlbnRzX2RhdGVfcmFuZ2U6MCI6IntcIm5hbWVcIjpcImZpbHRlcl9ldmVudHNfZGF0ZVwiLFwiYXJnc1wiOlwiMjAyNC0wNi0xN34yMDI0LTA3LTE3XCJ9IiwicnBfZXZlbnRzX2xvY2F0aW9uOjAiOiJ7XCJuYW1lXCI6XCJmaWx0ZXJfZXZlbnRzX2xvY2F0aW9uXCIsXCJhcmdzXCI6XCIxMDY5NzM0MDU5OTk4MTBcIn0ifQ%3D%3D"
  },
  {
    "id": 2998,
    "name": "Mérigon",
    "state_id": 9,
    "postal_code": "09230",
    "state_name": "Ariège",
    "query": ""
  },
  {
    "id": 2999,
    "name": "Miglos",
    "state_id": 9,
    "postal_code": "09400",
    "state_name": "Ariège",
    "query": ""
  },
  {
    "id": 3000,
    "name": "Mijanès",
    "state_id": 9,
    "postal_code": "09460",
    "state_name": "Ariège",
    "query": "https://www.facebook.com/events/search?q=Home%20%26%20Garden&sde=Abq6hpNmijm8kReC4KYmmDP0NuT4IxNliFRnd3vuRZUj8uh4BsVIK3dVq186DripYNQbuwiy5LR0V3y0W_iqLV_W&filters=eyJmaWx0ZXJfZXZlbnRzX2RhdGVfcmFuZ2U6MCI6IntcIm5hbWVcIjpcImZpbHRlcl9ldmVudHNfZGF0ZVwiLFwiYXJnc1wiOlwiMjAyNC0wNi0xN34yMDI0LTA3LTE3XCJ9IiwicnBfZXZlbnRzX2xvY2F0aW9uOjAiOiJ7XCJuYW1lXCI6XCJmaWx0ZXJfZXZlbnRzX2xvY2F0aW9uXCIsXCJhcmdzXCI6XCIxMTE3NjQyODg4Mzk1MzNcIn0ifQ%3D%3D"
  },
  {
    "id": 3001,
    "name": "Mirepoix",
    "state_id": 9,
    "postal_code": "09500",
    "state_name": "Ariège",
    "query": "https://www.facebook.com/events/search?q=Home%20%26%20Garden&sde=Abq6hpNmijm8kReC4KYmmDP0NuT4IxNliFRnd3vuRZUj8uh4BsVIK3dVq186DripYNQbuwiy5LR0V3y0W_iqLV_W&filters=eyJmaWx0ZXJfZXZlbnRzX2RhdGVfcmFuZ2U6MCI6IntcIm5hbWVcIjpcImZpbHRlcl9ldmVudHNfZGF0ZVwiLFwiYXJnc1wiOlwiMjAyNC0wNi0xN34yMDI0LTA3LTE3XCJ9IiwicnBfZXZlbnRzX2xvY2F0aW9uOjAiOiJ7XCJuYW1lXCI6XCJmaWx0ZXJfZXZlbnRzX2xvY2F0aW9uXCIsXCJhcmdzXCI6XCIxMDAyNDUyOTY2ODMzNzJcIn0ifQ%3D%3D"
  },
  {
    "id": 3002,
    "name": "Monesple",
    "state_id": 9,
    "postal_code": "09130",
    "state_name": "Ariège",
    "query": ""
  },
  {
    "id": 3003,
    "name": "Montagagne",
    "state_id": 9,
    "postal_code": "09240",
    "state_name": "Ariège",
    "query": ""
  },
  {
    "id": 3004,
    "name": "Montaillou",
    "state_id": 9,
    "postal_code": "09110",
    "state_name": "Ariège",
    "query": ""
  },
  {
    "id": 3005,
    "name": "Montardit",
    "state_id": 9,
    "postal_code": "09230",
    "state_name": "Ariège",
    "query": ""
  },
  {
    "id": 3006,
    "name": "Montaut",
    "state_id": 9,
    "postal_code": "09700",
    "state_name": "Ariège",
    "query": "https://www.facebook.com/events/search?q=Home%20%26%20Garden&sde=Abq6hpNmijm8kReC4KYmmDP0NuT4IxNliFRnd3vuRZUj8uh4BsVIK3dVq186DripYNQbuwiy5LR0V3y0W_iqLV_W&filters=eyJmaWx0ZXJfZXZlbnRzX2RhdGVfcmFuZ2U6MCI6IntcIm5hbWVcIjpcImZpbHRlcl9ldmVudHNfZGF0ZVwiLFwiYXJnc1wiOlwiMjAyNC0wNi0xN34yMDI0LTA3LTE3XCJ9IiwicnBfZXZlbnRzX2xvY2F0aW9uOjAiOiJ7XCJuYW1lXCI6XCJmaWx0ZXJfZXZlbnRzX2xvY2F0aW9uXCIsXCJhcmdzXCI6XCIxMTMzMzMxOTg2Nzg4MThcIn0ifQ%3D%3D"
  },
  {
    "id": 3007,
    "name": "Montbel",
    "state_id": 9,
    "postal_code": "09600",
    "state_name": "Ariège",
    "query": "https://www.facebook.com/events/search?q=Home%20%26%20Garden&sde=Abq6hpNmijm8kReC4KYmmDP0NuT4IxNliFRnd3vuRZUj8uh4BsVIK3dVq186DripYNQbuwiy5LR0V3y0W_iqLV_W&filters=eyJmaWx0ZXJfZXZlbnRzX2RhdGVfcmFuZ2U6MCI6IntcIm5hbWVcIjpcImZpbHRlcl9ldmVudHNfZGF0ZVwiLFwiYXJnc1wiOlwiMjAyNC0wNi0xN34yMDI0LTA3LTE3XCJ9IiwicnBfZXZlbnRzX2xvY2F0aW9uOjAiOiJ7XCJuYW1lXCI6XCJmaWx0ZXJfZXZlbnRzX2xvY2F0aW9uXCIsXCJhcmdzXCI6XCIxMTAyOTEzMTIzMjIyODVcIn0ifQ%3D%3D"
  },
  {
    "id": 3008,
    "name": "Montégut-en-Couserans",
    "state_id": 9,
    "postal_code": "09200",
    "state_name": "Ariège",
    "query": ""
  },
  {
    "id": 3009,
    "name": "Montégut-Plantaurel",
    "state_id": 9,
    "postal_code": "09120",
    "state_name": "Ariège",
    "query": "https://www.facebook.com/events/search?q=Home%20%26%20Garden&sde=Abq6hpNmijm8kReC4KYmmDP0NuT4IxNliFRnd3vuRZUj8uh4BsVIK3dVq186DripYNQbuwiy5LR0V3y0W_iqLV_W&filters=eyJmaWx0ZXJfZXZlbnRzX2RhdGVfcmFuZ2U6MCI6IntcIm5hbWVcIjpcImZpbHRlcl9ldmVudHNfZGF0ZVwiLFwiYXJnc1wiOlwiMjAyNC0wNi0xN34yMDI0LTA3LTE3XCJ9IiwicnBfZXZlbnRzX2xvY2F0aW9uOjAiOiJ7XCJuYW1lXCI6XCJmaWx0ZXJfZXZlbnRzX2xvY2F0aW9uXCIsXCJhcmdzXCI6XCIxMDU3MTU2NjI3OTU4MjhcIn0ifQ%3D%3D"
  },
  {
    "id": 3010,
    "name": "Montels",
    "state_id": 9,
    "postal_code": "09240",
    "state_name": "Ariège",
    "query": "https://www.facebook.com/events/search?q=Home%20%26%20Garden&sde=Abq6hpNmijm8kReC4KYmmDP0NuT4IxNliFRnd3vuRZUj8uh4BsVIK3dVq186DripYNQbuwiy5LR0V3y0W_iqLV_W&filters=eyJmaWx0ZXJfZXZlbnRzX2RhdGVfcmFuZ2U6MCI6IntcIm5hbWVcIjpcImZpbHRlcl9ldmVudHNfZGF0ZVwiLFwiYXJnc1wiOlwiMjAyNC0wNi0xN34yMDI0LTA3LTE3XCJ9IiwicnBfZXZlbnRzX2xvY2F0aW9uOjAiOiJ7XCJuYW1lXCI6XCJmaWx0ZXJfZXZlbnRzX2xvY2F0aW9uXCIsXCJhcmdzXCI6XCIxMTAyODU3MTg5OTAyMjVcIn0ifQ%3D%3D"
  },
  {
    "id": 3011,
    "name": "Montesquieu-Avantès",
    "state_id": 9,
    "postal_code": "09200",
    "state_name": "Ariège",
    "query": "https://www.facebook.com/events/search?q=Home%20%26%20Garden&sde=Abq6hpNmijm8kReC4KYmmDP0NuT4IxNliFRnd3vuRZUj8uh4BsVIK3dVq186DripYNQbuwiy5LR0V3y0W_iqLV_W&filters=eyJmaWx0ZXJfZXZlbnRzX2RhdGVfcmFuZ2U6MCI6IntcIm5hbWVcIjpcImZpbHRlcl9ldmVudHNfZGF0ZVwiLFwiYXJnc1wiOlwiMjAyNC0wNi0xN34yMDI0LTA3LTE3XCJ9IiwicnBfZXZlbnRzX2xvY2F0aW9uOjAiOiJ7XCJuYW1lXCI6XCJmaWx0ZXJfZXZlbnRzX2xvY2F0aW9uXCIsXCJhcmdzXCI6XCIxMTE5NDUxNzIxNTUwOTVcIn0ifQ%3D%3D"
  },
  {
    "id": 3012,
    "name": "Montfa",
    "state_id": 9,
    "postal_code": "09350",
    "state_name": "Ariège",
    "query": ""
  },
  {
    "id": 3013,
    "name": "Montferrier",
    "state_id": 9,
    "postal_code": "09300",
    "state_name": "Ariège",
    "query": "https://www.facebook.com/events/search?q=Home%20%26%20Garden&sde=Abq6hpNmijm8kReC4KYmmDP0NuT4IxNliFRnd3vuRZUj8uh4BsVIK3dVq186DripYNQbuwiy5LR0V3y0W_iqLV_W&filters=eyJmaWx0ZXJfZXZlbnRzX2RhdGVfcmFuZ2U6MCI6IntcIm5hbWVcIjpcImZpbHRlcl9ldmVudHNfZGF0ZVwiLFwiYXJnc1wiOlwiMjAyNC0wNi0xN34yMDI0LTA3LTE3XCJ9IiwicnBfZXZlbnRzX2xvY2F0aW9uOjAiOiJ7XCJuYW1lXCI6XCJmaWx0ZXJfZXZlbnRzX2xvY2F0aW9uXCIsXCJhcmdzXCI6XCIxMDk3NjU2ODIzODg0MjFcIn0ifQ%3D%3D"
  },
  {
    "id": 3014,
    "name": "Montgailhard",
    "state_id": 9,
    "postal_code": "09330",
    "state_name": "Ariège",
    "query": ""
  },
  {
    "id": 3015,
    "name": "Montgauch",
    "state_id": 9,
    "postal_code": "09160",
    "state_name": "Ariège",
    "query": ""
  },
  {
    "id": 3016,
    "name": "Montjoie-en-Couserans",
    "state_id": 9,
    "postal_code": "09200",
    "state_name": "Ariège",
    "query": "https://www.facebook.com/events/search?q=Home%20%26%20Garden&sde=Abq6hpNmijm8kReC4KYmmDP0NuT4IxNliFRnd3vuRZUj8uh4BsVIK3dVq186DripYNQbuwiy5LR0V3y0W_iqLV_W&filters=eyJmaWx0ZXJfZXZlbnRzX2RhdGVfcmFuZ2U6MCI6IntcIm5hbWVcIjpcImZpbHRlcl9ldmVudHNfZGF0ZVwiLFwiYXJnc1wiOlwiMjAyNC0wNi0xN34yMDI0LTA3LTE3XCJ9IiwicnBfZXZlbnRzX2xvY2F0aW9uOjAiOiJ7XCJuYW1lXCI6XCJmaWx0ZXJfZXZlbnRzX2xvY2F0aW9uXCIsXCJhcmdzXCI6XCIxMDg4MDU4MDI0Nzc3MjFcIn0ifQ%3D%3D"
  },
  {
    "id": 3017,
    "name": "Montoulieu",
    "state_id": 9,
    "postal_code": "09000",
    "state_name": "Ariège",
    "query": "https://www.facebook.com/events/search?q=Home%20%26%20Garden&sde=Abq6hpNmijm8kReC4KYmmDP0NuT4IxNliFRnd3vuRZUj8uh4BsVIK3dVq186DripYNQbuwiy5LR0V3y0W_iqLV_W&filters=eyJmaWx0ZXJfZXZlbnRzX2RhdGVfcmFuZ2U6MCI6IntcIm5hbWVcIjpcImZpbHRlcl9ldmVudHNfZGF0ZVwiLFwiYXJnc1wiOlwiMjAyNC0wNi0xN34yMDI0LTA3LTE3XCJ9IiwicnBfZXZlbnRzX2xvY2F0aW9uOjAiOiJ7XCJuYW1lXCI6XCJmaWx0ZXJfZXZlbnRzX2xvY2F0aW9uXCIsXCJhcmdzXCI6XCIxMTQwNjcwNTE5NDA5NzdcIn0ifQ%3D%3D"
  },
  {
    "id": 3018,
    "name": "Montségur",
    "state_id": 9,
    "postal_code": "09300",
    "state_name": "Ariège",
    "query": "https://www.facebook.com/events/search?q=Home%20%26%20Garden&sde=Abq6hpNmijm8kReC4KYmmDP0NuT4IxNliFRnd3vuRZUj8uh4BsVIK3dVq186DripYNQbuwiy5LR0V3y0W_iqLV_W&filters=eyJmaWx0ZXJfZXZlbnRzX2RhdGVfcmFuZ2U6MCI6IntcIm5hbWVcIjpcImZpbHRlcl9ldmVudHNfZGF0ZVwiLFwiYXJnc1wiOlwiMjAyNC0wNi0xN34yMDI0LTA3LTE3XCJ9IiwicnBfZXZlbnRzX2xvY2F0aW9uOjAiOiJ7XCJuYW1lXCI6XCJmaWx0ZXJfZXZlbnRzX2xvY2F0aW9uXCIsXCJhcmdzXCI6XCIxMTIzMTM1NDIxMTc0NTlcIn0ifQ%3D%3D"
  },
  {
    "id": 3019,
    "name": "Montseron",
    "state_id": 9,
    "postal_code": "09240",
    "state_name": "Ariège",
    "query": ""
  },
  {
    "id": 3020,
    "name": "Moulin-Neuf",
    "state_id": 9,
    "postal_code": "09500",
    "state_name": "Ariège",
    "query": ""
  },
  {
    "id": 3021,
    "name": "Moulis",
    "state_id": 9,
    "postal_code": "09200",
    "state_name": "Ariège",
    "query": "https://www.facebook.com/events/search?q=Home%20%26%20Garden&sde=Abq6hpNmijm8kReC4KYmmDP0NuT4IxNliFRnd3vuRZUj8uh4BsVIK3dVq186DripYNQbuwiy5LR0V3y0W_iqLV_W&filters=eyJmaWx0ZXJfZXZlbnRzX2RhdGVfcmFuZ2U6MCI6IntcIm5hbWVcIjpcImZpbHRlcl9ldmVudHNfZGF0ZVwiLFwiYXJnc1wiOlwiMjAyNC0wNi0xN34yMDI0LTA3LTE3XCJ9IiwicnBfZXZlbnRzX2xvY2F0aW9uOjAiOiJ7XCJuYW1lXCI6XCJmaWx0ZXJfZXZlbnRzX2xvY2F0aW9uXCIsXCJhcmdzXCI6XCIxMDQ2NDU5NDYyNDE0MjNcIn0ifQ%3D%3D"
  },
  {
    "id": 3022,
    "name": "Nalzen",
    "state_id": 9,
    "postal_code": "09300",
    "state_name": "Ariège",
    "query": ""
  },
  {
    "id": 3023,
    "name": "Nescus",
    "state_id": 9,
    "postal_code": "09240",
    "state_name": "Ariège",
    "query": ""
  },
  {
    "id": 3024,
    "name": "Niaux",
    "state_id": 9,
    "postal_code": "09400",
    "state_name": "Ariège",
    "query": ""
  },
  {
    "id": 3025,
    "name": "Orgeix",
    "state_id": 9,
    "postal_code": "09110",
    "state_name": "Ariège",
    "query": ""
  },
  {
    "id": 3026,
    "name": "Orgibet",
    "state_id": 9,
    "postal_code": "09800",
    "state_name": "Ariège",
    "query": ""
  },
  {
    "id": 3027,
    "name": "Orlu",
    "state_id": 9,
    "postal_code": "09110",
    "state_name": "Ariège",
    "query": "https://www.facebook.com/events/search?q=Home%20%26%20Garden&sde=Abq6hpNmijm8kReC4KYmmDP0NuT4IxNliFRnd3vuRZUj8uh4BsVIK3dVq186DripYNQbuwiy5LR0V3y0W_iqLV_W&filters=eyJmaWx0ZXJfZXZlbnRzX2RhdGVfcmFuZ2U6MCI6IntcIm5hbWVcIjpcImZpbHRlcl9ldmVudHNfZGF0ZVwiLFwiYXJnc1wiOlwiMjAyNC0wNi0xN34yMDI0LTA3LTE3XCJ9IiwicnBfZXZlbnRzX2xvY2F0aW9uOjAiOiJ7XCJuYW1lXCI6XCJmaWx0ZXJfZXZlbnRzX2xvY2F0aW9uXCIsXCJhcmdzXCI6XCIxMDkxMDE0ODI0NDc3MjRcIn0ifQ%3D%3D"
  },
  {
    "id": 3028,
    "name": "Ornolac-Ussat-les-Bains",
    "state_id": 9,
    "postal_code": "09400",
    "state_name": "Ariège",
    "query": "https://www.facebook.com/events/search?q=Home%20%26%20Garden&sde=Abq6hpNmijm8kReC4KYmmDP0NuT4IxNliFRnd3vuRZUj8uh4BsVIK3dVq186DripYNQbuwiy5LR0V3y0W_iqLV_W&filters=eyJmaWx0ZXJfZXZlbnRzX2RhdGVfcmFuZ2U6MCI6IntcIm5hbWVcIjpcImZpbHRlcl9ldmVudHNfZGF0ZVwiLFwiYXJnc1wiOlwiMjAyNC0wNi0xN34yMDI0LTA3LTE3XCJ9IiwicnBfZXZlbnRzX2xvY2F0aW9uOjAiOiJ7XCJuYW1lXCI6XCJmaWx0ZXJfZXZlbnRzX2xvY2F0aW9uXCIsXCJhcmdzXCI6XCIxMDgwNTMxNjkyMTYxNzlcIn0ifQ%3D%3D"
  },
  {
    "id": 3029,
    "name": "Orus",
    "state_id": 9,
    "postal_code": "09220",
    "state_name": "Ariège",
    "query": ""
  },
  {
    "id": 3030,
    "name": "Oust",
    "state_id": 9,
    "postal_code": "09140",
    "state_name": "Ariège",
    "query": "https://www.facebook.com/events/search?q=Home%20%26%20Garden&sde=Abq6hpNmijm8kReC4KYmmDP0NuT4IxNliFRnd3vuRZUj8uh4BsVIK3dVq186DripYNQbuwiy5LR0V3y0W_iqLV_W&filters=eyJmaWx0ZXJfZXZlbnRzX2RhdGVfcmFuZ2U6MCI6IntcIm5hbWVcIjpcImZpbHRlcl9ldmVudHNfZGF0ZVwiLFwiYXJnc1wiOlwiMjAyNC0wNi0xN34yMDI0LTA3LTE3XCJ9IiwicnBfZXZlbnRzX2xvY2F0aW9uOjAiOiJ7XCJuYW1lXCI6XCJmaWx0ZXJfZXZlbnRzX2xvY2F0aW9uXCIsXCJhcmdzXCI6XCIxMDI3NDg1NTY0MjgyNzFcIn0ifQ%3D%3D"
  },
  {
    "id": 3031,
    "name": "Pailhès",
    "state_id": 9,
    "postal_code": "09130",
    "state_name": "Ariège",
    "query": "https://www.facebook.com/events/search?q=Home%20%26%20Garden&sde=Abq6hpNmijm8kReC4KYmmDP0NuT4IxNliFRnd3vuRZUj8uh4BsVIK3dVq186DripYNQbuwiy5LR0V3y0W_iqLV_W&filters=eyJmaWx0ZXJfZXZlbnRzX2RhdGVfcmFuZ2U6MCI6IntcIm5hbWVcIjpcImZpbHRlcl9ldmVudHNfZGF0ZVwiLFwiYXJnc1wiOlwiMjAyNC0wNi0xN34yMDI0LTA3LTE3XCJ9IiwicnBfZXZlbnRzX2xvY2F0aW9uOjAiOiJ7XCJuYW1lXCI6XCJmaWx0ZXJfZXZlbnRzX2xvY2F0aW9uXCIsXCJhcmdzXCI6XCIxMDQ4NzgyNzYyMTY3MjBcIn0ifQ%3D%3D"
  },
  {
    "id": 3032,
    "name": "Pamiers",
    "state_id": 9,
    "postal_code": "09100",
    "state_name": "Ariège",
    "query": "https://www.facebook.com/events/search?q=Home%20%26%20Garden&sde=Abq6hpNmijm8kReC4KYmmDP0NuT4IxNliFRnd3vuRZUj8uh4BsVIK3dVq186DripYNQbuwiy5LR0V3y0W_iqLV_W&filters=eyJmaWx0ZXJfZXZlbnRzX2RhdGVfcmFuZ2U6MCI6IntcIm5hbWVcIjpcImZpbHRlcl9ldmVudHNfZGF0ZVwiLFwiYXJnc1wiOlwiMjAyNC0wNi0xN34yMDI0LTA3LTE3XCJ9IiwicnBfZXZlbnRzX2xvY2F0aW9uOjAiOiJ7XCJuYW1lXCI6XCJmaWx0ZXJfZXZlbnRzX2xvY2F0aW9uXCIsXCJhcmdzXCI6XCIxMDM3ODE5NjYzMjc1NjJcIn0ifQ%3D%3D"
  },
  {
    "id": 3033,
    "name": "Pech",
    "state_id": 9,
    "postal_code": "09310",
    "state_name": "Ariège",
    "query": ""
  },
  {
    "id": 3034,
    "name": "Péreille",
    "state_id": 9,
    "postal_code": "09300",
    "state_name": "Ariège",
    "query": "https://www.facebook.com/events/search?q=Home%20%26%20Garden&sde=Abq6hpNmijm8kReC4KYmmDP0NuT4IxNliFRnd3vuRZUj8uh4BsVIK3dVq186DripYNQbuwiy5LR0V3y0W_iqLV_W&filters=eyJmaWx0ZXJfZXZlbnRzX2RhdGVfcmFuZ2U6MCI6IntcIm5hbWVcIjpcImZpbHRlcl9ldmVudHNfZGF0ZVwiLFwiYXJnc1wiOlwiMjAyNC0wNi0xN34yMDI0LTA3LTE3XCJ9IiwicnBfZXZlbnRzX2xvY2F0aW9uOjAiOiJ7XCJuYW1lXCI6XCJmaWx0ZXJfZXZlbnRzX2xvY2F0aW9uXCIsXCJhcmdzXCI6XCIxMDgwNTUyNDI1NDg0OTBcIn0ifQ%3D%3D"
  },
  {
    "id": 3035,
    "name": "Perles-et-Castelet",
    "state_id": 9,
    "postal_code": "09110",
    "state_name": "Ariège",
    "query": "https://www.facebook.com/events/search?q=Home%20%26%20Garden&sde=Abq6hpNmijm8kReC4KYmmDP0NuT4IxNliFRnd3vuRZUj8uh4BsVIK3dVq186DripYNQbuwiy5LR0V3y0W_iqLV_W&filters=eyJmaWx0ZXJfZXZlbnRzX2RhdGVfcmFuZ2U6MCI6IntcIm5hbWVcIjpcImZpbHRlcl9ldmVudHNfZGF0ZVwiLFwiYXJnc1wiOlwiMjAyNC0wNi0xN34yMDI0LTA3LTE3XCJ9IiwicnBfZXZlbnRzX2xvY2F0aW9uOjAiOiJ7XCJuYW1lXCI6XCJmaWx0ZXJfZXZlbnRzX2xvY2F0aW9uXCIsXCJhcmdzXCI6XCIxMDgzNzIwNzI1MjM4MzVcIn0ifQ%3D%3D"
  },
  {
    "id": 3036,
    "name": "Le Peyrat",
    "state_id": 9,
    "postal_code": "09600",
    "state_name": "Ariège",
    "query": "https://www.facebook.com/events/search?q=Home%20%26%20Garden&sde=Abq6hpNmijm8kReC4KYmmDP0NuT4IxNliFRnd3vuRZUj8uh4BsVIK3dVq186DripYNQbuwiy5LR0V3y0W_iqLV_W&filters=eyJmaWx0ZXJfZXZlbnRzX2RhdGVfcmFuZ2U6MCI6IntcIm5hbWVcIjpcImZpbHRlcl9ldmVudHNfZGF0ZVwiLFwiYXJnc1wiOlwiMjAyNC0wNi0xN34yMDI0LTA3LTE3XCJ9IiwicnBfZXZlbnRzX2xvY2F0aW9uOjAiOiJ7XCJuYW1lXCI6XCJmaWx0ZXJfZXZlbnRzX2xvY2F0aW9uXCIsXCJhcmdzXCI6XCIxMDk4ODQ0NjU2OTcxMDRcIn0ifQ%3D%3D"
  },
  {
    "id": 3037,
    "name": "Le Pla",
    "state_id": 9,
    "postal_code": "09460",
    "state_name": "Ariège",
    "query": ""
  },
  {
    "id": 3038,
    "name": "Le Port",
    "state_id": 9,
    "postal_code": "09320",
    "state_name": "Ariège",
    "query": "https://www.facebook.com/events/search?q=Home%20%26%20Garden&sde=Abq6hpNmijm8kReC4KYmmDP0NuT4IxNliFRnd3vuRZUj8uh4BsVIK3dVq186DripYNQbuwiy5LR0V3y0W_iqLV_W&filters=eyJmaWx0ZXJfZXZlbnRzX2RhdGVfcmFuZ2U6MCI6IntcIm5hbWVcIjpcImZpbHRlcl9ldmVudHNfZGF0ZVwiLFwiYXJnc1wiOlwiMjAyNC0wNi0xN34yMDI0LTA3LTE3XCJ9IiwicnBfZXZlbnRzX2xvY2F0aW9uOjAiOiJ7XCJuYW1lXCI6XCJmaWx0ZXJfZXZlbnRzX2xvY2F0aW9uXCIsXCJhcmdzXCI6XCIxMDcwNzEwNTI2NTc1NjlcIn0ifQ%3D%3D"
  },
  {
    "id": 3039,
    "name": "Prades",
    "state_id": 9,
    "postal_code": "09110",
    "state_name": "Ariège",
    "query": "https://www.facebook.com/events/search?q=Home%20%26%20Garden&sde=Abq6hpNmijm8kReC4KYmmDP0NuT4IxNliFRnd3vuRZUj8uh4BsVIK3dVq186DripYNQbuwiy5LR0V3y0W_iqLV_W&filters=eyJmaWx0ZXJfZXZlbnRzX2RhdGVfcmFuZ2U6MCI6IntcIm5hbWVcIjpcImZpbHRlcl9ldmVudHNfZGF0ZVwiLFwiYXJnc1wiOlwiMjAyNC0wNi0xN34yMDI0LTA3LTE3XCJ9IiwicnBfZXZlbnRzX2xvY2F0aW9uOjAiOiJ7XCJuYW1lXCI6XCJmaWx0ZXJfZXZlbnRzX2xvY2F0aW9uXCIsXCJhcmdzXCI6XCIxMDQ2OTE4MTYyMzY4MjlcIn0ifQ%3D%3D"
  },
  {
    "id": 3040,
    "name": "Pradettes",
    "state_id": 9,
    "postal_code": "09600",
    "state_name": "Ariège",
    "query": ""
  },
  {
    "id": 3041,
    "name": "Pradières",
    "state_id": 9,
    "postal_code": "09000",
    "state_name": "Ariège",
    "query": ""
  },
  {
    "id": 3042,
    "name": "Prat-Bonrepaux",
    "state_id": 9,
    "postal_code": "09160",
    "state_name": "Ariège",
    "query": "https://www.facebook.com/events/search?q=Home%20%26%20Garden&sde=Abq6hpNmijm8kReC4KYmmDP0NuT4IxNliFRnd3vuRZUj8uh4BsVIK3dVq186DripYNQbuwiy5LR0V3y0W_iqLV_W&filters=eyJmaWx0ZXJfZXZlbnRzX2RhdGVfcmFuZ2U6MCI6IntcIm5hbWVcIjpcImZpbHRlcl9ldmVudHNfZGF0ZVwiLFwiYXJnc1wiOlwiMjAyNC0wNi0xN34yMDI0LTA3LTE3XCJ9IiwicnBfZXZlbnRzX2xvY2F0aW9uOjAiOiJ7XCJuYW1lXCI6XCJmaWx0ZXJfZXZlbnRzX2xvY2F0aW9uXCIsXCJhcmdzXCI6XCIxMTQwNDIyMDUyNzg2NzRcIn0ifQ%3D%3D"
  },
  {
    "id": 3043,
    "name": "Prayols",
    "state_id": 9,
    "postal_code": "09000",
    "state_name": "Ariège",
    "query": "https://www.facebook.com/events/search?q=Home%20%26%20Garden&sde=Abq6hpNmijm8kReC4KYmmDP0NuT4IxNliFRnd3vuRZUj8uh4BsVIK3dVq186DripYNQbuwiy5LR0V3y0W_iqLV_W&filters=eyJmaWx0ZXJfZXZlbnRzX2RhdGVfcmFuZ2U6MCI6IntcIm5hbWVcIjpcImZpbHRlcl9ldmVudHNfZGF0ZVwiLFwiYXJnc1wiOlwiMjAyNC0wNi0xN34yMDI0LTA3LTE3XCJ9IiwicnBfZXZlbnRzX2xvY2F0aW9uOjAiOiJ7XCJuYW1lXCI6XCJmaWx0ZXJfZXZlbnRzX2xvY2F0aW9uXCIsXCJhcmdzXCI6XCIxMDcyOTY3MDkzMDAyMjNcIn0ifQ%3D%3D"
  },
  {
    "id": 3044,
    "name": "Le Puch",
    "state_id": 9,
    "postal_code": "09460",
    "state_name": "Ariège",
    "query": ""
  },
  {
    "id": 3045,
    "name": "Les Pujols",
    "state_id": 9,
    "postal_code": "09100",
    "state_name": "Ariège",
    "query": "https://www.facebook.com/events/search?q=Home%20%26%20Garden&sde=Abq6hpNmijm8kReC4KYmmDP0NuT4IxNliFRnd3vuRZUj8uh4BsVIK3dVq186DripYNQbuwiy5LR0V3y0W_iqLV_W&filters=eyJmaWx0ZXJfZXZlbnRzX2RhdGVfcmFuZ2U6MCI6IntcIm5hbWVcIjpcImZpbHRlcl9ldmVudHNfZGF0ZVwiLFwiYXJnc1wiOlwiMjAyNC0wNi0xN34yMDI0LTA3LTE3XCJ9IiwicnBfZXZlbnRzX2xvY2F0aW9uOjAiOiJ7XCJuYW1lXCI6XCJmaWx0ZXJfZXZlbnRzX2xvY2F0aW9uXCIsXCJhcmdzXCI6XCIxMDk0MzAwODI0MDk0MTVcIn0ifQ%3D%3D"
  },
  {
    "id": 3046,
    "name": "Quérigut",
    "state_id": 9,
    "postal_code": "09460",
    "state_name": "Ariège",
    "query": "https://www.facebook.com/events/search?q=Home%20%26%20Garden&sde=Abq6hpNmijm8kReC4KYmmDP0NuT4IxNliFRnd3vuRZUj8uh4BsVIK3dVq186DripYNQbuwiy5LR0V3y0W_iqLV_W&filters=eyJmaWx0ZXJfZXZlbnRzX2RhdGVfcmFuZ2U6MCI6IntcIm5hbWVcIjpcImZpbHRlcl9ldmVudHNfZGF0ZVwiLFwiYXJnc1wiOlwiMjAyNC0wNi0xN34yMDI0LTA3LTE3XCJ9IiwicnBfZXZlbnRzX2xvY2F0aW9uOjAiOiJ7XCJuYW1lXCI6XCJmaWx0ZXJfZXZlbnRzX2xvY2F0aW9uXCIsXCJhcmdzXCI6XCIxMTI4MjEyMTIwNjYxMDRcIn0ifQ%3D%3D"
  },
  {
    "id": 3047,
    "name": "Quié",
    "state_id": 9,
    "postal_code": "09400",
    "state_name": "Ariège",
    "query": "https://www.facebook.com/events/search?q=Home%20%26%20Garden&sde=Abq6hpNmijm8kReC4KYmmDP0NuT4IxNliFRnd3vuRZUj8uh4BsVIK3dVq186DripYNQbuwiy5LR0V3y0W_iqLV_W&filters=eyJmaWx0ZXJfZXZlbnRzX2RhdGVfcmFuZ2U6MCI6IntcIm5hbWVcIjpcImZpbHRlcl9ldmVudHNfZGF0ZVwiLFwiYXJnc1wiOlwiMjAyNC0wNi0xN34yMDI0LTA3LTE3XCJ9IiwicnBfZXZlbnRzX2xvY2F0aW9uOjAiOiJ7XCJuYW1lXCI6XCJmaWx0ZXJfZXZlbnRzX2xvY2F0aW9uXCIsXCJhcmdzXCI6XCIxMDc1NDk0MDI2MDc0NzZcIn0ifQ%3D%3D"
  },
  {
    "id": 3048,
    "name": "Rabat-les-Trois-Seigneurs",
    "state_id": 9,
    "postal_code": "09400",
    "state_name": "Ariège",
    "query": "https://www.facebook.com/events/search?q=Home%20%26%20Garden&sde=Abq6hpNmijm8kReC4KYmmDP0NuT4IxNliFRnd3vuRZUj8uh4BsVIK3dVq186DripYNQbuwiy5LR0V3y0W_iqLV_W&filters=eyJmaWx0ZXJfZXZlbnRzX2RhdGVfcmFuZ2U6MCI6IntcIm5hbWVcIjpcImZpbHRlcl9ldmVudHNfZGF0ZVwiLFwiYXJnc1wiOlwiMjAyNC0wNi0xN34yMDI0LTA3LTE3XCJ9IiwicnBfZXZlbnRzX2xvY2F0aW9uOjAiOiJ7XCJuYW1lXCI6XCJmaWx0ZXJfZXZlbnRzX2xvY2F0aW9uXCIsXCJhcmdzXCI6XCIxMDc0ODI4ODU5NDgwMTdcIn0ifQ%3D%3D"
  },
  {
    "id": 3049,
    "name": "Raissac",
    "state_id": 9,
    "postal_code": "09300",
    "state_name": "Ariège",
    "query": ""
  },
  {
    "id": 3050,
    "name": "Régat",
    "state_id": 9,
    "postal_code": "09600",
    "state_name": "Ariège",
    "query": ""
  },
  {
    "id": 3051,
    "name": "Rieucros",
    "state_id": 9,
    "postal_code": "09500",
    "state_name": "Ariège",
    "query": "https://www.facebook.com/events/search?q=Home%20%26%20Garden&sde=Abq6hpNmijm8kReC4KYmmDP0NuT4IxNliFRnd3vuRZUj8uh4BsVIK3dVq186DripYNQbuwiy5LR0V3y0W_iqLV_W&filters=eyJmaWx0ZXJfZXZlbnRzX2RhdGVfcmFuZ2U6MCI6IntcIm5hbWVcIjpcImZpbHRlcl9ldmVudHNfZGF0ZVwiLFwiYXJnc1wiOlwiMjAyNC0wNi0xN34yMDI0LTA3LTE3XCJ9IiwicnBfZXZlbnRzX2xvY2F0aW9uOjAiOiJ7XCJuYW1lXCI6XCJmaWx0ZXJfZXZlbnRzX2xvY2F0aW9uXCIsXCJhcmdzXCI6XCIxMTI1ODc0MzIwODU1OTVcIn0ifQ%3D%3D"
  },
  {
    "id": 3052,
    "name": "Rieux-de-Pelleport",
    "state_id": 9,
    "postal_code": "09120",
    "state_name": "Ariège",
    "query": "https://www.facebook.com/events/search?q=Home%20%26%20Garden&sde=Abq6hpNmijm8kReC4KYmmDP0NuT4IxNliFRnd3vuRZUj8uh4BsVIK3dVq186DripYNQbuwiy5LR0V3y0W_iqLV_W&filters=eyJmaWx0ZXJfZXZlbnRzX2RhdGVfcmFuZ2U6MCI6IntcIm5hbWVcIjpcImZpbHRlcl9ldmVudHNfZGF0ZVwiLFwiYXJnc1wiOlwiMjAyNC0wNi0xN34yMDI0LTA3LTE3XCJ9IiwicnBfZXZlbnRzX2xvY2F0aW9uOjAiOiJ7XCJuYW1lXCI6XCJmaWx0ZXJfZXZlbnRzX2xvY2F0aW9uXCIsXCJhcmdzXCI6XCIxMDYzMDc3NDI3MzI4NTVcIn0ifQ%3D%3D"
  },
  {
    "id": 3053,
    "name": "Rimont",
    "state_id": 9,
    "postal_code": "09420",
    "state_name": "Ariège",
    "query": "https://www.facebook.com/events/search?q=Home%20%26%20Garden&sde=Abq6hpNmijm8kReC4KYmmDP0NuT4IxNliFRnd3vuRZUj8uh4BsVIK3dVq186DripYNQbuwiy5LR0V3y0W_iqLV_W&filters=eyJmaWx0ZXJfZXZlbnRzX2RhdGVfcmFuZ2U6MCI6IntcIm5hbWVcIjpcImZpbHRlcl9ldmVudHNfZGF0ZVwiLFwiYXJnc1wiOlwiMjAyNC0wNi0xN34yMDI0LTA3LTE3XCJ9IiwicnBfZXZlbnRzX2xvY2F0aW9uOjAiOiJ7XCJuYW1lXCI6XCJmaWx0ZXJfZXZlbnRzX2xvY2F0aW9uXCIsXCJhcmdzXCI6XCIxMTIyMzQyOTU0NTcyODVcIn0ifQ%3D%3D"
  },
  {
    "id": 3054,
    "name": "Rivèrenert",
    "state_id": 9,
    "postal_code": "09200",
    "state_name": "Ariège",
    "query": "https://www.facebook.com/events/search?q=Home%20%26%20Garden&sde=Abq6hpNmijm8kReC4KYmmDP0NuT4IxNliFRnd3vuRZUj8uh4BsVIK3dVq186DripYNQbuwiy5LR0V3y0W_iqLV_W&filters=eyJmaWx0ZXJfZXZlbnRzX2RhdGVfcmFuZ2U6MCI6IntcIm5hbWVcIjpcImZpbHRlcl9ldmVudHNfZGF0ZVwiLFwiYXJnc1wiOlwiMjAyNC0wNi0xN34yMDI0LTA3LTE3XCJ9IiwicnBfZXZlbnRzX2xvY2F0aW9uOjAiOiJ7XCJuYW1lXCI6XCJmaWx0ZXJfZXZlbnRzX2xvY2F0aW9uXCIsXCJhcmdzXCI6XCIxMTM0MTM3Njg2NjkzNzJcIn0ifQ%3D%3D"
  },
  {
    "id": 3055,
    "name": "Roquefixade",
    "state_id": 9,
    "postal_code": "09300",
    "state_name": "Ariège",
    "query": "https://www.facebook.com/events/search?q=Home%20%26%20Garden&sde=Abq6hpNmijm8kReC4KYmmDP0NuT4IxNliFRnd3vuRZUj8uh4BsVIK3dVq186DripYNQbuwiy5LR0V3y0W_iqLV_W&filters=eyJmaWx0ZXJfZXZlbnRzX2RhdGVfcmFuZ2U6MCI6IntcIm5hbWVcIjpcImZpbHRlcl9ldmVudHNfZGF0ZVwiLFwiYXJnc1wiOlwiMjAyNC0wNi0xN34yMDI0LTA3LTE3XCJ9IiwicnBfZXZlbnRzX2xvY2F0aW9uOjAiOiJ7XCJuYW1lXCI6XCJmaWx0ZXJfZXZlbnRzX2xvY2F0aW9uXCIsXCJhcmdzXCI6XCIxMDYyNjE1NDk0MDU0NjVcIn0ifQ%3D%3D"
  },
  {
    "id": 3056,
    "name": "Roquefort-les-Cascades",
    "state_id": 9,
    "postal_code": "09300",
    "state_name": "Ariège",
    "query": ""
  },
  {
    "id": 3057,
    "name": "Roumengoux",
    "state_id": 9,
    "postal_code": "09500",
    "state_name": "Ariège",
    "query": "https://www.facebook.com/events/search?q=Home%20%26%20Garden&sde=Abq6hpNmijm8kReC4KYmmDP0NuT4IxNliFRnd3vuRZUj8uh4BsVIK3dVq186DripYNQbuwiy5LR0V3y0W_iqLV_W&filters=eyJmaWx0ZXJfZXZlbnRzX2RhdGVfcmFuZ2U6MCI6IntcIm5hbWVcIjpcImZpbHRlcl9ldmVudHNfZGF0ZVwiLFwiYXJnc1wiOlwiMjAyNC0wNi0xN34yMDI0LTA3LTE3XCJ9IiwicnBfZXZlbnRzX2xvY2F0aW9uOjAiOiJ7XCJuYW1lXCI6XCJmaWx0ZXJfZXZlbnRzX2xvY2F0aW9uXCIsXCJhcmdzXCI6XCIxMDU1NDIwNDI4MTIyMzVcIn0ifQ%3D%3D"
  },
  {
    "id": 3058,
    "name": "Rouze",
    "state_id": 9,
    "postal_code": "09460",
    "state_name": "Ariège",
    "query": ""
  },
  {
    "id": 3059,
    "name": "Sabarat",
    "state_id": 9,
    "postal_code": "09350",
    "state_name": "Ariège",
    "query": "https://www.facebook.com/events/search?q=Home%20%26%20Garden&sde=Abq6hpNmijm8kReC4KYmmDP0NuT4IxNliFRnd3vuRZUj8uh4BsVIK3dVq186DripYNQbuwiy5LR0V3y0W_iqLV_W&filters=eyJmaWx0ZXJfZXZlbnRzX2RhdGVfcmFuZ2U6MCI6IntcIm5hbWVcIjpcImZpbHRlcl9ldmVudHNfZGF0ZVwiLFwiYXJnc1wiOlwiMjAyNC0wNi0xN34yMDI0LTA3LTE3XCJ9IiwicnBfZXZlbnRzX2xvY2F0aW9uOjAiOiJ7XCJuYW1lXCI6XCJmaWx0ZXJfZXZlbnRzX2xvY2F0aW9uXCIsXCJhcmdzXCI6XCIxMDgyNTA2NzkxOTU5MTVcIn0ifQ%3D%3D"
  },
  {
    "id": 3060,
    "name": "Saint-Amadou",
    "state_id": 9,
    "postal_code": "09100",
    "state_name": "Ariège",
    "query": ""
  },
  {
    "id": 3061,
    "name": "Saint-Bauzeil",
    "state_id": 9,
    "postal_code": "09120",
    "state_name": "Ariège",
    "query": "https://www.facebook.com/events/search?q=Home%20%26%20Garden&sde=Abq6hpNmijm8kReC4KYmmDP0NuT4IxNliFRnd3vuRZUj8uh4BsVIK3dVq186DripYNQbuwiy5LR0V3y0W_iqLV_W&filters=eyJmaWx0ZXJfZXZlbnRzX2RhdGVfcmFuZ2U6MCI6IntcIm5hbWVcIjpcImZpbHRlcl9ldmVudHNfZGF0ZVwiLFwiYXJnc1wiOlwiMjAyNC0wNi0xN34yMDI0LTA3LTE3XCJ9IiwicnBfZXZlbnRzX2xvY2F0aW9uOjAiOiJ7XCJuYW1lXCI6XCJmaWx0ZXJfZXZlbnRzX2xvY2F0aW9uXCIsXCJhcmdzXCI6XCIxMDgzNjE0ODI1MjExNjZcIn0ifQ%3D%3D"
  },
  {
    "id": 3062,
    "name": "Sainte-Croix-Volvestre",
    "state_id": 9,
    "postal_code": "09230",
    "state_name": "Ariège",
    "query": "https://www.facebook.com/events/search?q=Home%20%26%20Garden&sde=Abq6hpNmijm8kReC4KYmmDP0NuT4IxNliFRnd3vuRZUj8uh4BsVIK3dVq186DripYNQbuwiy5LR0V3y0W_iqLV_W&filters=eyJmaWx0ZXJfZXZlbnRzX2RhdGVfcmFuZ2U6MCI6IntcIm5hbWVcIjpcImZpbHRlcl9ldmVudHNfZGF0ZVwiLFwiYXJnc1wiOlwiMjAyNC0wNi0xN34yMDI0LTA3LTE3XCJ9IiwicnBfZXZlbnRzX2xvY2F0aW9uOjAiOiJ7XCJuYW1lXCI6XCJmaWx0ZXJfZXZlbnRzX2xvY2F0aW9uXCIsXCJhcmdzXCI6XCIxMDMxMTE2NTMwNjE3NDhcIn0ifQ%3D%3D"
  },
  {
    "id": 3063,
    "name": "Saint-Félix-de-Rieutord",
    "state_id": 9,
    "postal_code": "09120",
    "state_name": "Ariège",
    "query": ""
  },
  {
    "id": 3064,
    "name": "Saint-Félix-de-Tournegat",
    "state_id": 9,
    "postal_code": "09500",
    "state_name": "Ariège",
    "query": ""
  },
  {
    "id": 3065,
    "name": "Sainte-Foi",
    "state_id": 9,
    "postal_code": "09500",
    "state_name": "Ariège",
    "query": ""
  },
  {
    "id": 3066,
    "name": "Saint-Girons",
    "state_id": 9,
    "postal_code": "09200",
    "state_name": "Ariège",
    "query": "https://www.facebook.com/events/search?q=Home%20%26%20Garden&sde=Abq6hpNmijm8kReC4KYmmDP0NuT4IxNliFRnd3vuRZUj8uh4BsVIK3dVq186DripYNQbuwiy5LR0V3y0W_iqLV_W&filters=eyJmaWx0ZXJfZXZlbnRzX2RhdGVfcmFuZ2U6MCI6IntcIm5hbWVcIjpcImZpbHRlcl9ldmVudHNfZGF0ZVwiLFwiYXJnc1wiOlwiMjAyNC0wNi0xN34yMDI0LTA3LTE3XCJ9IiwicnBfZXZlbnRzX2xvY2F0aW9uOjAiOiJ7XCJuYW1lXCI6XCJmaWx0ZXJfZXZlbnRzX2xvY2F0aW9uXCIsXCJhcmdzXCI6XCIxMTAzODkzMzg5ODc0OTFcIn0ifQ%3D%3D"
  },
  {
    "id": 3067,
    "name": "Saint-Jean-d'Aigues-Vives",
    "state_id": 9,
    "postal_code": "09300",
    "state_name": "Ariège",
    "query": ""
  },
  {
    "id": 3068,
    "name": "Saint-Jean-du-Castillonnais",
    "state_id": 9,
    "postal_code": "09800",
    "state_name": "Ariège",
    "query": ""
  },
  {
    "id": 3069,
    "name": "Saint-Jean-de-Verges",
    "state_id": 9,
    "postal_code": "09000",
    "state_name": "Ariège",
    "query": "https://www.facebook.com/events/search/?q=Home%20%26%20Garden&sde=Abq6hpNmijm8kReC4KYmmDP0NuT4IxNliFRnd3vuRZUj8uh4BsVIK3dVq186DripYNQbuwiy5LR0V3y0W_iqLV_W&filters=eyJmaWx0ZXJfZXZlbnRzX2RhdGVfcmFuZ2U6MCI6IntcIm5hbWVcIjpcImZpbHRlcl9ldmVudHNfZGF0ZVwiLFwiYXJnc1wiOlwiMjAyNC0wNi0xN34yMDI0LTA3LTE3XCJ9IiwicnBfZXZlbnRzX2xvY2F0aW9uOjAiOiJ7XCJuYW1lXCI6XCJmaWx0ZXJfZXZlbnRzX2xvY2F0aW9uXCIsXCJhcmdzXCI6XCIxMDM3ODI3MjI5OTM2NjBcIn0ifQ%3D%3D"
  },
  {
    "id": 3070,
    "name": "Saint-Jean-du-Falga",
    "state_id": 9,
    "postal_code": "09100",
    "state_name": "Ariège",
    "query": "https://www.facebook.com/events/search?q=Home%20%26%20Garden&sde=Abq6hpNmijm8kReC4KYmmDP0NuT4IxNliFRnd3vuRZUj8uh4BsVIK3dVq186DripYNQbuwiy5LR0V3y0W_iqLV_W&filters=eyJmaWx0ZXJfZXZlbnRzX2RhdGVfcmFuZ2U6MCI6IntcIm5hbWVcIjpcImZpbHRlcl9ldmVudHNfZGF0ZVwiLFwiYXJnc1wiOlwiMjAyNC0wNi0xN34yMDI0LTA3LTE3XCJ9IiwicnBfZXZlbnRzX2xvY2F0aW9uOjAiOiJ7XCJuYW1lXCI6XCJmaWx0ZXJfZXZlbnRzX2xvY2F0aW9uXCIsXCJhcmdzXCI6XCIxMTIwOTUwMDU0Njk1NTZcIn0ifQ%3D%3D"
  },
  {
    "id": 3071,
    "name": "Saint-Julien-de-Gras-Capou",
    "state_id": 9,
    "postal_code": "09500",
    "state_name": "Ariège",
    "query": ""
  },
  {
    "id": 3072,
    "name": "Saint-Lary",
    "state_id": 9,
    "postal_code": "09800",
    "state_name": "Ariège",
    "query": "https://www.facebook.com/events/search?q=Home%20%26%20Garden&sde=Abq6hpNmijm8kReC4KYmmDP0NuT4IxNliFRnd3vuRZUj8uh4BsVIK3dVq186DripYNQbuwiy5LR0V3y0W_iqLV_W&filters=eyJmaWx0ZXJfZXZlbnRzX2RhdGVfcmFuZ2U6MCI6IntcIm5hbWVcIjpcImZpbHRlcl9ldmVudHNfZGF0ZVwiLFwiYXJnc1wiOlwiMjAyNC0wNi0xN34yMDI0LTA3LTE3XCJ9IiwicnBfZXZlbnRzX2xvY2F0aW9uOjAiOiJ7XCJuYW1lXCI6XCJmaWx0ZXJfZXZlbnRzX2xvY2F0aW9uXCIsXCJhcmdzXCI6XCIxMDcwNjA1ODU5OTI4OTFcIn0ifQ%3D%3D"
  },
  {
    "id": 3073,
    "name": "Saint-Lizier",
    "state_id": 9,
    "postal_code": "09190",
    "state_name": "Ariège",
    "query": "https://www.facebook.com/events/search?q=Home%20%26%20Garden&sde=Abq6hpNmijm8kReC4KYmmDP0NuT4IxNliFRnd3vuRZUj8uh4BsVIK3dVq186DripYNQbuwiy5LR0V3y0W_iqLV_W&filters=eyJmaWx0ZXJfZXZlbnRzX2RhdGVfcmFuZ2U6MCI6IntcIm5hbWVcIjpcImZpbHRlcl9ldmVudHNfZGF0ZVwiLFwiYXJnc1wiOlwiMjAyNC0wNi0xN34yMDI0LTA3LTE3XCJ9IiwicnBfZXZlbnRzX2xvY2F0aW9uOjAiOiJ7XCJuYW1lXCI6XCJmaWx0ZXJfZXZlbnRzX2xvY2F0aW9uXCIsXCJhcmdzXCI6XCIxMDU2NDg3MjI4MDE1MjdcIn0ifQ%3D%3D"
  },
  {
    "id": 3074,
    "name": "Saint-Martin-de-Caralp",
    "state_id": 9,
    "postal_code": "09000",
    "state_name": "Ariège",
    "query": ""
  },
  {
    "id": 3075,
    "name": "Saint-Martin-d'Oydes",
    "state_id": 9,
    "postal_code": "09100",
    "state_name": "Ariège",
    "query": "https://www.facebook.com/events/search?q=Home%20%26%20Garden&sde=Abq6hpNmijm8kReC4KYmmDP0NuT4IxNliFRnd3vuRZUj8uh4BsVIK3dVq186DripYNQbuwiy5LR0V3y0W_iqLV_W&filters=eyJmaWx0ZXJfZXZlbnRzX2RhdGVfcmFuZ2U6MCI6IntcIm5hbWVcIjpcImZpbHRlcl9ldmVudHNfZGF0ZVwiLFwiYXJnc1wiOlwiMjAyNC0wNi0xN34yMDI0LTA3LTE3XCJ9IiwicnBfZXZlbnRzX2xvY2F0aW9uOjAiOiJ7XCJuYW1lXCI6XCJmaWx0ZXJfZXZlbnRzX2xvY2F0aW9uXCIsXCJhcmdzXCI6XCIxMDYxMDM0OTk0MjE1MzFcIn0ifQ%3D%3D"
  },
  {
    "id": 3076,
    "name": "Saint-Michel",
    "state_id": 9,
    "postal_code": "09100",
    "state_name": "Ariège",
    "query": ""
  },
  {
    "id": 3077,
    "name": "Saint-Paul-de-Jarrat",
    "state_id": 9,
    "postal_code": "09000",
    "state_name": "Ariège",
    "query": "https://www.facebook.com/events/search?q=Home%20%26%20Garden&sde=Abq6hpNmijm8kReC4KYmmDP0NuT4IxNliFRnd3vuRZUj8uh4BsVIK3dVq186DripYNQbuwiy5LR0V3y0W_iqLV_W&filters=eyJmaWx0ZXJfZXZlbnRzX2RhdGVfcmFuZ2U6MCI6IntcIm5hbWVcIjpcImZpbHRlcl9ldmVudHNfZGF0ZVwiLFwiYXJnc1wiOlwiMjAyNC0wNi0xN34yMDI0LTA3LTE3XCJ9IiwicnBfZXZlbnRzX2xvY2F0aW9uOjAiOiJ7XCJuYW1lXCI6XCJmaWx0ZXJfZXZlbnRzX2xvY2F0aW9uXCIsXCJhcmdzXCI6XCIxMDQwNjAxMTYyOTcyMDJcIn0ifQ%3D%3D"
  },
  {
    "id": 3078,
    "name": "Saint-Pierre-de-Rivière",
    "state_id": 9,
    "postal_code": "09000",
    "state_name": "Ariège",
    "query": "https://www.facebook.com/events/search?q=Home%20%26%20Garden&sde=Abq6hpNmijm8kReC4KYmmDP0NuT4IxNliFRnd3vuRZUj8uh4BsVIK3dVq186DripYNQbuwiy5LR0V3y0W_iqLV_W&filters=eyJmaWx0ZXJfZXZlbnRzX2RhdGVfcmFuZ2U6MCI6IntcIm5hbWVcIjpcImZpbHRlcl9ldmVudHNfZGF0ZVwiLFwiYXJnc1wiOlwiMjAyNC0wNi0xN34yMDI0LTA3LTE3XCJ9IiwicnBfZXZlbnRzX2xvY2F0aW9uOjAiOiJ7XCJuYW1lXCI6XCJmaWx0ZXJfZXZlbnRzX2xvY2F0aW9uXCIsXCJhcmdzXCI6XCIxMDc2NTkyOTkyNjQwODZcIn0ifQ%3D%3D"
  },
  {
    "id": 3079,
    "name": "Saint-Quentin-la-Tour",
    "state_id": 9,
    "postal_code": "09500",
    "state_name": "Ariège",
    "query": "https://www.facebook.com/events/search?q=Home%20%26%20Garden&sde=Abq6hpNmijm8kReC4KYmmDP0NuT4IxNliFRnd3vuRZUj8uh4BsVIK3dVq186DripYNQbuwiy5LR0V3y0W_iqLV_W&filters=eyJmaWx0ZXJfZXZlbnRzX2RhdGVfcmFuZ2U6MCI6IntcIm5hbWVcIjpcImZpbHRlcl9ldmVudHNfZGF0ZVwiLFwiYXJnc1wiOlwiMjAyNC0wNi0xN34yMDI0LTA3LTE3XCJ9IiwicnBfZXZlbnRzX2xvY2F0aW9uOjAiOiJ7XCJuYW1lXCI6XCJmaWx0ZXJfZXZlbnRzX2xvY2F0aW9uXCIsXCJhcmdzXCI6XCIxMDc5OTMyOTI1NjIzNjNcIn0ifQ%3D%3D"
  },
  {
    "id": 3080,
    "name": "Saint-Quirc",
    "state_id": 9,
    "postal_code": "09700",
    "state_name": "Ariège",
    "query": "https://www.facebook.com/events/search?q=Home%20%26%20Garden&sde=Abq6hpNmijm8kReC4KYmmDP0NuT4IxNliFRnd3vuRZUj8uh4BsVIK3dVq186DripYNQbuwiy5LR0V3y0W_iqLV_W&filters=eyJmaWx0ZXJfZXZlbnRzX2RhdGVfcmFuZ2U6MCI6IntcIm5hbWVcIjpcImZpbHRlcl9ldmVudHNfZGF0ZVwiLFwiYXJnc1wiOlwiMjAyNC0wNi0xN34yMDI0LTA3LTE3XCJ9IiwicnBfZXZlbnRzX2xvY2F0aW9uOjAiOiJ7XCJuYW1lXCI6XCJmaWx0ZXJfZXZlbnRzX2xvY2F0aW9uXCIsXCJhcmdzXCI6XCIxMDMxMzM3ODYzOTMwMzhcIn0ifQ%3D%3D"
  },
  {
    "id": 3081,
    "name": "Saint-Victor-Rouzaud",
    "state_id": 9,
    "postal_code": "09100",
    "state_name": "Ariège",
    "query": ""
  },
  {
    "id": 3082,
    "name": "Saint-Ybars",
    "state_id": 9,
    "postal_code": "09210",
    "state_name": "Ariège",
    "query": "https://www.facebook.com/events/search?q=Home%20%26%20Garden&sde=Abq6hpNmijm8kReC4KYmmDP0NuT4IxNliFRnd3vuRZUj8uh4BsVIK3dVq186DripYNQbuwiy5LR0V3y0W_iqLV_W&filters=eyJmaWx0ZXJfZXZlbnRzX2RhdGVfcmFuZ2U6MCI6IntcIm5hbWVcIjpcImZpbHRlcl9ldmVudHNfZGF0ZVwiLFwiYXJnc1wiOlwiMjAyNC0wNi0xN34yMDI0LTA3LTE3XCJ9IiwicnBfZXZlbnRzX2xvY2F0aW9uOjAiOiJ7XCJuYW1lXCI6XCJmaWx0ZXJfZXZlbnRzX2xvY2F0aW9uXCIsXCJhcmdzXCI6XCIxMDgzMzIyMzU4NTgzNzFcIn0ifQ%3D%3D"
  },
  {
    "id": 3083,
    "name": "Salsein",
    "state_id": 9,
    "postal_code": "09800",
    "state_name": "Ariège",
    "query": ""
  },
  {
    "id": 3084,
    "name": "Saurat",
    "state_id": 9,
    "postal_code": "09400",
    "state_name": "Ariège",
    "query": "https://www.facebook.com/events/search?q=Home%20%26%20Garden&sde=Abq6hpNmijm8kReC4KYmmDP0NuT4IxNliFRnd3vuRZUj8uh4BsVIK3dVq186DripYNQbuwiy5LR0V3y0W_iqLV_W&filters=eyJmaWx0ZXJfZXZlbnRzX2RhdGVfcmFuZ2U6MCI6IntcIm5hbWVcIjpcImZpbHRlcl9ldmVudHNfZGF0ZVwiLFwiYXJnc1wiOlwiMjAyNC0wNi0xN34yMDI0LTA3LTE3XCJ9IiwicnBfZXZlbnRzX2xvY2F0aW9uOjAiOiJ7XCJuYW1lXCI6XCJmaWx0ZXJfZXZlbnRzX2xvY2F0aW9uXCIsXCJhcmdzXCI6XCIxMTIwMzUzNzg4MDg4OTNcIn0ifQ%3D%3D"
  },
  {
    "id": 3085,
    "name": "Sautel",
    "state_id": 9,
    "postal_code": "09300",
    "state_name": "Ariège",
    "query": "https://www.facebook.com/events/search?q=Home%20%26%20Garden&sde=Abq6hpNmijm8kReC4KYmmDP0NuT4IxNliFRnd3vuRZUj8uh4BsVIK3dVq186DripYNQbuwiy5LR0V3y0W_iqLV_W&filters=eyJmaWx0ZXJfZXZlbnRzX2RhdGVfcmFuZ2U6MCI6IntcIm5hbWVcIjpcImZpbHRlcl9ldmVudHNfZGF0ZVwiLFwiYXJnc1wiOlwiMjAyNC0wNi0xN34yMDI0LTA3LTE3XCJ9IiwicnBfZXZlbnRzX2xvY2F0aW9uOjAiOiJ7XCJuYW1lXCI6XCJmaWx0ZXJfZXZlbnRzX2xvY2F0aW9uXCIsXCJhcmdzXCI6XCIxMDgyNTk4MTkxOTkwMTVcIn0ifQ%3D%3D"
  },
  {
    "id": 3086,
    "name": "Saverdun",
    "state_id": 9,
    "postal_code": "09700",
    "state_name": "Ariège",
    "query": "https://www.facebook.com/events/search?q=Home%20%26%20Garden&sde=Abq6hpNmijm8kReC4KYmmDP0NuT4IxNliFRnd3vuRZUj8uh4BsVIK3dVq186DripYNQbuwiy5LR0V3y0W_iqLV_W&filters=eyJmaWx0ZXJfZXZlbnRzX2RhdGVfcmFuZ2U6MCI6IntcIm5hbWVcIjpcImZpbHRlcl9ldmVudHNfZGF0ZVwiLFwiYXJnc1wiOlwiMjAyNC0wNi0xN34yMDI0LTA3LTE3XCJ9IiwicnBfZXZlbnRzX2xvY2F0aW9uOjAiOiJ7XCJuYW1lXCI6XCJmaWx0ZXJfZXZlbnRzX2xvY2F0aW9uXCIsXCJhcmdzXCI6XCIxMDgwNDExMDkyMjQzOThcIn0ifQ%3D%3D"
  },
  {
    "id": 3087,
    "name": "Savignac-les-Ormeaux",
    "state_id": 9,
    "postal_code": "09110",
    "state_name": "Ariège",
    "query": "https://www.facebook.com/events/search?q=Home%20%26%20Garden&sde=Abq6hpNmijm8kReC4KYmmDP0NuT4IxNliFRnd3vuRZUj8uh4BsVIK3dVq186DripYNQbuwiy5LR0V3y0W_iqLV_W&filters=eyJmaWx0ZXJfZXZlbnRzX2RhdGVfcmFuZ2U6MCI6IntcIm5hbWVcIjpcImZpbHRlcl9ldmVudHNfZGF0ZVwiLFwiYXJnc1wiOlwiMjAyNC0wNi0xN34yMDI0LTA3LTE3XCJ9IiwicnBfZXZlbnRzX2xvY2F0aW9uOjAiOiJ7XCJuYW1lXCI6XCJmaWx0ZXJfZXZlbnRzX2xvY2F0aW9uXCIsXCJhcmdzXCI6XCIxMDk0NTU3NTU3NDAyNTVcIn0ifQ%3D%3D"
  },
  {
    "id": 3088,
    "name": "Ségura",
    "state_id": 9,
    "postal_code": "09120",
    "state_name": "Ariège",
    "query": "https://www.facebook.com/events/search?q=Home%20%26%20Garden&sde=Abq6hpNmijm8kReC4KYmmDP0NuT4IxNliFRnd3vuRZUj8uh4BsVIK3dVq186DripYNQbuwiy5LR0V3y0W_iqLV_W&filters=eyJmaWx0ZXJfZXZlbnRzX2RhdGVfcmFuZ2U6MCI6IntcIm5hbWVcIjpcImZpbHRlcl9ldmVudHNfZGF0ZVwiLFwiYXJnc1wiOlwiMjAyNC0wNi0xN34yMDI0LTA3LTE3XCJ9IiwicnBfZXZlbnRzX2xvY2F0aW9uOjAiOiJ7XCJuYW1lXCI6XCJmaWx0ZXJfZXZlbnRzX2xvY2F0aW9uXCIsXCJhcmdzXCI6XCIxMTM2NTA5NTg2NDU0MTlcIn0ifQ%3D%3D"
  },
  {
    "id": 3089,
    "name": "Seix",
    "state_id": 9,
    "postal_code": "09140",
    "state_name": "Ariège",
    "query": "https://www.facebook.com/events/search?q=Home%20%26%20Garden&sde=Abq6hpNmijm8kReC4KYmmDP0NuT4IxNliFRnd3vuRZUj8uh4BsVIK3dVq186DripYNQbuwiy5LR0V3y0W_iqLV_W&filters=eyJmaWx0ZXJfZXZlbnRzX2RhdGVfcmFuZ2U6MCI6IntcIm5hbWVcIjpcImZpbHRlcl9ldmVudHNfZGF0ZVwiLFwiYXJnc1wiOlwiMjAyNC0wNi0xN34yMDI0LTA3LTE3XCJ9IiwicnBfZXZlbnRzX2xvY2F0aW9uOjAiOiJ7XCJuYW1lXCI6XCJmaWx0ZXJfZXZlbnRzX2xvY2F0aW9uXCIsXCJhcmdzXCI6XCIxMDQxMjM0MTk2MjI3MjlcIn0ifQ%3D%3D"
  },
  {
    "id": 3090,
    "name": "Senconac",
    "state_id": 9,
    "postal_code": "09250",
    "state_name": "Ariège",
    "query": "https://www.facebook.com/events/search?q=Home%20%26%20Garden&sde=Abq6hpNmijm8kReC4KYmmDP0NuT4IxNliFRnd3vuRZUj8uh4BsVIK3dVq186DripYNQbuwiy5LR0V3y0W_iqLV_W&filters=eyJmaWx0ZXJfZXZlbnRzX2RhdGVfcmFuZ2U6MCI6IntcIm5hbWVcIjpcImZpbHRlcl9ldmVudHNfZGF0ZVwiLFwiYXJnc1wiOlwiMjAyNC0wNi0xN34yMDI0LTA3LTE3XCJ9IiwicnBfZXZlbnRzX2xvY2F0aW9uOjAiOiJ7XCJuYW1lXCI6XCJmaWx0ZXJfZXZlbnRzX2xvY2F0aW9uXCIsXCJhcmdzXCI6XCIxMTE5NzIxMTIxNDgwNDFcIn0ifQ%3D%3D"
  },
  {
    "id": 3091,
    "name": "Lorp-Sentaraille",
    "state_id": 9,
    "postal_code": "09190",
    "state_name": "Ariège",
    "query": ""
  },
  {
    "id": 3092,
    "name": "Sentein",
    "state_id": 9,
    "postal_code": "09800",
    "state_name": "Ariège",
    "query": "https://www.facebook.com/events/search?q=Home%20%26%20Garden&sde=Abq6hpNmijm8kReC4KYmmDP0NuT4IxNliFRnd3vuRZUj8uh4BsVIK3dVq186DripYNQbuwiy5LR0V3y0W_iqLV_W&filters=eyJmaWx0ZXJfZXZlbnRzX2RhdGVfcmFuZ2U6MCI6IntcIm5hbWVcIjpcImZpbHRlcl9ldmVudHNfZGF0ZVwiLFwiYXJnc1wiOlwiMjAyNC0wNi0xN34yMDI0LTA3LTE3XCJ9IiwicnBfZXZlbnRzX2xvY2F0aW9uOjAiOiJ7XCJuYW1lXCI6XCJmaWx0ZXJfZXZlbnRzX2xvY2F0aW9uXCIsXCJhcmdzXCI6XCIxMDk2Mzk3MDIzOTYzOTBcIn0ifQ%3D%3D"
  },
  {
    "id": 3093,
    "name": "Sentenac-d'Oust",
    "state_id": 9,
    "postal_code": "09140",
    "state_name": "Ariège",
    "query": ""
  },
  {
    "id": 3094,
    "name": "Sentenac-de-Sérou",
    "state_id": 9,
    "postal_code": "09240",
    "state_name": "Ariège",
    "query": ""
  },
  {
    "id": 3095,
    "name": "Serres-sur-Arget",
    "state_id": 9,
    "postal_code": "09000",
    "state_name": "Ariège",
    "query": "https://www.facebook.com/events/search?q=Home%20%26%20Garden&sde=Abq6hpNmijm8kReC4KYmmDP0NuT4IxNliFRnd3vuRZUj8uh4BsVIK3dVq186DripYNQbuwiy5LR0V3y0W_iqLV_W&filters=eyJmaWx0ZXJfZXZlbnRzX2RhdGVfcmFuZ2U6MCI6IntcIm5hbWVcIjpcImZpbHRlcl9ldmVudHNfZGF0ZVwiLFwiYXJnc1wiOlwiMjAyNC0wNi0xN34yMDI0LTA3LTE3XCJ9IiwicnBfZXZlbnRzX2xvY2F0aW9uOjAiOiJ7XCJuYW1lXCI6XCJmaWx0ZXJfZXZlbnRzX2xvY2F0aW9uXCIsXCJhcmdzXCI6XCIxMDgxNjUyNzkyMTA5MzlcIn0ifQ%3D%3D"
  },
  {
    "id": 3096,
    "name": "Sieuras",
    "state_id": 9,
    "postal_code": "09130",
    "state_name": "Ariège",
    "query": "https://www.facebook.com/events/search?q=Home%20%26%20Garden&sde=Abq6hpNmijm8kReC4KYmmDP0NuT4IxNliFRnd3vuRZUj8uh4BsVIK3dVq186DripYNQbuwiy5LR0V3y0W_iqLV_W&filters=eyJmaWx0ZXJfZXZlbnRzX2RhdGVfcmFuZ2U6MCI6IntcIm5hbWVcIjpcImZpbHRlcl9ldmVudHNfZGF0ZVwiLFwiYXJnc1wiOlwiMjAyNC0wNi0xN34yMDI0LTA3LTE3XCJ9IiwicnBfZXZlbnRzX2xvY2F0aW9uOjAiOiJ7XCJuYW1lXCI6XCJmaWx0ZXJfZXZlbnRzX2xvY2F0aW9uXCIsXCJhcmdzXCI6XCIxMDQxMDM0MzI5NTk0MzhcIn0ifQ%3D%3D"
  },
  {
    "id": 3097,
    "name": "Siguer",
    "state_id": 9,
    "postal_code": "09220",
    "state_name": "Ariège",
    "query": "https://www.facebook.com/events/search?q=Home%20%26%20Garden&sde=Abq6hpNmijm8kReC4KYmmDP0NuT4IxNliFRnd3vuRZUj8uh4BsVIK3dVq186DripYNQbuwiy5LR0V3y0W_iqLV_W&filters=eyJmaWx0ZXJfZXZlbnRzX2RhdGVfcmFuZ2U6MCI6IntcIm5hbWVcIjpcImZpbHRlcl9ldmVudHNfZGF0ZVwiLFwiYXJnc1wiOlwiMjAyNC0wNi0xN34yMDI0LTA3LTE3XCJ9IiwicnBfZXZlbnRzX2xvY2F0aW9uOjAiOiJ7XCJuYW1lXCI6XCJmaWx0ZXJfZXZlbnRzX2xvY2F0aW9uXCIsXCJhcmdzXCI6XCIxMDk0OTU1MDI0MDMzOTlcIn0ifQ%3D%3D"
  },
  {
    "id": 3098,
    "name": "Aulos-Sinsat",
    "state_id": 9,
    "postal_code": "09310",
    "state_name": "Ariège",
    "query": ""
  },
  {
    "id": 3099,
    "name": "Sor",
    "state_id": 9,
    "postal_code": "09800",
    "state_name": "Ariège",
    "query": ""
  },
  {
    "id": 3100,
    "name": "Sorgeat",
    "state_id": 9,
    "postal_code": "09110",
    "state_name": "Ariège",
    "query": ""
  },
  {
    "id": 3101,
    "name": "Soueix-Rogalle",
    "state_id": 9,
    "postal_code": "09140",
    "state_name": "Ariège",
    "query": ""
  },
  {
    "id": 3102,
    "name": "Soula",
    "state_id": 9,
    "postal_code": "09000",
    "state_name": "Ariège",
    "query": "https://www.facebook.com/events/search?q=Home%20%26%20Garden&sde=Abq6hpNmijm8kReC4KYmmDP0NuT4IxNliFRnd3vuRZUj8uh4BsVIK3dVq186DripYNQbuwiy5LR0V3y0W_iqLV_W&filters=eyJmaWx0ZXJfZXZlbnRzX2RhdGVfcmFuZ2U6MCI6IntcIm5hbWVcIjpcImZpbHRlcl9ldmVudHNfZGF0ZVwiLFwiYXJnc1wiOlwiMjAyNC0wNi0xN34yMDI0LTA3LTE3XCJ9IiwicnBfZXZlbnRzX2xvY2F0aW9uOjAiOiJ7XCJuYW1lXCI6XCJmaWx0ZXJfZXZlbnRzX2xvY2F0aW9uXCIsXCJhcmdzXCI6XCIxMDk1MDgwMTI0MDI0NzFcIn0ifQ%3D%3D"
  },
  {
    "id": 3103,
    "name": "Soulan",
    "state_id": 9,
    "postal_code": "09320",
    "state_name": "Ariège",
    "query": ""
  },
  {
    "id": 3104,
    "name": "Surba",
    "state_id": 9,
    "postal_code": "09400",
    "state_name": "Ariège",
    "query": "https://www.facebook.com/events/search?q=Home%20%26%20Garden&sde=Abq6hpNmijm8kReC4KYmmDP0NuT4IxNliFRnd3vuRZUj8uh4BsVIK3dVq186DripYNQbuwiy5LR0V3y0W_iqLV_W&filters=eyJmaWx0ZXJfZXZlbnRzX2RhdGVfcmFuZ2U6MCI6IntcIm5hbWVcIjpcImZpbHRlcl9ldmVudHNfZGF0ZVwiLFwiYXJnc1wiOlwiMjAyNC0wNi0xN34yMDI0LTA3LTE3XCJ9IiwicnBfZXZlbnRzX2xvY2F0aW9uOjAiOiJ7XCJuYW1lXCI6XCJmaWx0ZXJfZXZlbnRzX2xvY2F0aW9uXCIsXCJhcmdzXCI6XCIxMDQxNjU0NjI5NTQ1MTNcIn0ifQ%3D%3D"
  },
  {
    "id": 3105,
    "name": "Suzan",
    "state_id": 9,
    "postal_code": "09240",
    "state_name": "Ariège",
    "query": ""
  },
  {
    "id": 3106,
    "name": "Tabre",
    "state_id": 9,
    "postal_code": "09600",
    "state_name": "Ariège",
    "query": "https://www.facebook.com/events/search?q=Home%20%26%20Garden&sde=Abq6hpNmijm8kReC4KYmmDP0NuT4IxNliFRnd3vuRZUj8uh4BsVIK3dVq186DripYNQbuwiy5LR0V3y0W_iqLV_W&filters=eyJmaWx0ZXJfZXZlbnRzX2RhdGVfcmFuZ2U6MCI6IntcIm5hbWVcIjpcImZpbHRlcl9ldmVudHNfZGF0ZVwiLFwiYXJnc1wiOlwiMjAyNC0wNi0xN34yMDI0LTA3LTE3XCJ9IiwicnBfZXZlbnRzX2xvY2F0aW9uOjAiOiJ7XCJuYW1lXCI6XCJmaWx0ZXJfZXZlbnRzX2xvY2F0aW9uXCIsXCJhcmdzXCI6XCIxMTI5MDY2OTUzOTA0MzFcIn0ifQ%3D%3D"
  },
  {
    "id": 3107,
    "name": "Tarascon-sur-Ariège",
    "state_id": 9,
    "postal_code": "09400",
    "state_name": "Ariège",
    "query": "https://www.facebook.com/events/search?q=Home%20%26%20Garden&sde=Abq6hpNmijm8kReC4KYmmDP0NuT4IxNliFRnd3vuRZUj8uh4BsVIK3dVq186DripYNQbuwiy5LR0V3y0W_iqLV_W&filters=eyJmaWx0ZXJfZXZlbnRzX2RhdGVfcmFuZ2U6MCI6IntcIm5hbWVcIjpcImZpbHRlcl9ldmVudHNfZGF0ZVwiLFwiYXJnc1wiOlwiMjAyNC0wNi0xN34yMDI0LTA3LTE3XCJ9IiwicnBfZXZlbnRzX2xvY2F0aW9uOjAiOiJ7XCJuYW1lXCI6XCJmaWx0ZXJfZXZlbnRzX2xvY2F0aW9uXCIsXCJhcmdzXCI6XCIxMTI4NzAwMDIwNTczMDVcIn0ifQ%3D%3D"
  },
  {
    "id": 3108,
    "name": "Taurignan-Castet",
    "state_id": 9,
    "postal_code": "09160",
    "state_name": "Ariège",
    "query": ""
  },
  {
    "id": 3109,
    "name": "Taurignan-Vieux",
    "state_id": 9,
    "postal_code": "09190",
    "state_name": "Ariège",
    "query": ""
  },
  {
    "id": 3110,
    "name": "Teilhet",
    "state_id": 9,
    "postal_code": "09500",
    "state_name": "Ariège",
    "query": ""
  },
  {
    "id": 3111,
    "name": "Thouars-sur-Arize",
    "state_id": 9,
    "postal_code": "09350",
    "state_name": "Ariège",
    "query": ""
  },
  {
    "id": 3112,
    "name": "Tignac",
    "state_id": 9,
    "postal_code": "09110",
    "state_name": "Ariège",
    "query": ""
  },
  {
    "id": 3113,
    "name": "La Tour-du-Crieu",
    "state_id": 9,
    "postal_code": "09100",
    "state_name": "Ariège",
    "query": "https://www.facebook.com/events/search?q=Home%20%26%20Garden&sde=Abq6hpNmijm8kReC4KYmmDP0NuT4IxNliFRnd3vuRZUj8uh4BsVIK3dVq186DripYNQbuwiy5LR0V3y0W_iqLV_W&filters=eyJmaWx0ZXJfZXZlbnRzX2RhdGVfcmFuZ2U6MCI6IntcIm5hbWVcIjpcImZpbHRlcl9ldmVudHNfZGF0ZVwiLFwiYXJnc1wiOlwiMjAyNC0wNi0xN34yMDI0LTA3LTE3XCJ9IiwicnBfZXZlbnRzX2xvY2F0aW9uOjAiOiJ7XCJuYW1lXCI6XCJmaWx0ZXJfZXZlbnRzX2xvY2F0aW9uXCIsXCJhcmdzXCI6XCIxMTE1NDcwNDIxOTQ5OTBcIn0ifQ%3D%3D"
  },
  {
    "id": 3114,
    "name": "Tourtouse",
    "state_id": 9,
    "postal_code": "09230",
    "state_name": "Ariège",
    "query": "https://www.facebook.com/events/search?q=Home%20%26%20Garden&sde=Abq6hpNmijm8kReC4KYmmDP0NuT4IxNliFRnd3vuRZUj8uh4BsVIK3dVq186DripYNQbuwiy5LR0V3y0W_iqLV_W&filters=eyJmaWx0ZXJfZXZlbnRzX2RhdGVfcmFuZ2U6MCI6IntcIm5hbWVcIjpcImZpbHRlcl9ldmVudHNfZGF0ZVwiLFwiYXJnc1wiOlwiMjAyNC0wNi0xN34yMDI0LTA3LTE3XCJ9IiwicnBfZXZlbnRzX2xvY2F0aW9uOjAiOiJ7XCJuYW1lXCI6XCJmaWx0ZXJfZXZlbnRzX2xvY2F0aW9uXCIsXCJhcmdzXCI6XCIxMDk0OTU0MDI0MDM0MjJcIn0ifQ%3D%3D"
  },
  {
    "id": 3115,
    "name": "Tourtrol",
    "state_id": 9,
    "postal_code": "09500",
    "state_name": "Ariège",
    "query": "https://www.facebook.com/events/search?q=Home%20%26%20Garden&sde=Abq6hpNmijm8kReC4KYmmDP0NuT4IxNliFRnd3vuRZUj8uh4BsVIK3dVq186DripYNQbuwiy5LR0V3y0W_iqLV_W&filters=eyJmaWx0ZXJfZXZlbnRzX2RhdGVfcmFuZ2U6MCI6IntcIm5hbWVcIjpcImZpbHRlcl9ldmVudHNfZGF0ZVwiLFwiYXJnc1wiOlwiMjAyNC0wNi0xN34yMDI0LTA3LTE3XCJ9IiwicnBfZXZlbnRzX2xvY2F0aW9uOjAiOiJ7XCJuYW1lXCI6XCJmaWx0ZXJfZXZlbnRzX2xvY2F0aW9uXCIsXCJhcmdzXCI6XCIxMDQwNjQwMTI5NjQyODVcIn0ifQ%3D%3D"
  },
  {
    "id": 3116,
    "name": "Trémoulet",
    "state_id": 9,
    "postal_code": "09700",
    "state_name": "Ariège",
    "query": ""
  },
  {
    "id": 3117,
    "name": "Troye-d'Ariège",
    "state_id": 9,
    "postal_code": "09500",
    "state_name": "Ariège",
    "query": ""
  },
  {
    "id": 3118,
    "name": "Unac",
    "state_id": 9,
    "postal_code": "09250",
    "state_name": "Ariège",
    "query": ""
  },
  {
    "id": 3119,
    "name": "Unzent",
    "state_id": 9,
    "postal_code": "09100",
    "state_name": "Ariège",
    "query": "https://www.facebook.com/events/search?q=Home%20%26%20Garden&sde=Abq6hpNmijm8kReC4KYmmDP0NuT4IxNliFRnd3vuRZUj8uh4BsVIK3dVq186DripYNQbuwiy5LR0V3y0W_iqLV_W&filters=eyJycF9ldmVudHNfbG9jYXRpb246MCI6IntcIm5hbWVcIjpcImZpbHRlcl9ldmVudHNfbG9jYXRpb25cIixcImFyZ3NcIjpcIjExMzI2OTcwMjAyMDc1MVwifSJ9"
  },
  {
    "id": 3120,
    "name": "Urs",
    "state_id": 9,
    "postal_code": "09310",
    "state_name": "Ariège",
    "query": ""
  },
  {
    "id": 3121,
    "name": "Ussat",
    "state_id": 9,
    "postal_code": "09400",
    "state_name": "Ariège",
    "query": "https://www.facebook.com/events/search?q=Home%20%26%20Garden&sde=Abq6hpNmijm8kReC4KYmmDP0NuT4IxNliFRnd3vuRZUj8uh4BsVIK3dVq186DripYNQbuwiy5LR0V3y0W_iqLV_W&filters=eyJycF9ldmVudHNfbG9jYXRpb246MCI6IntcIm5hbWVcIjpcImZpbHRlcl9ldmVudHNfbG9jYXRpb25cIixcImFyZ3NcIjpcIjEwMzExMTUwMzA2MjI5M1wifSJ9"
  },
  {
    "id": 3122,
    "name": "Ustou",
    "state_id": 9,
    "postal_code": "09140",
    "state_name": "Ariège",
    "query": "https://www.facebook.com/events/search?q=Home%20%26%20Garden&sde=Abq6hpNmijm8kReC4KYmmDP0NuT4IxNliFRnd3vuRZUj8uh4BsVIK3dVq186DripYNQbuwiy5LR0V3y0W_iqLV_W&filters=eyJycF9ldmVudHNfbG9jYXRpb246MCI6IntcIm5hbWVcIjpcImZpbHRlcl9ldmVudHNfbG9jYXRpb25cIixcImFyZ3NcIjpcIjExMjQwMzk3NTQzNzMxN1wifSJ9"
  },
  {
    "id": 3123,
    "name": "Vals",
    "state_id": 9,
    "postal_code": "09500",
    "state_name": "Ariège",
    "query": ""
  },
  {
    "id": 3124,
    "name": "Varilhes",
    "state_id": 9,
    "postal_code": "09120",
    "state_name": "Ariège",
    "query": "https://www.facebook.com/events/search?q=Home%20%26%20Garden&sde=Abq6hpNmijm8kReC4KYmmDP0NuT4IxNliFRnd3vuRZUj8uh4BsVIK3dVq186DripYNQbuwiy5LR0V3y0W_iqLV_W&filters=eyJycF9ldmVudHNfbG9jYXRpb246MCI6IntcIm5hbWVcIjpcImZpbHRlcl9ldmVudHNfbG9jYXRpb25cIixcImFyZ3NcIjpcIjEwNjE1Mjk3OTQxNjkxMlwifSJ9"
  },
  {
    "id": 3125,
    "name": "Vaychis",
    "state_id": 9,
    "postal_code": "09110",
    "state_name": "Ariège",
    "query": ""
  },
  {
    "id": 3126,
    "name": "Vèbre",
    "state_id": 9,
    "postal_code": "09310",
    "state_name": "Ariège",
    "query": ""
  },
  {
    "id": 3127,
    "name": "Ventenac",
    "state_id": 9,
    "postal_code": "09120",
    "state_name": "Ariège",
    "query": "https://www.facebook.com/events/search?q=Home%20%26%20Garden&sde=Abq6hpNmijm8kReC4KYmmDP0NuT4IxNliFRnd3vuRZUj8uh4BsVIK3dVq186DripYNQbuwiy5LR0V3y0W_iqLV_W&filters=eyJycF9ldmVudHNfbG9jYXRpb246MCI6IntcIm5hbWVcIjpcImZpbHRlcl9ldmVudHNfbG9jYXRpb25cIixcImFyZ3NcIjpcIjEwNzk4MzM2OTIyNDYwOFwifSJ9"
  },
  {
    "id": 3128,
    "name": "Verdun",
    "state_id": 9,
    "postal_code": "09310",
    "state_name": "Ariège",
    "query": "https://www.facebook.com/events/search?q=Home%20%26%20Garden&sde=Abq6hpNmijm8kReC4KYmmDP0NuT4IxNliFRnd3vuRZUj8uh4BsVIK3dVq186DripYNQbuwiy5LR0V3y0W_iqLV_W&filters=eyJycF9ldmVudHNfbG9jYXRpb246MCI6IntcIm5hbWVcIjpcImZpbHRlcl9ldmVudHNfbG9jYXRpb25cIixcImFyZ3NcIjpcIjEwOTMzNTk5NTc2MDU3NFwifSJ9"
  },
  {
    "id": 3129,
    "name": "Vernajoul",
    "state_id": 9,
    "postal_code": "09000",
    "state_name": "Ariège",
    "query": ""
  },
  {
    "id": 3130,
    "name": "Vernaux",
    "state_id": 9,
    "postal_code": "09250",
    "state_name": "Ariège",
    "query": ""
  },
  {
    "id": 3131,
    "name": "Le Vernet",
    "state_id": 9,
    "postal_code": "09700",
    "state_name": "Ariège",
    "query": "https://www.facebook.com/events/search?q=Home%20%26%20Garden&sde=Abq6hpNmijm8kReC4KYmmDP0NuT4IxNliFRnd3vuRZUj8uh4BsVIK3dVq186DripYNQbuwiy5LR0V3y0W_iqLV_W&filters=eyJycF9ldmVudHNfbG9jYXRpb246MCI6IntcIm5hbWVcIjpcImZpbHRlcl9ldmVudHNfbG9jYXRpb25cIixcImFyZ3NcIjpcIjExMzgyOTA1MTk2MTYwMFwifSJ9"
  },
  {
    "id": 3132,
    "name": "Verniolle",
    "state_id": 9,
    "postal_code": "09340",
    "state_name": "Ariège",
    "query": "https://www.facebook.com/events/search?q=Home%20%26%20Garden&sde=Abq6hpNmijm8kReC4KYmmDP0NuT4IxNliFRnd3vuRZUj8uh4BsVIK3dVq186DripYNQbuwiy5LR0V3y0W_iqLV_W&filters=eyJycF9ldmVudHNfbG9jYXRpb246MCI6IntcIm5hbWVcIjpcImZpbHRlcl9ldmVudHNfbG9jYXRpb25cIixcImFyZ3NcIjpcIjEwODMzNzIxMjUyMzg3NFwifSJ9"
  },
  {
    "id": 3133,
    "name": "Val-de-Sos",
    "state_id": 9,
    "postal_code": "09220",
    "state_name": "Ariège",
    "query": ""
  },
  {
    "id": 3134,
    "name": "Villeneuve",
    "state_id": 9,
    "postal_code": "09800",
    "state_name": "Ariège",
    "query": ""
  },
  {
    "id": 3135,
    "name": "Villeneuve-d'Olmes",
    "state_id": 9,
    "postal_code": "09300",
    "state_name": "Ariège",
    "query": "https://www.facebook.com/events/search?q=Home%20%26%20Garden&sde=Abq6hpNmijm8kReC4KYmmDP0NuT4IxNliFRnd3vuRZUj8uh4BsVIK3dVq186DripYNQbuwiy5LR0V3y0W_iqLV_W&filters=eyJycF9ldmVudHNfbG9jYXRpb246MCI6IntcIm5hbWVcIjpcImZpbHRlcl9ldmVudHNfbG9jYXRpb25cIixcImFyZ3NcIjpcIjEwNjA2NzgwNjA5MDc4N1wifSJ9"
  },
  {
    "id": 3136,
    "name": "Villeneuve-du-Latou",
    "state_id": 9,
    "postal_code": "09130",
    "state_name": "Ariège",
    "query": ""
  },
  {
    "id": 3137,
    "name": "Villeneuve-du-Paréage",
    "state_id": 9,
    "postal_code": "09100",
    "state_name": "Ariège",
    "query": ""
  },
  {
    "id": 3138,
    "name": "Vira",
    "state_id": 9,
    "postal_code": "09120",
    "state_name": "Ariège",
    "query": ""
  },
  {
    "id": 3139,
    "name": "Viviès",
    "state_id": 9,
    "postal_code": "09500",
    "state_name": "Ariège",
    "query": ""
  },
  {
    "id": 3140,
    "name": "Sainte-Suzanne",
    "state_id": 9,
    "postal_code": "09130",
    "state_name": "Ariège",
    "query": "https://www.facebook.com/events/search?q=Home%20%26%20Garden&sde=Abq6hpNmijm8kReC4KYmmDP0NuT4IxNliFRnd3vuRZUj8uh4BsVIK3dVq186DripYNQbuwiy5LR0V3y0W_iqLV_W&filters=eyJmaWx0ZXJfZXZlbnRzX2RhdGVfcmFuZ2U6MCI6IntcIm5hbWVcIjpcImZpbHRlcl9ldmVudHNfZGF0ZVwiLFwiYXJnc1wiOlwiMjAyNC0wNi0xN34yMDI0LTA3LTE3XCJ9IiwicnBfZXZlbnRzX2xvY2F0aW9uOjAiOiJ7XCJuYW1lXCI6XCJmaWx0ZXJfZXZlbnRzX2xvY2F0aW9uXCIsXCJhcmdzXCI6XCIxMTM0MzA2NTg2NzE3MDdcIn0ifQ%3D%3D"
  }
]