[
  {
    "id": 4409,
    "name": "Ablon",
    "state_id": 14,
    "postal_code": "14600",
    "state_name": "Calvados",
    "query": "https://www.facebook.com/events/search/?q=Gardening&sde=Abq6hpNmijm8kReC4KYmmDP0NuT4IxNliFRnd3vuRZUj8uh4BsVIK3dVq186DripYNQbuwiy5LR0V3y0W_iqLV_W&filters=eyJycF9ldmVudHNfbG9jYXRpb246MCI6IntcIm5hbWVcIjpcImZpbHRlcl9ldmVudHNfbG9jYXRpb25cIixcImFyZ3NcIjpcIjEwNTcyNjU4NjEyODI4M1wifSJ9"
  },
  {
    "id": 4410,
    "name": "Agy",
    "state_id": 14,
    "postal_code": "14400",
    "state_name": "Calvados",
    "query": ""
  },
  {
    "id": 4411,
    "name": "Valambray",
    "state_id": 14,
    "postal_code": "14190",
    "state_name": "Calvados",
    "query": ""
  },
  {
    "id": 4412,
    "name": "Amayé-sur-Orne",
    "state_id": 14,
    "postal_code": "14210",
    "state_name": "Calvados",
    "query": "https://www.facebook.com/events/search/?q=Gardening&sde=Abq6hpNmijm8kReC4KYmmDP0NuT4IxNliFRnd3vuRZUj8uh4BsVIK3dVq186DripYNQbuwiy5LR0V3y0W_iqLV_W&filters=eyJycF9ldmVudHNfbG9jYXRpb246MCI6IntcIm5hbWVcIjpcImZpbHRlcl9ldmVudHNfbG9jYXRpb25cIixcImFyZ3NcIjpcIjEwNjE0NTk5OTQxNzAzOFwifSJ9"
  },
  {
    "id": 4413,
    "name": "Amayé-sur-Seulles",
    "state_id": 14,
    "postal_code": "14310",
    "state_name": "Calvados",
    "query": "https://www.facebook.com/events/search/?q=Gardening&sde=Abq6hpNmijm8kReC4KYmmDP0NuT4IxNliFRnd3vuRZUj8uh4BsVIK3dVq186DripYNQbuwiy5LR0V3y0W_iqLV_W&filters=eyJycF9ldmVudHNfbG9jYXRpb246MCI6IntcIm5hbWVcIjpcImZpbHRlcl9ldmVudHNfbG9jYXRpb25cIixcImFyZ3NcIjpcIjEwODE0ODY2OTIwODc3M1wifSJ9"
  },
  {
    "id": 4414,
    "name": "Amfreville",
    "state_id": 14,
    "postal_code": "14860",
    "state_name": "Calvados",
    "query": "https://www.facebook.com/events/search/?q=Gardening&sde=Abq6hpNmijm8kReC4KYmmDP0NuT4IxNliFRnd3vuRZUj8uh4BsVIK3dVq186DripYNQbuwiy5LR0V3y0W_iqLV_W&filters=eyJycF9ldmVudHNfbG9jYXRpb246MCI6IntcIm5hbWVcIjpcImZpbHRlcl9ldmVudHNfbG9jYXRpb25cIixcImFyZ3NcIjpcIjExMzg2Nzc2MTk2MTc3NlwifSJ9"
  },
  {
    "id": 4415,
    "name": "Aurseulles",
    "state_id": 14,
    "postal_code": "14240",
    "state_name": "Calvados",
    "query": ""
  },
  {
    "id": 4416,
    "name": "Angerville",
    "state_id": 14,
    "postal_code": "14430",
    "state_name": "Calvados",
    "query": "https://www.facebook.com/events/search/?q=Gardening&sde=Abq6hpNmijm8kReC4KYmmDP0NuT4IxNliFRnd3vuRZUj8uh4BsVIK3dVq186DripYNQbuwiy5LR0V3y0W_iqLV_W&filters=eyJycF9ldmVudHNfbG9jYXRpb246MCI6IntcIm5hbWVcIjpcImZpbHRlcl9ldmVudHNfbG9jYXRpb25cIixcImFyZ3NcIjpcIjExNDA1MTk3MTk0MTU3OFwifSJ9"
  },
  {
    "id": 4417,
    "name": "Colomby-Anguerny",
    "state_id": 14,
    "postal_code": "14610",
    "state_name": "Calvados",
    "query": ""
  },
  {
    "id": 4418,
    "name": "Anisy",
    "state_id": 14,
    "postal_code": "14610",
    "state_name": "Calvados",
    "query": "https://www.facebook.com/events/search/?q=Gardening&sde=Abq6hpNmijm8kReC4KYmmDP0NuT4IxNliFRnd3vuRZUj8uh4BsVIK3dVq186DripYNQbuwiy5LR0V3y0W_iqLV_W&filters=eyJycF9ldmVudHNfbG9jYXRpb246MCI6IntcIm5hbWVcIjpcImZpbHRlcl9ldmVudHNfbG9jYXRpb25cIixcImFyZ3NcIjpcIjEwODIzNzgzNTg2MzU0OVwifSJ9"
  },
  {
    "id": 4419,
    "name": "Annebault",
    "state_id": 14,
    "postal_code": "14430",
    "state_name": "Calvados",
    "query": "https://www.facebook.com/events/search/?q=Gardening&sde=Abq6hpNmijm8kReC4KYmmDP0NuT4IxNliFRnd3vuRZUj8uh4BsVIK3dVq186DripYNQbuwiy5LR0V3y0W_iqLV_W&filters=eyJycF9ldmVudHNfbG9jYXRpb246MCI6IntcIm5hbWVcIjpcImZpbHRlcl9ldmVudHNfbG9jYXRpb25cIixcImFyZ3NcIjpcIjEwNzQ4NzYwOTI4MDcwMFwifSJ9"
  },
  {
    "id": 4420,
    "name": "Arganchy",
    "state_id": 14,
    "postal_code": "14400",
    "state_name": "Calvados",
    "query": "https://www.facebook.com/events/search?q=Gardening&sde=Abq6hpNmijm8kReC4KYmmDP0NuT4IxNliFRnd3vuRZUj8uh4BsVIK3dVq186DripYNQbuwiy5LR0V3y0W_iqLV_W&filters=eyJycF9ldmVudHNfbG9jYXRpb246MCI6IntcIm5hbWVcIjpcImZpbHRlcl9ldmVudHNfbG9jYXRpb25cIixcImFyZ3NcIjpcIjEwODUwNTY1NTg0MTM4NFwifSJ9"
  },
  {
    "id": 4421,
    "name": "Argences",
    "state_id": 14,
    "postal_code": "14370",
    "state_name": "Calvados",
    "query": "https://www.facebook.com/events/search?q=Gardening&sde=Abq6hpNmijm8kReC4KYmmDP0NuT4IxNliFRnd3vuRZUj8uh4BsVIK3dVq186DripYNQbuwiy5LR0V3y0W_iqLV_W&filters=eyJycF9ldmVudHNfbG9jYXRpb246MCI6IntcIm5hbWVcIjpcImZpbHRlcl9ldmVudHNfbG9jYXRpb25cIixcImFyZ3NcIjpcIjEwNDI4NDk0Mjk0MjUxMlwifSJ9"
  },
  {
    "id": 4422,
    "name": "Arromanches-les-Bains",
    "state_id": 14,
    "postal_code": "14117",
    "state_name": "Calvados",
    "query": "https://www.facebook.com/events/search/?q=Gardening&sde=Abq6hpNmijm8kReC4KYmmDP0NuT4IxNliFRnd3vuRZUj8uh4BsVIK3dVq186DripYNQbuwiy5LR0V3y0W_iqLV_W&filters=eyJycF9ldmVudHNfbG9jYXRpb246MCI6IntcIm5hbWVcIjpcImZpbHRlcl9ldmVudHNfbG9jYXRpb25cIixcImFyZ3NcIjpcIjExNzc0NDA2MTU2OTQ0N1wifSJ9"
  },
  {
    "id": 4423,
    "name": "Asnelles",
    "state_id": 14,
    "postal_code": "14960",
    "state_name": "Calvados",
    "query": "https://www.facebook.com/events/search/?q=Gardening&sde=Abq6hpNmijm8kReC4KYmmDP0NuT4IxNliFRnd3vuRZUj8uh4BsVIK3dVq186DripYNQbuwiy5LR0V3y0W_iqLV_W&filters=eyJycF9ldmVudHNfbG9jYXRpb246MCI6IntcIm5hbWVcIjpcImZpbHRlcl9ldmVudHNfbG9jYXRpb25cIixcImFyZ3NcIjpcIjEwMzc0MDUzMjk5NzQxNFwifSJ9"
  },
  {
    "id": 4424,
    "name": "Asnières-en-Bessin",
    "state_id": 14,
    "postal_code": "14710",
    "state_name": "Calvados",
    "query": ""
  },
  {
    "id": 4425,
    "name": "Auberville",
    "state_id": 14,
    "postal_code": "14640",
    "state_name": "Calvados",
    "query": "https://www.facebook.com/events/search/?q=Gardening&sde=Abq6hpNmijm8kReC4KYmmDP0NuT4IxNliFRnd3vuRZUj8uh4BsVIK3dVq186DripYNQbuwiy5LR0V3y0W_iqLV_W&filters=eyJycF9ldmVudHNfbG9jYXRpb246MCI6IntcIm5hbWVcIjpcImZpbHRlcl9ldmVudHNfbG9jYXRpb25cIixcImFyZ3NcIjpcIjEwNjQ4NTM5NjA1Mjc0M1wifSJ9"
  },
  {
    "id": 4426,
    "name": "Aubigny",
    "state_id": 14,
    "postal_code": "14700",
    "state_name": "Calvados",
    "query": ""
  },
  {
    "id": 4427,
    "name": "Audrieu",
    "state_id": 14,
    "postal_code": "14250",
    "state_name": "Calvados",
    "query": "https://www.facebook.com/events/search/?q=Gardening&sde=Abq6hpNmijm8kReC4KYmmDP0NuT4IxNliFRnd3vuRZUj8uh4BsVIK3dVq186DripYNQbuwiy5LR0V3y0W_iqLV_W&filters=eyJycF9ldmVudHNfbG9jYXRpb246MCI6IntcIm5hbWVcIjpcImZpbHRlcl9ldmVudHNfbG9jYXRpb25cIixcImFyZ3NcIjpcIjExMTg1NjkzODgzMTc1NlwifSJ9"
  },
  {
    "id": 4428,
    "name": "Les Monts d'Aunay",
    "state_id": 14,
    "postal_code": "14260",
    "state_name": "Calvados",
    "query": ""
  },
  {
    "id": 4429,
    "name": "Authie",
    "state_id": 14,
    "postal_code": "14280",
    "state_name": "Calvados",
    "query": "https://www.facebook.com/events/search/?q=Gardening&sde=Abq6hpNmijm8kReC4KYmmDP0NuT4IxNliFRnd3vuRZUj8uh4BsVIK3dVq186DripYNQbuwiy5LR0V3y0W_iqLV_W&filters=eyJycF9ldmVudHNfbG9jYXRpb246MCI6IntcIm5hbWVcIjpcImZpbHRlcl9ldmVudHNfbG9jYXRpb25cIixcImFyZ3NcIjpcIjEwNDczNjc0Mjg5ODQ2MVwifSJ9"
  },
  {
    "id": 4430,
    "name": "Les Authieux-sur-Calonne",
    "state_id": 14,
    "postal_code": "14130",
    "state_name": "Calvados",
    "query": "https://www.facebook.com/events/search/?q=Gardening&sde=Abq6hpNmijm8kReC4KYmmDP0NuT4IxNliFRnd3vuRZUj8uh4BsVIK3dVq186DripYNQbuwiy5LR0V3y0W_iqLV_W&filters=eyJycF9ldmVudHNfbG9jYXRpb246MCI6IntcIm5hbWVcIjpcImZpbHRlcl9ldmVudHNfbG9jYXRpb25cIixcImFyZ3NcIjpcIjEwODEwOTYyNTg4MzU4OFwifSJ9"
  },
  {
    "id": 4431,
    "name": "Auvillars",
    "state_id": 14,
    "postal_code": "14340",
    "state_name": "Calvados",
    "query": "https://www.facebook.com/events/search/?q=Gardening&sde=Abq6hpNmijm8kReC4KYmmDP0NuT4IxNliFRnd3vuRZUj8uh4BsVIK3dVq186DripYNQbuwiy5LR0V3y0W_iqLV_W&filters=eyJycF9ldmVudHNfbG9jYXRpb246MCI6IntcIm5hbWVcIjpcImZpbHRlcl9ldmVudHNfbG9jYXRpb25cIixcImFyZ3NcIjpcIjEwOTQzODEzOTA4MzA4NlwifSJ9"
  },
  {
    "id": 4432,
    "name": "Avenay",
    "state_id": 14,
    "postal_code": "14210",
    "state_name": "Calvados",
    "query": "https://www.facebook.com/events/search/?q=Gardening&sde=Abq6hpNmijm8kReC4KYmmDP0NuT4IxNliFRnd3vuRZUj8uh4BsVIK3dVq186DripYNQbuwiy5LR0V3y0W_iqLV_W&filters=eyJycF9ldmVudHNfbG9jYXRpb246MCI6IntcIm5hbWVcIjpcImZpbHRlcl9ldmVudHNfbG9jYXRpb25cIixcImFyZ3NcIjpcIjEwNjI1NzM1OTQwNTc4M1wifSJ9"
  },
  {
    "id": 4433,
    "name": "Balleroy-sur-Drôme",
    "state_id": 14,
    "postal_code": "14490",
    "state_name": "Calvados",
    "query": ""
  },
  {
    "id": 4434,
    "name": "Banneville-la-Campagne",
    "state_id": 14,
    "postal_code": "14940",
    "state_name": "Calvados",
    "query": ""
  },
  {
    "id": 4435,
    "name": "Malherbe-sur-Ajon",
    "state_id": 14,
    "postal_code": "14260",
    "state_name": "Calvados",
    "query": ""
  },
  {
    "id": 4436,
    "name": "Banville",
    "state_id": 14,
    "postal_code": "14480",
    "state_name": "Calvados",
    "query": "https://www.facebook.com/events/search/?q=Gardening&sde=Abq6hpNmijm8kReC4KYmmDP0NuT4IxNliFRnd3vuRZUj8uh4BsVIK3dVq186DripYNQbuwiy5LR0V3y0W_iqLV_W&filters=eyJycF9ldmVudHNfbG9jYXRpb246MCI6IntcIm5hbWVcIjpcImZpbHRlcl9ldmVudHNfbG9jYXRpb25cIixcImFyZ3NcIjpcIjExNTc2MjUzODQzNjQzOVwifSJ9"
  },
  {
    "id": 4437,
    "name": "Barbery",
    "state_id": 14,
    "postal_code": "14220",
    "state_name": "Calvados",
    "query": "https://www.facebook.com/events/search?q=Gardening&sde=Abq6hpNmijm8kReC4KYmmDP0NuT4IxNliFRnd3vuRZUj8uh4BsVIK3dVq186DripYNQbuwiy5LR0V3y0W_iqLV_W&filters=eyJycF9ldmVudHNfbG9jYXRpb246MCI6IntcIm5hbWVcIjpcImZpbHRlcl9ldmVudHNfbG9jYXRpb25cIixcImFyZ3NcIjpcIjExMzU3MDg3MTk5MDg0MVwifSJ9"
  },
  {
    "id": 4438,
    "name": "Barbeville",
    "state_id": 14,
    "postal_code": "14400",
    "state_name": "Calvados",
    "query": ""
  },
  {
    "id": 4439,
    "name": "Barneville-la-Bertran",
    "state_id": 14,
    "postal_code": "14600",
    "state_name": "Calvados",
    "query": ""
  },
  {
    "id": 4440,
    "name": "Baron-sur-Odon",
    "state_id": 14,
    "postal_code": "14210",
    "state_name": "Calvados",
    "query": "https://www.facebook.com/events/search/?q=Gardening&sde=Abq6hpNmijm8kReC4KYmmDP0NuT4IxNliFRnd3vuRZUj8uh4BsVIK3dVq186DripYNQbuwiy5LR0V3y0W_iqLV_W&filters=eyJycF9ldmVudHNfbG9jYXRpb246MCI6IntcIm5hbWVcIjpcImZpbHRlcl9ldmVudHNfbG9jYXRpb25cIixcImFyZ3NcIjpcIjEwOTY1ODY4OTA1OTU3OFwifSJ9"
  },
  {
    "id": 4441,
    "name": "Barou-en-Auge",
    "state_id": 14,
    "postal_code": "14620",
    "state_name": "Calvados",
    "query": ""
  },
  {
    "id": 4442,
    "name": "Basly",
    "state_id": 14,
    "postal_code": "14610",
    "state_name": "Calvados",
    "query": "https://www.facebook.com/events/search/?q=Gardening&sde=Abq6hpNmijm8kReC4KYmmDP0NuT4IxNliFRnd3vuRZUj8uh4BsVIK3dVq186DripYNQbuwiy5LR0V3y0W_iqLV_W&filters=eyJycF9ldmVudHNfbG9jYXRpb246MCI6IntcIm5hbWVcIjpcImZpbHRlcl9ldmVudHNfbG9jYXRpb25cIixcImFyZ3NcIjpcIjEwNDA5MDUzNjI5NDcyNlwifSJ9"
  },
  {
    "id": 4443,
    "name": "Basseneville",
    "state_id": 14,
    "postal_code": "14670",
    "state_name": "Calvados",
    "query": "https://www.facebook.com/events/search/?q=Gardening&sde=Abq6hpNmijm8kReC4KYmmDP0NuT4IxNliFRnd3vuRZUj8uh4BsVIK3dVq186DripYNQbuwiy5LR0V3y0W_iqLV_W&filters=eyJycF9ldmVudHNfbG9jYXRpb246MCI6IntcIm5hbWVcIjpcImZpbHRlcl9ldmVudHNfbG9jYXRpb25cIixcImFyZ3NcIjpcIjExMjI1NTU3NTQ1MzkzNlwifSJ9"
  },
  {
    "id": 4444,
    "name": "Bavent",
    "state_id": 14,
    "postal_code": "14860",
    "state_name": "Calvados",
    "query": "https://www.facebook.com/events/search/?q=Gardening&sde=Abq6hpNmijm8kReC4KYmmDP0NuT4IxNliFRnd3vuRZUj8uh4BsVIK3dVq186DripYNQbuwiy5LR0V3y0W_iqLV_W&filters=eyJycF9ldmVudHNfbG9jYXRpb246MCI6IntcIm5hbWVcIjpcImZpbHRlcl9ldmVudHNfbG9jYXRpb25cIixcImFyZ3NcIjpcIjEwOTU4NTk3NTczMzYzOFwifSJ9"
  },
  {
    "id": 4445,
    "name": "Bayeux",
    "state_id": 14,
    "postal_code": "14400",
    "state_name": "Calvados",
    "query": "https://www.facebook.com/events/search/?q=Gardening&sde=Abq6hpNmijm8kReC4KYmmDP0NuT4IxNliFRnd3vuRZUj8uh4BsVIK3dVq186DripYNQbuwiy5LR0V3y0W_iqLV_W&filters=eyJycF9ldmVudHNfbG9jYXRpb246MCI6IntcIm5hbWVcIjpcImZpbHRlcl9ldmVudHNfbG9jYXRpb25cIixcImFyZ3NcIjpcIjEwODYzMjk5NTgzMjQ2OVwifSJ9"
  },
  {
    "id": 4446,
    "name": "Bazenville",
    "state_id": 14,
    "postal_code": "14480",
    "state_name": "Calvados",
    "query": ""
  },
  {
    "id": 4447,
    "name": "La Bazoque",
    "state_id": 14,
    "postal_code": "14490",
    "state_name": "Calvados",
    "query": ""
  },
  {
    "id": 4448,
    "name": "Beaumais",
    "state_id": 14,
    "postal_code": "14620",
    "state_name": "Calvados",
    "query": ""
  },
  {
    "id": 4449,
    "name": "Beaumesnil",
    "state_id": 14,
    "postal_code": "14380",
    "state_name": "Calvados",
    "query": ""
  },
  {
    "id": 4450,
    "name": "Beaumont-en-Auge",
    "state_id": 14,
    "postal_code": "14950",
    "state_name": "Calvados",
    "query": "https://www.facebook.com/events/search/?q=Gardening&sde=Abq6hpNmijm8kReC4KYmmDP0NuT4IxNliFRnd3vuRZUj8uh4BsVIK3dVq186DripYNQbuwiy5LR0V3y0W_iqLV_W&filters=eyJycF9ldmVudHNfbG9jYXRpb246MCI6IntcIm5hbWVcIjpcImZpbHRlcl9ldmVudHNfbG9jYXRpb25cIixcImFyZ3NcIjpcIjExMjIwMTUwMjEyOTM5OFwifSJ9"
  },
  {
    "id": 4451,
    "name": "Bellengreville",
    "state_id": 14,
    "postal_code": "14370",
    "state_name": "Calvados",
    "query": "https://www.facebook.com/events/search/?q=Gardening&sde=Abq6hpNmijm8kReC4KYmmDP0NuT4IxNliFRnd3vuRZUj8uh4BsVIK3dVq186DripYNQbuwiy5LR0V3y0W_iqLV_W&filters=eyJycF9ldmVudHNfbG9jYXRpb246MCI6IntcIm5hbWVcIjpcImZpbHRlcl9ldmVudHNfbG9jYXRpb25cIixcImFyZ3NcIjpcIjEwOTE3MTIxOTEwNTIwNlwifSJ9"
  },
  {
    "id": 4452,
    "name": "Benerville-sur-Mer",
    "state_id": 14,
    "postal_code": "14910",
    "state_name": "Calvados",
    "query": "https://www.facebook.com/events/search/?q=Gardening&sde=Abq6hpNmijm8kReC4KYmmDP0NuT4IxNliFRnd3vuRZUj8uh4BsVIK3dVq186DripYNQbuwiy5LR0V3y0W_iqLV_W&filters=eyJycF9ldmVudHNfbG9jYXRpb246MCI6IntcIm5hbWVcIjpcImZpbHRlcl9ldmVudHNfbG9jYXRpb25cIixcImFyZ3NcIjpcIjExMTkzODg3ODgyNDExNFwifSJ9"
  },
  {
    "id": 4453,
    "name": "Bénouville",
    "state_id": 14,
    "postal_code": "14970",
    "state_name": "Calvados",
    "query": "https://www.facebook.com/events/search?q=Gardening&sde=Abq6hpNmijm8kReC4KYmmDP0NuT4IxNliFRnd3vuRZUj8uh4BsVIK3dVq186DripYNQbuwiy5LR0V3y0W_iqLV_W&filters=eyJycF9ldmVudHNfbG9jYXRpb246MCI6IntcIm5hbWVcIjpcImZpbHRlcl9ldmVudHNfbG9jYXRpb25cIixcImFyZ3NcIjpcIjEwNDkzMzU0Mjg3NTYwMlwifSJ9"
  },
  {
    "id": 4454,
    "name": "Souleuvre en Bocage",
    "state_id": 14,
    "postal_code": "14260",
    "state_name": "Calvados",
    "query": ""
  },
  {
    "id": 4455,
    "name": "Bény-sur-Mer",
    "state_id": 14,
    "postal_code": "14440",
    "state_name": "Calvados",
    "query": "https://www.facebook.com/events/search/?q=Gardening&sde=Abq6hpNmijm8kReC4KYmmDP0NuT4IxNliFRnd3vuRZUj8uh4BsVIK3dVq186DripYNQbuwiy5LR0V3y0W_iqLV_W&filters=eyJycF9ldmVudHNfbG9jYXRpb246MCI6IntcIm5hbWVcIjpcImZpbHRlcl9ldmVudHNfbG9jYXRpb25cIixcImFyZ3NcIjpcIjEwODIzNTc0OTE5NzA3NlwifSJ9"
  },
  {
    "id": 4456,
    "name": "Bernesq",
    "state_id": 14,
    "postal_code": "14710",
    "state_name": "Calvados",
    "query": "https://www.facebook.com/events/search?q=Gardening&sde=Abq6hpNmijm8kReC4KYmmDP0NuT4IxNliFRnd3vuRZUj8uh4BsVIK3dVq186DripYNQbuwiy5LR0V3y0W_iqLV_W&filters=eyJycF9ldmVudHNfbG9jYXRpb246MCI6IntcIm5hbWVcIjpcImZpbHRlcl9ldmVudHNfbG9jYXRpb25cIixcImFyZ3NcIjpcIjExMzkyNjk4NTI4NDI5NVwifSJ9"
  },
  {
    "id": 4457,
    "name": "Bernières-d'Ailly",
    "state_id": 14,
    "postal_code": "14170",
    "state_name": "Calvados",
    "query": "https://www.facebook.com/events/search/?q=Gardening&sde=Abq6hpNmijm8kReC4KYmmDP0NuT4IxNliFRnd3vuRZUj8uh4BsVIK3dVq186DripYNQbuwiy5LR0V3y0W_iqLV_W&filters=eyJycF9ldmVudHNfbG9jYXRpb246MCI6IntcIm5hbWVcIjpcImZpbHRlcl9ldmVudHNfbG9jYXRpb25cIixcImFyZ3NcIjpcIjExMzU3MTYyNTMxOTk3M1wifSJ9"
  },
  {
    "id": 4458,
    "name": "Bernières-sur-Mer",
    "state_id": 14,
    "postal_code": "14990",
    "state_name": "Calvados",
    "query": "https://www.facebook.com/events/search/?q=Gardening&sde=Abq6hpNmijm8kReC4KYmmDP0NuT4IxNliFRnd3vuRZUj8uh4BsVIK3dVq186DripYNQbuwiy5LR0V3y0W_iqLV_W&filters=eyJycF9ldmVudHNfbG9jYXRpb246MCI6IntcIm5hbWVcIjpcImZpbHRlcl9ldmVudHNfbG9jYXRpb25cIixcImFyZ3NcIjpcIjExMTkwMTQ4MjE1OTEwOVwifSJ9"
  },
  {
    "id": 4459,
    "name": "Biéville-Beuville",
    "state_id": 14,
    "postal_code": "14112",
    "state_name": "Calvados",
    "query": ""
  },
  {
    "id": 4460,
    "name": "Beuvillers",
    "state_id": 14,
    "postal_code": "14100",
    "state_name": "Calvados",
    "query": "https://www.facebook.com/events/search/?q=Gardening&sde=Abq6hpNmijm8kReC4KYmmDP0NuT4IxNliFRnd3vuRZUj8uh4BsVIK3dVq186DripYNQbuwiy5LR0V3y0W_iqLV_W&filters=eyJycF9ldmVudHNfbG9jYXRpb246MCI6IntcIm5hbWVcIjpcImZpbHRlcl9ldmVudHNfbG9jYXRpb25cIixcImFyZ3NcIjpcIjEwNzA4NDE5NTk4OTM0N1wifSJ9"
  },
  {
    "id": 4461,
    "name": "Beuvron-en-Auge",
    "state_id": 14,
    "postal_code": "14430",
    "state_name": "Calvados",
    "query": "https://www.facebook.com/events/search/?q=Gardening&sde=Abq6hpNmijm8kReC4KYmmDP0NuT4IxNliFRnd3vuRZUj8uh4BsVIK3dVq186DripYNQbuwiy5LR0V3y0W_iqLV_W&filters=eyJycF9ldmVudHNfbG9jYXRpb246MCI6IntcIm5hbWVcIjpcImZpbHRlcl9ldmVudHNfbG9jYXRpb25cIixcImFyZ3NcIjpcIjEwNjAxODU3NjA5ODQ5MFwifSJ9"
  },
  {
    "id": 4462,
    "name": "Blainville-sur-Orne",
    "state_id": 14,
    "postal_code": "14550",
    "state_name": "Calvados",
    "query": "https://www.facebook.com/events/search/?q=Gardening&sde=Abq6hpNmijm8kReC4KYmmDP0NuT4IxNliFRnd3vuRZUj8uh4BsVIK3dVq186DripYNQbuwiy5LR0V3y0W_iqLV_W&filters=eyJycF9ldmVudHNfbG9jYXRpb246MCI6IntcIm5hbWVcIjpcImZpbHRlcl9ldmVudHNfbG9jYXRpb25cIixcImFyZ3NcIjpcIjExMjI0NTEzMjEyNTAwMFwifSJ9"
  },
  {
    "id": 4463,
    "name": "Blangy-le-Château",
    "state_id": 14,
    "postal_code": "14130",
    "state_name": "Calvados",
    "query": "https://www.facebook.com/events/search/?q=Gardening&sde=Abq6hpNmijm8kReC4KYmmDP0NuT4IxNliFRnd3vuRZUj8uh4BsVIK3dVq186DripYNQbuwiy5LR0V3y0W_iqLV_W&filters=eyJycF9ldmVudHNfbG9jYXRpb246MCI6IntcIm5hbWVcIjpcImZpbHRlcl9ldmVudHNfbG9jYXRpb25cIixcImFyZ3NcIjpcIjEwMzEzNzk0OTcyNjc5NVwifSJ9"
  },
  {
    "id": 4464,
    "name": "Blay",
    "state_id": 14,
    "postal_code": "14400",
    "state_name": "Calvados",
    "query": "https://www.facebook.com/events/search/?q=Gardening&sde=Abq6hpNmijm8kReC4KYmmDP0NuT4IxNliFRnd3vuRZUj8uh4BsVIK3dVq186DripYNQbuwiy5LR0V3y0W_iqLV_W&filters=eyJycF9ldmVudHNfbG9jYXRpb246MCI6IntcIm5hbWVcIjpcImZpbHRlcl9ldmVudHNfbG9jYXRpb25cIixcImFyZ3NcIjpcIjExMDk4MTI1MjI2Mjc2M1wifSJ9"
  },
  {
    "id": 4465,
    "name": "Blonville-sur-Mer",
    "state_id": 14,
    "postal_code": "14910",
    "state_name": "Calvados",
    "query": "https://www.facebook.com/events/search/?q=Gardening&sde=Abq6hpNmijm8kReC4KYmmDP0NuT4IxNliFRnd3vuRZUj8uh4BsVIK3dVq186DripYNQbuwiy5LR0V3y0W_iqLV_W&filters=eyJycF9ldmVudHNfbG9jYXRpb246MCI6IntcIm5hbWVcIjpcImZpbHRlcl9ldmVudHNfbG9jYXRpb25cIixcImFyZ3NcIjpcIjEwNTQ2MDc5OTQ4NzcxOFwifSJ9"
  },
  {
    "id": 4466,
    "name": "Le Bô",
    "state_id": 14,
    "postal_code": "14690",
    "state_name": "Calvados",
    "query": ""
  },
  {
    "id": 4467,
    "name": "La Boissière",
    "state_id": 14,
    "postal_code": "14340",
    "state_name": "Calvados",
    "query": ""
  },
  {
    "id": 4468,
    "name": "Bonnebosq",
    "state_id": 14,
    "postal_code": "14340",
    "state_name": "Calvados",
    "query": "https://www.facebook.com/events/search?q=Gardening&sde=Abq6hpNmijm8kReC4KYmmDP0NuT4IxNliFRnd3vuRZUj8uh4BsVIK3dVq186DripYNQbuwiy5LR0V3y0W_iqLV_W&filters=eyJycF9ldmVudHNfbG9jYXRpb246MCI6IntcIm5hbWVcIjpcImZpbHRlcl9ldmVudHNfbG9jYXRpb25cIixcImFyZ3NcIjpcIjEwOTI2MDc4MjQzMjY1N1wifSJ9"
  },
  {
    "id": 4469,
    "name": "Bonnemaison",
    "state_id": 14,
    "postal_code": "14260",
    "state_name": "Calvados",
    "query": "https://www.facebook.com/events/search?q=Gardening&sde=Abq6hpNmijm8kReC4KYmmDP0NuT4IxNliFRnd3vuRZUj8uh4BsVIK3dVq186DripYNQbuwiy5LR0V3y0W_iqLV_W&filters=eyJycF9ldmVudHNfbG9jYXRpb246MCI6IntcIm5hbWVcIjpcImZpbHRlcl9ldmVudHNfbG9jYXRpb25cIixcImFyZ3NcIjpcIjEwNDAzNTA4Mjk2NDg3MVwifSJ9"
  },
  {
    "id": 4470,
    "name": "Bonneville-la-Louvet",
    "state_id": 14,
    "postal_code": "14130",
    "state_name": "Calvados",
    "query": "https://www.facebook.com/events/search/?q=Gardening&sde=Abq6hpNmijm8kReC4KYmmDP0NuT4IxNliFRnd3vuRZUj8uh4BsVIK3dVq186DripYNQbuwiy5LR0V3y0W_iqLV_W&filters=eyJycF9ldmVudHNfbG9jYXRpb246MCI6IntcIm5hbWVcIjpcImZpbHRlcl9ldmVudHNfbG9jYXRpb25cIixcImFyZ3NcIjpcIjExMjA4Mjk5MjEzNzcyNVwifSJ9"
  },
  {
    "id": 4471,
    "name": "Bonneville-sur-Touques",
    "state_id": 14,
    "postal_code": "14800",
    "state_name": "Calvados",
    "query": "https://www.facebook.com/events/search/?q=Gardening&sde=Abq6hpNmijm8kReC4KYmmDP0NuT4IxNliFRnd3vuRZUj8uh4BsVIK3dVq186DripYNQbuwiy5LR0V3y0W_iqLV_W&filters=eyJycF9ldmVudHNfbG9jYXRpb246MCI6IntcIm5hbWVcIjpcImZpbHRlcl9ldmVudHNfbG9jYXRpb25cIixcImFyZ3NcIjpcIjEwOTMwNzM5NTc2MTY0M1wifSJ9"
  },
  {
    "id": 4472,
    "name": "Bonnœil",
    "state_id": 14,
    "postal_code": "14700",
    "state_name": "Calvados",
    "query": "https://www.facebook.com/events/search/?q=Gardening&sde=Abq6hpNmijm8kReC4KYmmDP0NuT4IxNliFRnd3vuRZUj8uh4BsVIK3dVq186DripYNQbuwiy5LR0V3y0W_iqLV_W&filters=eyJycF9ldmVudHNfbG9jYXRpb246MCI6IntcIm5hbWVcIjpcImZpbHRlcl9ldmVudHNfbG9jYXRpb25cIixcImFyZ3NcIjpcIjExNTQ1OTU5NTEzMjE3MVwifSJ9"
  },
  {
    "id": 4473,
    "name": "Bons-Tassilly",
    "state_id": 14,
    "postal_code": "14420",
    "state_name": "Calvados",
    "query": ""
  },
  {
    "id": 4474,
    "name": "Bougy",
    "state_id": 14,
    "postal_code": "14210",
    "state_name": "Calvados",
    "query": "https://www.facebook.com/events/search/?q=Gardening&sde=Abq6hpNmijm8kReC4KYmmDP0NuT4IxNliFRnd3vuRZUj8uh4BsVIK3dVq186DripYNQbuwiy5LR0V3y0W_iqLV_W&filters=eyJycF9ldmVudHNfbG9jYXRpb246MCI6IntcIm5hbWVcIjpcImZpbHRlcl9ldmVudHNfbG9jYXRpb25cIixcImFyZ3NcIjpcIjExMTc1MTA2NTUwNDA2MlwifSJ9"
  },
  {
    "id": 4475,
    "name": "Boulon",
    "state_id": 14,
    "postal_code": "14220",
    "state_name": "Calvados",
    "query": "https://www.facebook.com/events/search/?q=Gardening&sde=Abq6hpNmijm8kReC4KYmmDP0NuT4IxNliFRnd3vuRZUj8uh4BsVIK3dVq186DripYNQbuwiy5LR0V3y0W_iqLV_W&filters=eyJycF9ldmVudHNfbG9jYXRpb246MCI6IntcIm5hbWVcIjpcImZpbHRlcl9ldmVudHNfbG9jYXRpb25cIixcImFyZ3NcIjpcIjExMjc2MjA1ODczOTUwNVwifSJ9"
  },
  {
    "id": 4476,
    "name": "Bourgeauville",
    "state_id": 14,
    "postal_code": "14430",
    "state_name": "Calvados",
    "query": ""
  },
  {
    "id": 4477,
    "name": "Bourguébus",
    "state_id": 14,
    "postal_code": "14540",
    "state_name": "Calvados",
    "query": "https://www.facebook.com/events/search/?q=Gardening&sde=Abq6hpNmijm8kReC4KYmmDP0NuT4IxNliFRnd3vuRZUj8uh4BsVIK3dVq186DripYNQbuwiy5LR0V3y0W_iqLV_W&filters=eyJycF9ldmVudHNfbG9jYXRpb246MCI6IntcIm5hbWVcIjpcImZpbHRlcl9ldmVudHNfbG9jYXRpb25cIixcImFyZ3NcIjpcIjEwNDAxMTQxMjk2OTk5M1wifSJ9"
  },
  {
    "id": 4478,
    "name": "Branville",
    "state_id": 14,
    "postal_code": "14430",
    "state_name": "Calvados",
    "query": "https://www.facebook.com/events/search/?q=Gardening&sde=Abq6hpNmijm8kReC4KYmmDP0NuT4IxNliFRnd3vuRZUj8uh4BsVIK3dVq186DripYNQbuwiy5LR0V3y0W_iqLV_W&filters=eyJycF9ldmVudHNfbG9jYXRpb246MCI6IntcIm5hbWVcIjpcImZpbHRlcl9ldmVudHNfbG9jYXRpb25cIixcImFyZ3NcIjpcIjEwODczMDkyNTgyNTY3M1wifSJ9"
  },
  {
    "id": 4479,
    "name": "Brémoy",
    "state_id": 14,
    "postal_code": "14260",
    "state_name": "Calvados",
    "query": "https://www.facebook.com/events/search/?q=Gardening&sde=Abq6hpNmijm8kReC4KYmmDP0NuT4IxNliFRnd3vuRZUj8uh4BsVIK3dVq186DripYNQbuwiy5LR0V3y0W_iqLV_W&filters=eyJycF9ldmVudHNfbG9jYXRpb246MCI6IntcIm5hbWVcIjpcImZpbHRlcl9ldmVudHNfbG9jYXRpb25cIixcImFyZ3NcIjpcIjEwODQxNTc5OTE4MDA1MFwifSJ9"
  },
  {
    "id": 4480,
    "name": "Bretteville-le-Rabet",
    "state_id": 14,
    "postal_code": "14190",
    "state_name": "Calvados",
    "query": "https://www.facebook.com/events/search/?q=Gardening&sde=Abq6hpNmijm8kReC4KYmmDP0NuT4IxNliFRnd3vuRZUj8uh4BsVIK3dVq186DripYNQbuwiy5LR0V3y0W_iqLV_W&filters=eyJycF9ldmVudHNfbG9jYXRpb246MCI6IntcIm5hbWVcIjpcImZpbHRlcl9ldmVudHNfbG9jYXRpb25cIixcImFyZ3NcIjpcIjExMjMzOTMxODc4Mjg1MlwifSJ9"
  },
  {
    "id": 4481,
    "name": "Thue et Mue",
    "state_id": 14,
    "postal_code": "14210",
    "state_name": "Calvados",
    "query": ""
  },
  {
    "id": 4482,
    "name": "Bretteville-sur-Laize",
    "state_id": 14,
    "postal_code": "14680",
    "state_name": "Calvados",
    "query": "https://www.facebook.com/events/search/?q=Gardening&sde=Abq6hpNmijm8kReC4KYmmDP0NuT4IxNliFRnd3vuRZUj8uh4BsVIK3dVq186DripYNQbuwiy5LR0V3y0W_iqLV_W&filters=eyJycF9ldmVudHNfbG9jYXRpb246MCI6IntcIm5hbWVcIjpcImZpbHRlcl9ldmVudHNfbG9jYXRpb25cIixcImFyZ3NcIjpcIjEwOTExODY3OTEwNzY0MFwifSJ9"
  },
  {
    "id": 4483,
    "name": "Bretteville-sur-Odon",
    "state_id": 14,
    "postal_code": "14760",
    "state_name": "Calvados",
    "query": "https://www.facebook.com/events/search/?q=Gardening&sde=Abq6hpNmijm8kReC4KYmmDP0NuT4IxNliFRnd3vuRZUj8uh4BsVIK3dVq186DripYNQbuwiy5LR0V3y0W_iqLV_W&filters=eyJycF9ldmVudHNfbG9jYXRpb246MCI6IntcIm5hbWVcIjpcImZpbHRlcl9ldmVudHNfbG9jYXRpb25cIixcImFyZ3NcIjpcIjEwMzEzMTU4OTcyNjU3NVwifSJ9"
  },
  {
    "id": 4484,
    "name": "Le Breuil-en-Auge",
    "state_id": 14,
    "postal_code": "14130",
    "state_name": "Calvados",
    "query": "https://www.facebook.com/events/search/?q=Gardening&sde=Abq6hpNmijm8kReC4KYmmDP0NuT4IxNliFRnd3vuRZUj8uh4BsVIK3dVq186DripYNQbuwiy5LR0V3y0W_iqLV_W&filters=eyJycF9ldmVudHNfbG9jYXRpb246MCI6IntcIm5hbWVcIjpcImZpbHRlcl9ldmVudHNfbG9jYXRpb25cIixcImFyZ3NcIjpcIjEwODMwNTU0OTE5NzQ4NFwifSJ9"
  },
  {
    "id": 4485,
    "name": "Le Breuil-en-Bessin",
    "state_id": 14,
    "postal_code": "14330",
    "state_name": "Calvados",
    "query": ""
  },
  {
    "id": 4486,
    "name": "Le Brévedent",
    "state_id": 14,
    "postal_code": "14130",
    "state_name": "Calvados",
    "query": "https://www.facebook.com/events/search/?q=Gardening&sde=Abq6hpNmijm8kReC4KYmmDP0NuT4IxNliFRnd3vuRZUj8uh4BsVIK3dVq186DripYNQbuwiy5LR0V3y0W_iqLV_W&filters=eyJycF9ldmVudHNfbG9jYXRpb246MCI6IntcIm5hbWVcIjpcImZpbHRlcl9ldmVudHNfbG9jYXRpb25cIixcImFyZ3NcIjpcIjEwMzA5NDU0MzA2MzY4MlwifSJ9"
  },
  {
    "id": 4487,
    "name": "Bréville-les-Monts",
    "state_id": 14,
    "postal_code": "14860",
    "state_name": "Calvados",
    "query": ""
  },
  {
    "id": 4488,
    "name": "Bricqueville",
    "state_id": 14,
    "postal_code": "14710",
    "state_name": "Calvados",
    "query": "https://www.facebook.com/events/search/?q=Gardening&sde=Abq6hpNmijm8kReC4KYmmDP0NuT4IxNliFRnd3vuRZUj8uh4BsVIK3dVq186DripYNQbuwiy5LR0V3y0W_iqLV_W&filters=eyJycF9ldmVudHNfbG9jYXRpb246MCI6IntcIm5hbWVcIjpcImZpbHRlcl9ldmVudHNfbG9jYXRpb25cIixcImFyZ3NcIjpcIjExMjgxMzUzNTQwMzczMVwifSJ9"
  },
  {
    "id": 4489,
    "name": "Brucourt",
    "state_id": 14,
    "postal_code": "14160",
    "state_name": "Calvados",
    "query": "https://www.facebook.com/events/search/?q=Gardening&sde=Abq6hpNmijm8kReC4KYmmDP0NuT4IxNliFRnd3vuRZUj8uh4BsVIK3dVq186DripYNQbuwiy5LR0V3y0W_iqLV_W&filters=eyJycF9ldmVudHNfbG9jYXRpb246MCI6IntcIm5hbWVcIjpcImZpbHRlcl9ldmVudHNfbG9jYXRpb25cIixcImFyZ3NcIjpcIjEwNTczMjEzMjc5Mzk4N1wifSJ9"
  },
  {
    "id": 4490,
    "name": "Bucéels",
    "state_id": 14,
    "postal_code": "14250",
    "state_name": "Calvados",
    "query": "https://www.facebook.com/events/search/?q=Gardening&sde=Abq6hpNmijm8kReC4KYmmDP0NuT4IxNliFRnd3vuRZUj8uh4BsVIK3dVq186DripYNQbuwiy5LR0V3y0W_iqLV_W&filters=eyJycF9ldmVudHNfbG9jYXRpb246MCI6IntcIm5hbWVcIjpcImZpbHRlcl9ldmVudHNfbG9jYXRpb25cIixcImFyZ3NcIjpcIjEwNDAzNTUxNjI5OTIwMlwifSJ9"
  },
  {
    "id": 4491,
    "name": "Le Bû-sur-Rouvres",
    "state_id": 14,
    "postal_code": "14190",
    "state_name": "Calvados",
    "query": ""
  },
  {
    "id": 4492,
    "name": "Cabourg",
    "state_id": 14,
    "postal_code": "14390",
    "state_name": "Calvados",
    "query": "https://www.facebook.com/events/search/?q=Gardening&sde=Abq6hpNmijm8kReC4KYmmDP0NuT4IxNliFRnd3vuRZUj8uh4BsVIK3dVq186DripYNQbuwiy5LR0V3y0W_iqLV_W&filters=eyJycF9ldmVudHNfbG9jYXRpb246MCI6IntcIm5hbWVcIjpcImZpbHRlcl9ldmVudHNfbG9jYXRpb25cIixcImFyZ3NcIjpcIjEwOTQ1ODgwMjQwNjg0MVwifSJ9"
  },
  {
    "id": 4493,
    "name": "Caen",
    "state_id": 14,
    "postal_code": "14000",
    "state_name": "Calvados",
    "query": "https://www.facebook.com/events/search?q=Gardening&sde=Abq6hpNmijm8kReC4KYmmDP0NuT4IxNliFRnd3vuRZUj8uh4BsVIK3dVq186DripYNQbuwiy5LR0V3y0W_iqLV_W&filters=eyJycF9ldmVudHNfbG9jYXRpb246MCI6IntcIm5hbWVcIjpcImZpbHRlcl9ldmVudHNfbG9jYXRpb25cIixcImFyZ3NcIjpcIjExMTc0NTQ3NTUxODc3MlwifSJ9"
  },
  {
    "id": 4494,
    "name": "Cagny",
    "state_id": 14,
    "postal_code": "14630",
    "state_name": "Calvados",
    "query": "https://www.facebook.com/events/search?q=Gardening&sde=Abq6hpNmijm8kReC4KYmmDP0NuT4IxNliFRnd3vuRZUj8uh4BsVIK3dVq186DripYNQbuwiy5LR0V3y0W_iqLV_W&filters=eyJycF9ldmVudHNfbG9jYXRpb246MCI6IntcIm5hbWVcIjpcImZpbHRlcl9ldmVudHNfbG9jYXRpb25cIixcImFyZ3NcIjpcIjEwNjM4MjA1MjczMDEwOFwifSJ9"
  },
  {
    "id": 4495,
    "name": "Cahagnes",
    "state_id": 14,
    "postal_code": "14240",
    "state_name": "Calvados",
    "query": "https://www.facebook.com/events/search/?q=Gardening&sde=Abq6hpNmijm8kReC4KYmmDP0NuT4IxNliFRnd3vuRZUj8uh4BsVIK3dVq186DripYNQbuwiy5LR0V3y0W_iqLV_W&filters=eyJycF9ldmVudHNfbG9jYXRpb246MCI6IntcIm5hbWVcIjpcImZpbHRlcl9ldmVudHNfbG9jYXRpb25cIixcImFyZ3NcIjpcIjEwNTc4ODUxNjEyMjcyMVwifSJ9"
  },
  {
    "id": 4496,
    "name": "Cahagnolles",
    "state_id": 14,
    "postal_code": "14490",
    "state_name": "Calvados",
    "query": ""
  },
  {
    "id": 4497,
    "name": "La Caine",
    "state_id": 14,
    "postal_code": "14210",
    "state_name": "Calvados",
    "query": ""
  },
  {
    "id": 4498,
    "name": "Cairon",
    "state_id": 14,
    "postal_code": "14610",
    "state_name": "Calvados",
    "query": "https://www.facebook.com/events/search/?q=Gardening&sde=Abq6hpNmijm8kReC4KYmmDP0NuT4IxNliFRnd3vuRZUj8uh4BsVIK3dVq186DripYNQbuwiy5LR0V3y0W_iqLV_W&filters=eyJycF9ldmVudHNfbG9jYXRpb246MCI6IntcIm5hbWVcIjpcImZpbHRlcl9ldmVudHNfbG9jYXRpb25cIixcImFyZ3NcIjpcIjEwODgwOTQ5NTgwOTcxM1wifSJ9"
  },
  {
    "id": 4499,
    "name": "La Cambe",
    "state_id": 14,
    "postal_code": "14230",
    "state_name": "Calvados",
    "query": "https://www.facebook.com/events/search/?q=Gardening&sde=Abq6hpNmijm8kReC4KYmmDP0NuT4IxNliFRnd3vuRZUj8uh4BsVIK3dVq186DripYNQbuwiy5LR0V3y0W_iqLV_W&filters=eyJycF9ldmVudHNfbG9jYXRpb246MCI6IntcIm5hbWVcIjpcImZpbHRlcl9ldmVudHNfbG9jYXRpb25cIixcImFyZ3NcIjpcIjEwMzgyMDg4Mjk4OTg3MFwifSJ9"
  },
  {
    "id": 4500,
    "name": "Cambes-en-Plaine",
    "state_id": 14,
    "postal_code": "14610",
    "state_name": "Calvados",
    "query": "https://www.facebook.com/events/search/?q=Gardening&sde=Abq6hpNmijm8kReC4KYmmDP0NuT4IxNliFRnd3vuRZUj8uh4BsVIK3dVq186DripYNQbuwiy5LR0V3y0W_iqLV_W&filters=eyJycF9ldmVudHNfbG9jYXRpb246MCI6IntcIm5hbWVcIjpcImZpbHRlcl9ldmVudHNfbG9jYXRpb25cIixcImFyZ3NcIjpcIjEwMzc5NjAwMjk5MzAzOFwifSJ9"
  },
  {
    "id": 4501,
    "name": "Cambremer",
    "state_id": 14,
    "postal_code": "14340",
    "state_name": "Calvados",
    "query": "https://www.facebook.com/events/search/?q=Gardening&sde=Abq6hpNmijm8kReC4KYmmDP0NuT4IxNliFRnd3vuRZUj8uh4BsVIK3dVq186DripYNQbuwiy5LR0V3y0W_iqLV_W&filters=eyJycF9ldmVudHNfbG9jYXRpb246MCI6IntcIm5hbWVcIjpcImZpbHRlcl9ldmVudHNfbG9jYXRpb25cIixcImFyZ3NcIjpcIjEwODE5NTU5OTIwMjc1OFwifSJ9"
  },
  {
    "id": 4502,
    "name": "Campagnolles",
    "state_id": 14,
    "postal_code": "14500",
    "state_name": "Calvados",
    "query": "https://www.facebook.com/events/search?q=Gardening&sde=Abq6hpNmijm8kReC4KYmmDP0NuT4IxNliFRnd3vuRZUj8uh4BsVIK3dVq186DripYNQbuwiy5LR0V3y0W_iqLV_W&filters=eyJycF9ldmVudHNfbG9jYXRpb246MCI6IntcIm5hbWVcIjpcImZpbHRlcl9ldmVudHNfbG9jYXRpb25cIixcImFyZ3NcIjpcIjEwNTk5NDYzMjc2NTIwNFwifSJ9"
  },
  {
    "id": 4503,
    "name": "Campigny",
    "state_id": 14,
    "postal_code": "14490",
    "state_name": "Calvados",
    "query": ""
  },
  {
    "id": 4504,
    "name": "Canapville",
    "state_id": 14,
    "postal_code": "14800",
    "state_name": "Calvados",
    "query": "https://www.facebook.com/events/search/?q=Gardening&sde=Abq6hpNmijm8kReC4KYmmDP0NuT4IxNliFRnd3vuRZUj8uh4BsVIK3dVq186DripYNQbuwiy5LR0V3y0W_iqLV_W&filters=eyJycF9ldmVudHNfbG9jYXRpb246MCI6IntcIm5hbWVcIjpcImZpbHRlcl9ldmVudHNfbG9jYXRpb25cIixcImFyZ3NcIjpcIjEwOTE5NTAxMjQ0MjAwOFwifSJ9"
  },
  {
    "id": 4505,
    "name": "Canchy",
    "state_id": 14,
    "postal_code": "14230",
    "state_name": "Calvados",
    "query": "https://www.facebook.com/events/search/?q=Gardening&sde=Abq6hpNmijm8kReC4KYmmDP0NuT4IxNliFRnd3vuRZUj8uh4BsVIK3dVq186DripYNQbuwiy5LR0V3y0W_iqLV_W&filters=eyJycF9ldmVudHNfbG9jYXRpb246MCI6IntcIm5hbWVcIjpcImZpbHRlcl9ldmVudHNfbG9jYXRpb25cIixcImFyZ3NcIjpcIjEwNjQ1NTAwOTM4NzQwNlwifSJ9"
  },
  {
    "id": 4506,
    "name": "Canteloup",
    "state_id": 14,
    "postal_code": "14370",
    "state_name": "Calvados",
    "query": "https://www.facebook.com/events/search/?q=Gardening&sde=Abq6hpNmijm8kReC4KYmmDP0NuT4IxNliFRnd3vuRZUj8uh4BsVIK3dVq186DripYNQbuwiy5LR0V3y0W_iqLV_W&filters=eyJycF9ldmVudHNfbG9jYXRpb246MCI6IntcIm5hbWVcIjpcImZpbHRlcl9ldmVudHNfbG9jYXRpb25cIixcImFyZ3NcIjpcIjEwOTQwODA0OTA4NjUyNlwifSJ9"
  },
  {
    "id": 4507,
    "name": "Carcagny",
    "state_id": 14,
    "postal_code": "14740",
    "state_name": "Calvados",
    "query": "https://www.facebook.com/events/search/?q=Gardening&sde=Abq6hpNmijm8kReC4KYmmDP0NuT4IxNliFRnd3vuRZUj8uh4BsVIK3dVq186DripYNQbuwiy5LR0V3y0W_iqLV_W&filters=eyJycF9ldmVudHNfbG9jYXRpb246MCI6IntcIm5hbWVcIjpcImZpbHRlcl9ldmVudHNfbG9jYXRpb25cIixcImFyZ3NcIjpcIjEwNTk0OTA1Mjc2OTcxMFwifSJ9"
  },
  {
    "id": 4508,
    "name": "Cardonville",
    "state_id": 14,
    "postal_code": "14230",
    "state_name": "Calvados",
    "query": "https://www.facebook.com/events/search/?q=Gardening&sde=Abq6hpNmijm8kReC4KYmmDP0NuT4IxNliFRnd3vuRZUj8uh4BsVIK3dVq186DripYNQbuwiy5LR0V3y0W_iqLV_W&filters=eyJycF9ldmVudHNfbG9jYXRpb246MCI6IntcIm5hbWVcIjpcImZpbHRlcl9ldmVudHNfbG9jYXRpb25cIixcImFyZ3NcIjpcIjExMjg3NjM4ODcyNDAwNlwifSJ9"
  },
  {
    "id": 4509,
    "name": "Carpiquet",
    "state_id": 14,
    "postal_code": "14650",
    "state_name": "Calvados",
    "query": "https://www.facebook.com/events/search/?q=Gardening&sde=Abq6hpNmijm8kReC4KYmmDP0NuT4IxNliFRnd3vuRZUj8uh4BsVIK3dVq186DripYNQbuwiy5LR0V3y0W_iqLV_W&filters=eyJycF9ldmVudHNfbG9jYXRpb246MCI6IntcIm5hbWVcIjpcImZpbHRlcl9ldmVudHNfbG9jYXRpb25cIixcImFyZ3NcIjpcIjEwMzc2NTY5Mjk5NjEwNlwifSJ9"
  },
  {
    "id": 4510,
    "name": "Cartigny-l'Épinay",
    "state_id": 14,
    "postal_code": "14330",
    "state_name": "Calvados",
    "query": "https://www.facebook.com/events/search/?q=Gardening&sde=Abq6hpNmijm8kReC4KYmmDP0NuT4IxNliFRnd3vuRZUj8uh4BsVIK3dVq186DripYNQbuwiy5LR0V3y0W_iqLV_W&filters=eyJycF9ldmVudHNfbG9jYXRpb246MCI6IntcIm5hbWVcIjpcImZpbHRlcl9ldmVudHNfbG9jYXRpb25cIixcImFyZ3NcIjpcIjEwODE5NzY0OTIwODg5N1wifSJ9"
  },
  {
    "id": 4511,
    "name": "Castillon",
    "state_id": 14,
    "postal_code": "14490",
    "state_name": "Calvados",
    "query": ""
  },
  {
    "id": 4512,
    "name": "Castillon-en-Auge",
    "state_id": 14,
    "postal_code": "14140",
    "state_name": "Calvados",
    "query": ""
  },
  {
    "id": 4513,
    "name": "Caumont-sur-Aure",
    "state_id": 14,
    "postal_code": "14240",
    "state_name": "Calvados",
    "query": ""
  },
  {
    "id": 4514,
    "name": "Cauvicourt",
    "state_id": 14,
    "postal_code": "14190",
    "state_name": "Calvados",
    "query": "https://www.facebook.com/events/search/?q=Gardening&sde=Abq6hpNmijm8kReC4KYmmDP0NuT4IxNliFRnd3vuRZUj8uh4BsVIK3dVq186DripYNQbuwiy5LR0V3y0W_iqLV_W&filters=eyJycF9ldmVudHNfbG9jYXRpb246MCI6IntcIm5hbWVcIjpcImZpbHRlcl9ldmVudHNfbG9jYXRpb25cIixcImFyZ3NcIjpcIjExMTg1OTM4MjE1ODk4N1wifSJ9"
  },
  {
    "id": 4515,
    "name": "Cauville",
    "state_id": 14,
    "postal_code": "14770",
    "state_name": "Calvados",
    "query": "https://www.facebook.com/events/search/?q=Gardening&sde=Abq6hpNmijm8kReC4KYmmDP0NuT4IxNliFRnd3vuRZUj8uh4BsVIK3dVq186DripYNQbuwiy5LR0V3y0W_iqLV_W&filters=eyJycF9ldmVudHNfbG9jYXRpb246MCI6IntcIm5hbWVcIjpcImZpbHRlcl9ldmVudHNfbG9jYXRpb25cIixcImFyZ3NcIjpcIjExMjI4MzAxNTQ1MTM4N1wifSJ9"
  },
  {
    "id": 4516,
    "name": "Cernay",
    "state_id": 14,
    "postal_code": "14290",
    "state_name": "Calvados",
    "query": ""
  },
  {
    "id": 4517,
    "name": "Cesny-aux-Vignes",
    "state_id": 14,
    "postal_code": "14270",
    "state_name": "Calvados",
    "query": "https://www.facebook.com/events/search/?q=Gardening&sde=Abq6hpNmijm8kReC4KYmmDP0NuT4IxNliFRnd3vuRZUj8uh4BsVIK3dVq186DripYNQbuwiy5LR0V3y0W_iqLV_W&filters=eyJycF9ldmVudHNfbG9jYXRpb246MCI6IntcIm5hbWVcIjpcImZpbHRlcl9ldmVudHNfbG9jYXRpb25cIixcImFyZ3NcIjpcIjEwMzc3MDM3Mjk5NDk2NVwifSJ9"
  },
  {
    "id": 4518,
    "name": "Cesny-les-Sources",
    "state_id": 14,
    "postal_code": "14220",
    "state_name": "Calvados",
    "query": ""
  },
  {
    "id": 4519,
    "name": "Chouain",
    "state_id": 14,
    "postal_code": "14250",
    "state_name": "Calvados",
    "query": "https://www.facebook.com/events/search/?q=Gardening&sde=Abq6hpNmijm8kReC4KYmmDP0NuT4IxNliFRnd3vuRZUj8uh4BsVIK3dVq186DripYNQbuwiy5LR0V3y0W_iqLV_W&filters=eyJycF9ldmVudHNfbG9jYXRpb246MCI6IntcIm5hbWVcIjpcImZpbHRlcl9ldmVudHNfbG9jYXRpb25cIixcImFyZ3NcIjpcIjEwNDA3MzIxMjk2MzIzNVwifSJ9"
  },
  {
    "id": 4520,
    "name": "Cintheaux",
    "state_id": 14,
    "postal_code": "14680",
    "state_name": "Calvados",
    "query": "https://www.facebook.com/events/search/?q=Gardening&sde=Abq6hpNmijm8kReC4KYmmDP0NuT4IxNliFRnd3vuRZUj8uh4BsVIK3dVq186DripYNQbuwiy5LR0V3y0W_iqLV_W&filters=eyJycF9ldmVudHNfbG9jYXRpb246MCI6IntcIm5hbWVcIjpcImZpbHRlcl9ldmVudHNfbG9jYXRpb25cIixcImFyZ3NcIjpcIjExMzAyMDgyODcxMjk2NFwifSJ9"
  },
  {
    "id": 4521,
    "name": "Clarbec",
    "state_id": 14,
    "postal_code": "14130",
    "state_name": "Calvados",
    "query": "https://www.facebook.com/events/search/?q=Gardening&sde=Abq6hpNmijm8kReC4KYmmDP0NuT4IxNliFRnd3vuRZUj8uh4BsVIK3dVq186DripYNQbuwiy5LR0V3y0W_iqLV_W&filters=eyJycF9ldmVudHNfbG9jYXRpb246MCI6IntcIm5hbWVcIjpcImZpbHRlcl9ldmVudHNfbG9jYXRpb25cIixcImFyZ3NcIjpcIjEwMzc1NTMwMjk5NjMwM1wifSJ9"
  },
  {
    "id": 4522,
    "name": "Clécy",
    "state_id": 14,
    "postal_code": "14570",
    "state_name": "Calvados",
    "query": "https://www.facebook.com/events/search/?q=Gardening&sde=Abq6hpNmijm8kReC4KYmmDP0NuT4IxNliFRnd3vuRZUj8uh4BsVIK3dVq186DripYNQbuwiy5LR0V3y0W_iqLV_W&filters=eyJycF9ldmVudHNfbG9jYXRpb246MCI6IntcIm5hbWVcIjpcImZpbHRlcl9ldmVudHNfbG9jYXRpb25cIixcImFyZ3NcIjpcIjEwNTczNjYwOTQ1OTM0OVwifSJ9"
  },
  {
    "id": 4523,
    "name": "Cléville",
    "state_id": 14,
    "postal_code": "14370",
    "state_name": "Calvados",
    "query": "https://www.facebook.com/events/search/?q=Gardening&sde=Abq6hpNmijm8kReC4KYmmDP0NuT4IxNliFRnd3vuRZUj8uh4BsVIK3dVq186DripYNQbuwiy5LR0V3y0W_iqLV_W&filters=eyJycF9ldmVudHNfbG9jYXRpb246MCI6IntcIm5hbWVcIjpcImZpbHRlcl9ldmVudHNfbG9jYXRpb25cIixcImFyZ3NcIjpcIjExMzEwMzQzMjAzODQ3M1wifSJ9"
  },
  {
    "id": 4524,
    "name": "Colleville-sur-Mer",
    "state_id": 14,
    "postal_code": "14710",
    "state_name": "Calvados",
    "query": "https://www.facebook.com/events/search/?q=Gardening&sde=Abq6hpNmijm8kReC4KYmmDP0NuT4IxNliFRnd3vuRZUj8uh4BsVIK3dVq186DripYNQbuwiy5LR0V3y0W_iqLV_W&filters=eyJycF9ldmVudHNfbG9jYXRpb246MCI6IntcIm5hbWVcIjpcImZpbHRlcl9ldmVudHNfbG9jYXRpb25cIixcImFyZ3NcIjpcIjEwNTU0NjM1NjE0NTEyMFwifSJ9"
  },
  {
    "id": 4525,
    "name": "Colleville-Montgomery",
    "state_id": 14,
    "postal_code": "14880",
    "state_name": "Calvados",
    "query": "https://www.facebook.com/events/search/?q=Gardening&sde=Abq6hpNmijm8kReC4KYmmDP0NuT4IxNliFRnd3vuRZUj8uh4BsVIK3dVq186DripYNQbuwiy5LR0V3y0W_iqLV_W&filters=eyJycF9ldmVudHNfbG9jYXRpb246MCI6IntcIm5hbWVcIjpcImZpbHRlcl9ldmVudHNfbG9jYXRpb25cIixcImFyZ3NcIjpcIjEwODk3MDQ4OTEyNzc3NVwifSJ9"
  },
  {
    "id": 4526,
    "name": "Colombelles",
    "state_id": 14,
    "postal_code": "14460",
    "state_name": "Calvados",
    "query": "https://www.facebook.com/events/search/?q=Gardening&sde=Abq6hpNmijm8kReC4KYmmDP0NuT4IxNliFRnd3vuRZUj8uh4BsVIK3dVq186DripYNQbuwiy5LR0V3y0W_iqLV_W&filters=eyJycF9ldmVudHNfbG9jYXRpb246MCI6IntcIm5hbWVcIjpcImZpbHRlcl9ldmVudHNfbG9jYXRpb25cIixcImFyZ3NcIjpcIjEwODI5OTEwNTg2NTAyN1wifSJ9"
  },
  {
    "id": 4527,
    "name": "Colombières",
    "state_id": 14,
    "postal_code": "14710",
    "state_name": "Calvados",
    "query": "https://www.facebook.com/events/search/?q=Gardening&sde=Abq6hpNmijm8kReC4KYmmDP0NuT4IxNliFRnd3vuRZUj8uh4BsVIK3dVq186DripYNQbuwiy5LR0V3y0W_iqLV_W&filters=eyJycF9ldmVudHNfbG9jYXRpb246MCI6IntcIm5hbWVcIjpcImZpbHRlcl9ldmVudHNfbG9jYXRpb25cIixcImFyZ3NcIjpcIjExMjg0MTA3MjA2MTAwMlwifSJ9"
  },
  {
    "id": 4528,
    "name": "Colombiers-sur-Seulles",
    "state_id": 14,
    "postal_code": "14480",
    "state_name": "Calvados",
    "query": ""
  },
  {
    "id": 4529,
    "name": "Combray",
    "state_id": 14,
    "postal_code": "14220",
    "state_name": "Calvados",
    "query": ""
  },
  {
    "id": 4530,
    "name": "Commes",
    "state_id": 14,
    "postal_code": "14520",
    "state_name": "Calvados",
    "query": "https://www.facebook.com/events/search/?q=Gardening&sde=Abq6hpNmijm8kReC4KYmmDP0NuT4IxNliFRnd3vuRZUj8uh4BsVIK3dVq186DripYNQbuwiy5LR0V3y0W_iqLV_W&filters=eyJycF9ldmVudHNfbG9jYXRpb246MCI6IntcIm5hbWVcIjpcImZpbHRlcl9ldmVudHNfbG9jYXRpb25cIixcImFyZ3NcIjpcIjEwNDAzNTg5OTYzMzA0NlwifSJ9"
  },
  {
    "id": 4531,
    "name": "Condé-sur-Ifs",
    "state_id": 14,
    "postal_code": "14270",
    "state_name": "Calvados",
    "query": "https://www.facebook.com/events/search?q=Gardening&sde=Abq6hpNmijm8kReC4KYmmDP0NuT4IxNliFRnd3vuRZUj8uh4BsVIK3dVq186DripYNQbuwiy5LR0V3y0W_iqLV_W&filters=eyJycF9ldmVudHNfbG9jYXRpb246MCI6IntcIm5hbWVcIjpcImZpbHRlcl9ldmVudHNfbG9jYXRpb25cIixcImFyZ3NcIjpcIjExNDYzMzcwODU0ODE5OFwifSJ9"
  },
  {
    "id": 4532,
    "name": "Condé-en-Normandie",
    "state_id": 14,
    "postal_code": "14110",
    "state_name": "Calvados",
    "query": ""
  },
  {
    "id": 4533,
    "name": "Condé-sur-Seulles",
    "state_id": 14,
    "postal_code": "14400",
    "state_name": "Calvados",
    "query": ""
  },
  {
    "id": 4534,
    "name": "Coquainvilliers",
    "state_id": 14,
    "postal_code": "14130",
    "state_name": "Calvados",
    "query": "https://www.facebook.com/events/search/?q=Gardening&sde=Abq6hpNmijm8kReC4KYmmDP0NuT4IxNliFRnd3vuRZUj8uh4BsVIK3dVq186DripYNQbuwiy5LR0V3y0W_iqLV_W&filters=eyJycF9ldmVudHNfbG9jYXRpb246MCI6IntcIm5hbWVcIjpcImZpbHRlcl9ldmVudHNfbG9jYXRpb25cIixcImFyZ3NcIjpcIjEwMzEzMDkyMzA2MDE4N1wifSJ9"
  },
  {
    "id": 4535,
    "name": "Cordebugle",
    "state_id": 14,
    "postal_code": "14100",
    "state_name": "Calvados",
    "query": ""
  },
  {
    "id": 4536,
    "name": "Cordey",
    "state_id": 14,
    "postal_code": "14700",
    "state_name": "Calvados",
    "query": "https://www.facebook.com/events/search/?q=Gardening&sde=Abq6hpNmijm8kReC4KYmmDP0NuT4IxNliFRnd3vuRZUj8uh4BsVIK3dVq186DripYNQbuwiy5LR0V3y0W_iqLV_W&filters=eyJycF9ldmVudHNfbG9jYXRpb246MCI6IntcIm5hbWVcIjpcImZpbHRlcl9ldmVudHNfbG9jYXRpb25cIixcImFyZ3NcIjpcIjEwNTk0OTc1NjEwMzIyN1wifSJ9"
  },
  {
    "id": 4537,
    "name": "Cormelles-le-Royal",
    "state_id": 14,
    "postal_code": "14123",
    "state_name": "Calvados",
    "query": ""
  },
  {
    "id": 4538,
    "name": "Cormolain",
    "state_id": 14,
    "postal_code": "14240",
    "state_name": "Calvados",
    "query": "https://www.facebook.com/events/search/?q=Gardening&sde=Abq6hpNmijm8kReC4KYmmDP0NuT4IxNliFRnd3vuRZUj8uh4BsVIK3dVq186DripYNQbuwiy5LR0V3y0W_iqLV_W&filters=eyJycF9ldmVudHNfbG9jYXRpb246MCI6IntcIm5hbWVcIjpcImZpbHRlcl9ldmVudHNfbG9jYXRpb25cIixcImFyZ3NcIjpcIjEwNTY4MTA2Mjc5OTU2M1wifSJ9"
  },
  {
    "id": 4539,
    "name": "Cossesseville",
    "state_id": 14,
    "postal_code": "14690",
    "state_name": "Calvados",
    "query": "https://www.facebook.com/events/search/?q=Gardening&sde=Abq6hpNmijm8kReC4KYmmDP0NuT4IxNliFRnd3vuRZUj8uh4BsVIK3dVq186DripYNQbuwiy5LR0V3y0W_iqLV_W&filters=eyJycF9ldmVudHNfbG9jYXRpb246MCI6IntcIm5hbWVcIjpcImZpbHRlcl9ldmVudHNfbG9jYXRpb25cIixcImFyZ3NcIjpcIjEwODM2MjUyNTg1MTMwNFwifSJ9"
  },
  {
    "id": 4540,
    "name": "Cottun",
    "state_id": 14,
    "postal_code": "14400",
    "state_name": "Calvados",
    "query": ""
  },
  {
    "id": 4541,
    "name": "Courcy",
    "state_id": 14,
    "postal_code": "14170",
    "state_name": "Calvados",
    "query": "https://www.facebook.com/events/search/?q=Gardening&sde=Abq6hpNmijm8kReC4KYmmDP0NuT4IxNliFRnd3vuRZUj8uh4BsVIK3dVq186DripYNQbuwiy5LR0V3y0W_iqLV_W&filters=eyJycF9ldmVudHNfbG9jYXRpb246MCI6IntcIm5hbWVcIjpcImZpbHRlcl9ldmVudHNfbG9jYXRpb25cIixcImFyZ3NcIjpcIjExMDUzMjc1NTY0MDU3NlwifSJ9"
  },
  {
    "id": 4542,
    "name": "Courseulles-sur-Mer",
    "state_id": 14,
    "postal_code": "14470",
    "state_name": "Calvados",
    "query": "https://www.facebook.com/events/search/?q=Gardening&sde=Abq6hpNmijm8kReC4KYmmDP0NuT4IxNliFRnd3vuRZUj8uh4BsVIK3dVq186DripYNQbuwiy5LR0V3y0W_iqLV_W&filters=eyJycF9ldmVudHNfbG9jYXRpb246MCI6IntcIm5hbWVcIjpcImZpbHRlcl9ldmVudHNfbG9jYXRpb25cIixcImFyZ3NcIjpcIjEwNDA0NzI3NjI5ODIwNlwifSJ9"
  },
  {
    "id": 4543,
    "name": "Courtonne-la-Meurdrac",
    "state_id": 14,
    "postal_code": "14100",
    "state_name": "Calvados",
    "query": "https://www.facebook.com/events/search/?q=Gardening&sde=Abq6hpNmijm8kReC4KYmmDP0NuT4IxNliFRnd3vuRZUj8uh4BsVIK3dVq186DripYNQbuwiy5LR0V3y0W_iqLV_W&filters=eyJycF9ldmVudHNfbG9jYXRpb246MCI6IntcIm5hbWVcIjpcImZpbHRlcl9ldmVudHNfbG9jYXRpb25cIixcImFyZ3NcIjpcIjEwNzU5Mjc1NTkzNzI5NFwifSJ9"
  },
  {
    "id": 4544,
    "name": "Courtonne-les-Deux-Églises",
    "state_id": 14,
    "postal_code": "14290",
    "state_name": "Calvados",
    "query": ""
  },
  {
    "id": 4545,
    "name": "Courvaudon",
    "state_id": 14,
    "postal_code": "14260",
    "state_name": "Calvados",
    "query": ""
  },
  {
    "id": 4546,
    "name": "Crépon",
    "state_id": 14,
    "postal_code": "14480",
    "state_name": "Calvados",
    "query": "https://www.facebook.com/events/search/?q=Gardening&sde=Abq6hpNmijm8kReC4KYmmDP0NuT4IxNliFRnd3vuRZUj8uh4BsVIK3dVq186DripYNQbuwiy5LR0V3y0W_iqLV_W&filters=eyJycF9ldmVudHNfbG9jYXRpb246MCI6IntcIm5hbWVcIjpcImZpbHRlcl9ldmVudHNfbG9jYXRpb25cIixcImFyZ3NcIjpcIjEwMzcxNzA5NjMzMzg1NVwifSJ9"
  },
  {
    "id": 4547,
    "name": "Cresserons",
    "state_id": 14,
    "postal_code": "14440",
    "state_name": "Calvados",
    "query": "https://www.facebook.com/events/search/?q=Gardening&sde=Abq6hpNmijm8kReC4KYmmDP0NuT4IxNliFRnd3vuRZUj8uh4BsVIK3dVq186DripYNQbuwiy5LR0V3y0W_iqLV_W&filters=eyJycF9ldmVudHNfbG9jYXRpb246MCI6IntcIm5hbWVcIjpcImZpbHRlcl9ldmVudHNfbG9jYXRpb25cIixcImFyZ3NcIjpcIjExMjQ1NzU1ODc2NTczMlwifSJ9"
  },
  {
    "id": 4548,
    "name": "Cresseveuille",
    "state_id": 14,
    "postal_code": "14430",
    "state_name": "Calvados",
    "query": ""
  },
  {
    "id": 4549,
    "name": "Creully sur Seulles",
    "state_id": 14,
    "postal_code": "14480",
    "state_name": "Calvados",
    "query": ""
  },
  {
    "id": 4550,
    "name": "Cricquebœuf",
    "state_id": 14,
    "postal_code": "14113",
    "state_name": "Calvados",
    "query": ""
  },
  {
    "id": 4551,
    "name": "Cricqueville-en-Auge",
    "state_id": 14,
    "postal_code": "14430",
    "state_name": "Calvados",
    "query": "https://www.facebook.com/events/search/?q=Gardening&sde=Abq6hpNmijm8kReC4KYmmDP0NuT4IxNliFRnd3vuRZUj8uh4BsVIK3dVq186DripYNQbuwiy5LR0V3y0W_iqLV_W&filters=eyJycF9ldmVudHNfbG9jYXRpb246MCI6IntcIm5hbWVcIjpcImZpbHRlcl9ldmVudHNfbG9jYXRpb25cIixcImFyZ3NcIjpcIjEwMzcyNjcyOTY2NjMxNFwifSJ9"
  },
  {
    "id": 4552,
    "name": "Cricqueville-en-Bessin",
    "state_id": 14,
    "postal_code": "14450",
    "state_name": "Calvados",
    "query": "https://www.facebook.com/events/search/?q=Gardening&sde=Abq6hpNmijm8kReC4KYmmDP0NuT4IxNliFRnd3vuRZUj8uh4BsVIK3dVq186DripYNQbuwiy5LR0V3y0W_iqLV_W&filters=eyJycF9ldmVudHNfbG9jYXRpb246MCI6IntcIm5hbWVcIjpcImZpbHRlcl9ldmVudHNfbG9jYXRpb25cIixcImFyZ3NcIjpcIjEwNTU3NjU5OTQ3NTQ4NFwifSJ9"
  },
  {
    "id": 4553,
    "name": "Cristot",
    "state_id": 14,
    "postal_code": "14250",
    "state_name": "Calvados",
    "query": ""
  },
  {
    "id": 4554,
    "name": "Crocy",
    "state_id": 14,
    "postal_code": "14620",
    "state_name": "Calvados",
    "query": "https://www.facebook.com/events/search/?q=Gardening&sde=Abq6hpNmijm8kReC4KYmmDP0NuT4IxNliFRnd3vuRZUj8uh4BsVIK3dVq186DripYNQbuwiy5LR0V3y0W_iqLV_W&filters=eyJycF9ldmVudHNfbG9jYXRpb246MCI6IntcIm5hbWVcIjpcImZpbHRlcl9ldmVudHNfbG9jYXRpb25cIixcImFyZ3NcIjpcIjEwODIwMjQwNTg3NDcxM1wifSJ9"
  },
  {
    "id": 4555,
    "name": "Croisilles",
    "state_id": 14,
    "postal_code": "14220",
    "state_name": "Calvados",
    "query": "https://www.facebook.com/events/search/?q=Gardening&sde=Abq6hpNmijm8kReC4KYmmDP0NuT4IxNliFRnd3vuRZUj8uh4BsVIK3dVq186DripYNQbuwiy5LR0V3y0W_iqLV_W&filters=eyJycF9ldmVudHNfbG9jYXRpb246MCI6IntcIm5hbWVcIjpcImZpbHRlcl9ldmVudHNfbG9jYXRpb25cIixcImFyZ3NcIjpcIjEwOTEwNjM4OTExODM2OVwifSJ9"
  },
  {
    "id": 4556,
    "name": "Crouay",
    "state_id": 14,
    "postal_code": "14400",
    "state_name": "Calvados",
    "query": "https://www.facebook.com/events/search/?q=Gardening&sde=Abq6hpNmijm8kReC4KYmmDP0NuT4IxNliFRnd3vuRZUj8uh4BsVIK3dVq186DripYNQbuwiy5LR0V3y0W_iqLV_W&filters=eyJycF9ldmVudHNfbG9jYXRpb246MCI6IntcIm5hbWVcIjpcImZpbHRlcl9ldmVudHNfbG9jYXRpb25cIixcImFyZ3NcIjpcIjExNTk0Njc3MTc1NDEyNlwifSJ9"
  },
  {
    "id": 4557,
    "name": "Culey-le-Patry",
    "state_id": 14,
    "postal_code": "14220",
    "state_name": "Calvados",
    "query": "https://www.facebook.com/events/search?q=Gardening&sde=Abq6hpNmijm8kReC4KYmmDP0NuT4IxNliFRnd3vuRZUj8uh4BsVIK3dVq186DripYNQbuwiy5LR0V3y0W_iqLV_W&filters=eyJycF9ldmVudHNfbG9jYXRpb246MCI6IntcIm5hbWVcIjpcImZpbHRlcl9ldmVudHNfbG9jYXRpb25cIixcImFyZ3NcIjpcIjEwNzM4NjYzMjYzMDA4MVwifSJ9"
  },
  {
    "id": 4558,
    "name": "Cussy",
    "state_id": 14,
    "postal_code": "14400",
    "state_name": "Calvados",
    "query": "https://www.facebook.com/events/search/?q=Gardening&sde=Abq6hpNmijm8kReC4KYmmDP0NuT4IxNliFRnd3vuRZUj8uh4BsVIK3dVq186DripYNQbuwiy5LR0V3y0W_iqLV_W&filters=eyJycF9ldmVudHNfbG9jYXRpb246MCI6IntcIm5hbWVcIjpcImZpbHRlcl9ldmVudHNfbG9jYXRpb25cIixcImFyZ3NcIjpcIjExMDUzNDM4NTYzODc5NlwifSJ9"
  },
  {
    "id": 4559,
    "name": "Cuverville",
    "state_id": 14,
    "postal_code": "14840",
    "state_name": "Calvados",
    "query": "https://www.facebook.com/events/search/?q=Gardening&sde=Abq6hpNmijm8kReC4KYmmDP0NuT4IxNliFRnd3vuRZUj8uh4BsVIK3dVq186DripYNQbuwiy5LR0V3y0W_iqLV_W&filters=eyJycF9ldmVudHNfbG9jYXRpb246MCI6IntcIm5hbWVcIjpcImZpbHRlcl9ldmVudHNfbG9jYXRpb25cIixcImFyZ3NcIjpcIjEwOTAyMTQ4NTc4NzQ3OFwifSJ9"
  },
  {
    "id": 4560,
    "name": "Damblainville",
    "state_id": 14,
    "postal_code": "14620",
    "state_name": "Calvados",
    "query": "https://www.facebook.com/events/search/?q=Gardening&sde=Abq6hpNmijm8kReC4KYmmDP0NuT4IxNliFRnd3vuRZUj8uh4BsVIK3dVq186DripYNQbuwiy5LR0V3y0W_iqLV_W&filters=eyJycF9ldmVudHNfbG9jYXRpb246MCI6IntcIm5hbWVcIjpcImZpbHRlcl9ldmVudHNfbG9jYXRpb25cIixcImFyZ3NcIjpcIjExMDg1Nzk3ODkzNzY5N1wifSJ9"
  },
  {
    "id": 4561,
    "name": "Danestal",
    "state_id": 14,
    "postal_code": "14430",
    "state_name": "Calvados",
    "query": "https://www.facebook.com/events/search/?q=Gardening&sde=Abq6hpNmijm8kReC4KYmmDP0NuT4IxNliFRnd3vuRZUj8uh4BsVIK3dVq186DripYNQbuwiy5LR0V3y0W_iqLV_W&__epa__=FILTERS&__eps__=EVENTS_DASHBOARD&filters=eyJycF9ldmVudHNfbG9jYXRpb246MCI6IntcIm5hbWVcIjpcImZpbHRlcl9ldmVudHNfbG9jYXRpb25cIixcImFyZ3NcIjpcIjExMTQwMjM2MjIxMzk2OVwifSJ9"
  },
  {
    "id": 4562,
    "name": "Deauville",
    "state_id": 14,
    "postal_code": "14800",
    "state_name": "Calvados",
    "query": "https://www.facebook.com/events/search/?q=Gardening&sde=Abq6hpNmijm8kReC4KYmmDP0NuT4IxNliFRnd3vuRZUj8uh4BsVIK3dVq186DripYNQbuwiy5LR0V3y0W_iqLV_W&filters=eyJycF9ldmVudHNfbG9jYXRpb246MCI6IntcIm5hbWVcIjpcImZpbHRlcl9ldmVudHNfbG9jYXRpb25cIixcImFyZ3NcIjpcIjEwODc3NTQ4MjQ4NTkxM1wifSJ9"
  },
  {
    "id": 4563,
    "name": "Démouville",
    "state_id": 14,
    "postal_code": "14840",
    "state_name": "Calvados",
    "query": "https://www.facebook.com/events/search/?q=Gardening&sde=Abq6hpNmijm8kReC4KYmmDP0NuT4IxNliFRnd3vuRZUj8uh4BsVIK3dVq186DripYNQbuwiy5LR0V3y0W_iqLV_W&filters=eyJycF9ldmVudHNfbG9jYXRpb246MCI6IntcIm5hbWVcIjpcImZpbHRlcl9ldmVudHNfbG9jYXRpb25cIixcImFyZ3NcIjpcIjExMTY2OTQ0NTUyMTM2M1wifSJ9"
  },
  {
    "id": 4564,
    "name": "Le Détroit",
    "state_id": 14,
    "postal_code": "14690",
    "state_name": "Calvados",
    "query": ""
  },
  {
    "id": 4565,
    "name": "Deux-Jumeaux",
    "state_id": 14,
    "postal_code": "14230",
    "state_name": "Calvados",
    "query": "https://www.facebook.com/events/search/?q=Gardening&sde=Abq6hpNmijm8kReC4KYmmDP0NuT4IxNliFRnd3vuRZUj8uh4BsVIK3dVq186DripYNQbuwiy5LR0V3y0W_iqLV_W&filters=eyJycF9ldmVudHNfbG9jYXRpb246MCI6IntcIm5hbWVcIjpcImZpbHRlcl9ldmVudHNfbG9jYXRpb25cIixcImFyZ3NcIjpcIjEwMzc0NTEzNjMzMTMyM1wifSJ9"
  },
  {
    "id": 4566,
    "name": "Dives-sur-Mer",
    "state_id": 14,
    "postal_code": "14160",
    "state_name": "Calvados",
    "query": "https://www.facebook.com/events/search/?q=Gardening&sde=Abq6hpNmijm8kReC4KYmmDP0NuT4IxNliFRnd3vuRZUj8uh4BsVIK3dVq186DripYNQbuwiy5LR0V3y0W_iqLV_W&filters=eyJycF9ldmVudHNfbG9jYXRpb246MCI6IntcIm5hbWVcIjpcImZpbHRlcl9ldmVudHNfbG9jYXRpb25cIixcImFyZ3NcIjpcIjExNzI2NDk2MTYyMDM1OVwifSJ9"
  },
  {
    "id": 4567,
    "name": "Donnay",
    "state_id": 14,
    "postal_code": "14220",
    "state_name": "Calvados",
    "query": "https://www.facebook.com/events/search/?q=Gardening&sde=Abq6hpNmijm8kReC4KYmmDP0NuT4IxNliFRnd3vuRZUj8uh4BsVIK3dVq186DripYNQbuwiy5LR0V3y0W_iqLV_W&filters=eyJycF9ldmVudHNfbG9jYXRpb246MCI6IntcIm5hbWVcIjpcImZpbHRlcl9ldmVudHNfbG9jYXRpb25cIixcImFyZ3NcIjpcIjEwNzEwNDI1NTk5NTY0NlwifSJ9"
  },
  {
    "id": 4568,
    "name": "Douville-en-Auge",
    "state_id": 14,
    "postal_code": "14430",
    "state_name": "Calvados",
    "query": "https://www.facebook.com/events/search/?q=Gardening&sde=Abq6hpNmijm8kReC4KYmmDP0NuT4IxNliFRnd3vuRZUj8uh4BsVIK3dVq186DripYNQbuwiy5LR0V3y0W_iqLV_W&filters=eyJycF9ldmVudHNfbG9jYXRpb246MCI6IntcIm5hbWVcIjpcImZpbHRlcl9ldmVudHNfbG9jYXRpb25cIixcImFyZ3NcIjpcIjExMTcyNDA4NTUxOTI0M1wifSJ9"
  },
  {
    "id": 4569,
    "name": "Douvres-la-Délivrande",
    "state_id": 14,
    "postal_code": "14440",
    "state_name": "Calvados",
    "query": "https://www.facebook.com/events/search/?q=Gardening&sde=Abq6hpNmijm8kReC4KYmmDP0NuT4IxNliFRnd3vuRZUj8uh4BsVIK3dVq186DripYNQbuwiy5LR0V3y0W_iqLV_W&filters=eyJycF9ldmVudHNfbG9jYXRpb246MCI6IntcIm5hbWVcIjpcImZpbHRlcl9ldmVudHNfbG9jYXRpb25cIixcImFyZ3NcIjpcIjExNjQ2MzcxMTY5OTkwMlwifSJ9"
  },
  {
    "id": 4570,
    "name": "Dozulé",
    "state_id": 14,
    "postal_code": "14430",
    "state_name": "Calvados",
    "query": "https://www.facebook.com/events/search/?q=Gardening&sde=Abq6hpNmijm8kReC4KYmmDP0NuT4IxNliFRnd3vuRZUj8uh4BsVIK3dVq186DripYNQbuwiy5LR0V3y0W_iqLV_W&filters=eyJycF9ldmVudHNfbG9jYXRpb246MCI6IntcIm5hbWVcIjpcImZpbHRlcl9ldmVudHNfbG9jYXRpb25cIixcImFyZ3NcIjpcIjEwNzIyMDAyOTMxNzIxM1wifSJ9"
  },
  {
    "id": 4571,
    "name": "Drubec",
    "state_id": 14,
    "postal_code": "14130",
    "state_name": "Calvados",
    "query": ""
  },
  {
    "id": 4572,
    "name": "Beaufour-Druval",
    "state_id": 14,
    "postal_code": "14340",
    "state_name": "Calvados",
    "query": ""
  },
  {
    "id": 4573,
    "name": "Ducy-Sainte-Marguerite",
    "state_id": 14,
    "postal_code": "14250",
    "state_name": "Calvados",
    "query": ""
  },
  {
    "id": 4574,
    "name": "Ellon",
    "state_id": 14,
    "postal_code": "14250",
    "state_name": "Calvados",
    "query": "https://www.facebook.com/events/search/?q=Gardening&sde=Abq6hpNmijm8kReC4KYmmDP0NuT4IxNliFRnd3vuRZUj8uh4BsVIK3dVq186DripYNQbuwiy5LR0V3y0W_iqLV_W&filters=eyJycF9ldmVudHNfbG9jYXRpb246MCI6IntcIm5hbWVcIjpcImZpbHRlcl9ldmVudHNfbG9jYXRpb25cIixcImFyZ3NcIjpcIjExNTU5NjEyODQ1MjM4MVwifSJ9"
  },
  {
    "id": 4575,
    "name": "Émiéville",
    "state_id": 14,
    "postal_code": "14630",
    "state_name": "Calvados",
    "query": "https://www.facebook.com/events/search/?q=Gardening&sde=Abq6hpNmijm8kReC4KYmmDP0NuT4IxNliFRnd3vuRZUj8uh4BsVIK3dVq186DripYNQbuwiy5LR0V3y0W_iqLV_W&filters=eyJycF9ldmVudHNfbG9jYXRpb246MCI6IntcIm5hbWVcIjpcImZpbHRlcl9ldmVudHNfbG9jYXRpb25cIixcImFyZ3NcIjpcIjExMjI2NzA0NTQ2NDUxNFwifSJ9"
  },
  {
    "id": 4576,
    "name": "Englesqueville-en-Auge",
    "state_id": 14,
    "postal_code": "14800",
    "state_name": "Calvados",
    "query": ""
  },
  {
    "id": 4577,
    "name": "Englesqueville-la-Percée",
    "state_id": 14,
    "postal_code": "14710",
    "state_name": "Calvados",
    "query": ""
  },
  {
    "id": 4578,
    "name": "Épaney",
    "state_id": 14,
    "postal_code": "14170",
    "state_name": "Calvados",
    "query": "https://www.facebook.com/events/search/?q=Gardening&sde=Abq6hpNmijm8kReC4KYmmDP0NuT4IxNliFRnd3vuRZUj8uh4BsVIK3dVq186DripYNQbuwiy5LR0V3y0W_iqLV_W&filters=eyJycF9ldmVudHNfbG9jYXRpb246MCI6IntcIm5hbWVcIjpcImZpbHRlcl9ldmVudHNfbG9jYXRpb25cIixcImFyZ3NcIjpcIjExNTc2MTc5MTc3MDI5NVwifSJ9"
  },
  {
    "id": 4579,
    "name": "Épinay-sur-Odon",
    "state_id": 14,
    "postal_code": "14310",
    "state_name": "Calvados",
    "query": "https://www.facebook.com/events/search/?q=Gardening&sde=Abq6hpNmijm8kReC4KYmmDP0NuT4IxNliFRnd3vuRZUj8uh4BsVIK3dVq186DripYNQbuwiy5LR0V3y0W_iqLV_W&filters=eyJycF9ldmVudHNfbG9jYXRpb246MCI6IntcIm5hbWVcIjpcImZpbHRlcl9ldmVudHNfbG9jYXRpb25cIixcImFyZ3NcIjpcIjExMzMzMjY5ODY5MzQxOVwifSJ9"
  },
  {
    "id": 4580,
    "name": "Épron",
    "state_id": 14,
    "postal_code": "14610",
    "state_name": "Calvados",
    "query": "https://www.facebook.com/events/search?q=Gardening&sde=Abq6hpNmijm8kReC4KYmmDP0NuT4IxNliFRnd3vuRZUj8uh4BsVIK3dVq186DripYNQbuwiy5LR0V3y0W_iqLV_W&filters=eyJycF9ldmVudHNfbG9jYXRpb246MCI6IntcIm5hbWVcIjpcImZpbHRlcl9ldmVudHNfbG9jYXRpb25cIixcImFyZ3NcIjpcIjExNTM5MDU3NTE0MDU5N1wifSJ9"
  },
  {
    "id": 4581,
    "name": "Équemauville",
    "state_id": 14,
    "postal_code": "14600",
    "state_name": "Calvados",
    "query": "https://www.facebook.com/events/search/?q=Gardening&sde=Abq6hpNmijm8kReC4KYmmDP0NuT4IxNliFRnd3vuRZUj8uh4BsVIK3dVq186DripYNQbuwiy5LR0V3y0W_iqLV_W&filters=eyJycF9ldmVudHNfbG9jYXRpb246MCI6IntcIm5hbWVcIjpcImZpbHRlcl9ldmVudHNfbG9jYXRpb25cIixcImFyZ3NcIjpcIjEwMzMzMzk4MzA0MTA2N1wifSJ9"
  },
  {
    "id": 4582,
    "name": "Eraines",
    "state_id": 14,
    "postal_code": "14700",
    "state_name": "Calvados",
    "query": ""
  },
  {
    "id": 4583,
    "name": "Ernes",
    "state_id": 14,
    "postal_code": "14270",
    "state_name": "Calvados",
    "query": ""
  },
  {
    "id": 4584,
    "name": "Escoville",
    "state_id": 14,
    "postal_code": "14850",
    "state_name": "Calvados",
    "query": "https://www.facebook.com/events/search/?q=Gardening&sde=Abq6hpNmijm8kReC4KYmmDP0NuT4IxNliFRnd3vuRZUj8uh4BsVIK3dVq186DripYNQbuwiy5LR0V3y0W_iqLV_W&filters=eyJycF9ldmVudHNfbG9jYXRpb246MCI6IntcIm5hbWVcIjpcImZpbHRlcl9ldmVudHNfbG9jYXRpb25cIixcImFyZ3NcIjpcIjExMTU1OTQyMjIwNTU5MlwifSJ9"
  },
  {
    "id": 4585,
    "name": "Espins",
    "state_id": 14,
    "postal_code": "14220",
    "state_name": "Calvados",
    "query": ""
  },
  {
    "id": 4586,
    "name": "Esquay-Notre-Dame",
    "state_id": 14,
    "postal_code": "14210",
    "state_name": "Calvados",
    "query": "https://www.facebook.com/events/search/?q=Gardening&sde=Abq6hpNmijm8kReC4KYmmDP0NuT4IxNliFRnd3vuRZUj8uh4BsVIK3dVq186DripYNQbuwiy5LR0V3y0W_iqLV_W&filters=eyJycF9ldmVudHNfbG9jYXRpb246MCI6IntcIm5hbWVcIjpcImZpbHRlcl9ldmVudHNfbG9jYXRpb25cIixcImFyZ3NcIjpcIjEwMzQ4MDI0MzAxNzU1N1wifSJ9"
  },
  {
    "id": 4587,
    "name": "Esquay-sur-Seulles",
    "state_id": 14,
    "postal_code": "14400",
    "state_name": "Calvados",
    "query": "https://www.facebook.com/events/search/?q=Gardening&sde=Abq6hpNmijm8kReC4KYmmDP0NuT4IxNliFRnd3vuRZUj8uh4BsVIK3dVq186DripYNQbuwiy5LR0V3y0W_iqLV_W&filters=eyJycF9ldmVudHNfbG9jYXRpb246MCI6IntcIm5hbWVcIjpcImZpbHRlcl9ldmVudHNfbG9jYXRpb25cIixcImFyZ3NcIjpcIjExMzA0NjAwMjA1NTkzMlwifSJ9"
  },
  {
    "id": 4588,
    "name": "Esson",
    "state_id": 14,
    "postal_code": "14220",
    "state_name": "Calvados",
    "query": ""
  },
  {
    "id": 4589,
    "name": "Estrées-la-Campagne",
    "state_id": 14,
    "postal_code": "14190",
    "state_name": "Calvados",
    "query": "https://www.facebook.com/events/search/?q=Gardening&sde=Abq6hpNmijm8kReC4KYmmDP0NuT4IxNliFRnd3vuRZUj8uh4BsVIK3dVq186DripYNQbuwiy5LR0V3y0W_iqLV_W&filters=eyJycF9ldmVudHNfbG9jYXRpb246MCI6IntcIm5hbWVcIjpcImZpbHRlcl9ldmVudHNfbG9jYXRpb25cIixcImFyZ3NcIjpcIjExMTc2ODQzNTUxMTAyNFwifSJ9"
  },
  {
    "id": 4590,
    "name": "Éterville",
    "state_id": 14,
    "postal_code": "14930",
    "state_name": "Calvados",
    "query": "https://www.facebook.com/events/search/?q=Gardening&sde=Abq6hpNmijm8kReC4KYmmDP0NuT4IxNliFRnd3vuRZUj8uh4BsVIK3dVq186DripYNQbuwiy5LR0V3y0W_iqLV_W&filters=eyJycF9ldmVudHNfbG9jYXRpb246MCI6IntcIm5hbWVcIjpcImZpbHRlcl9ldmVudHNfbG9jYXRpb25cIixcImFyZ3NcIjpcIjExMTc2MDIyODg0ODE3MlwifSJ9"
  },
  {
    "id": 4591,
    "name": "Étréham",
    "state_id": 14,
    "postal_code": "14400",
    "state_name": "Calvados",
    "query": "https://www.facebook.com/events/search/?q=Gardening&sde=Abq6hpNmijm8kReC4KYmmDP0NuT4IxNliFRnd3vuRZUj8uh4BsVIK3dVq186DripYNQbuwiy5LR0V3y0W_iqLV_W&filters=eyJycF9ldmVudHNfbG9jYXRpb246MCI6IntcIm5hbWVcIjpcImZpbHRlcl9ldmVudHNfbG9jYXRpb25cIixcImFyZ3NcIjpcIjExMzY3NjQwODY0MzYyNVwifSJ9"
  },
  {
    "id": 4592,
    "name": "Évrecy",
    "state_id": 14,
    "postal_code": "14210",
    "state_name": "Calvados",
    "query": "https://www.facebook.com/events/search/?q=Gardening&sde=Abq6hpNmijm8kReC4KYmmDP0NuT4IxNliFRnd3vuRZUj8uh4BsVIK3dVq186DripYNQbuwiy5LR0V3y0W_iqLV_W&filters=eyJycF9ldmVudHNfbG9jYXRpb246MCI6IntcIm5hbWVcIjpcImZpbHRlcl9ldmVudHNfbG9jYXRpb25cIixcImFyZ3NcIjpcIjEwMzM0OTk5MzA0MDU5NFwifSJ9"
  },
  {
    "id": 4593,
    "name": "Falaise",
    "state_id": 14,
    "postal_code": "14700",
    "state_name": "Calvados",
    "query": "https://www.facebook.com/events/search/?q=Gardening&sde=Abq6hpNmijm8kReC4KYmmDP0NuT4IxNliFRnd3vuRZUj8uh4BsVIK3dVq186DripYNQbuwiy5LR0V3y0W_iqLV_W&filters=eyJycF9ldmVudHNfbG9jYXRpb246MCI6IntcIm5hbWVcIjpcImZpbHRlcl9ldmVudHNfbG9jYXRpb25cIixcImFyZ3NcIjpcIjExMzkwNjQ4MTk1NzE1NlwifSJ9"
  },
  {
    "id": 4594,
    "name": "Fauguernon",
    "state_id": 14,
    "postal_code": "14100",
    "state_name": "Calvados",
    "query": "https://www.facebook.com/events/search/?q=Gardening&sde=Abq6hpNmijm8kReC4KYmmDP0NuT4IxNliFRnd3vuRZUj8uh4BsVIK3dVq186DripYNQbuwiy5LR0V3y0W_iqLV_W&filters=eyJycF9ldmVudHNfbG9jYXRpb246MCI6IntcIm5hbWVcIjpcImZpbHRlcl9ldmVudHNfbG9jYXRpb25cIixcImFyZ3NcIjpcIjExMTUwMjExNTUzNzU5NFwifSJ9"
  },
  {
    "id": 4595,
    "name": "Le Faulq",
    "state_id": 14,
    "postal_code": "14130",
    "state_name": "Calvados",
    "query": ""
  },
  {
    "id": 4596,
    "name": "Feuguerolles-Bully",
    "state_id": 14,
    "postal_code": "14320",
    "state_name": "Calvados",
    "query": ""
  },
  {
    "id": 4597,
    "name": "Fierville-les-Parcs",
    "state_id": 14,
    "postal_code": "14130",
    "state_name": "Calvados",
    "query": "https://www.facebook.com/events/search/?q=Gardening&sde=Abq6hpNmijm8kReC4KYmmDP0NuT4IxNliFRnd3vuRZUj8uh4BsVIK3dVq186DripYNQbuwiy5LR0V3y0W_iqLV_W&filters=eyJycF9ldmVudHNfbG9jYXRpb246MCI6IntcIm5hbWVcIjpcImZpbHRlcl9ldmVudHNfbG9jYXRpb25cIixcImFyZ3NcIjpcIjExMjk2MDE0NTM4OTE0NlwifSJ9"
  },
  {
    "id": 4598,
    "name": "Firfol",
    "state_id": 14,
    "postal_code": "14100",
    "state_name": "Calvados",
    "query": "https://www.facebook.com/events/search/?q=Gardening&sde=Abq6hpNmijm8kReC4KYmmDP0NuT4IxNliFRnd3vuRZUj8uh4BsVIK3dVq186DripYNQbuwiy5LR0V3y0W_iqLV_W&filters=eyJycF9ldmVudHNfbG9jYXRpb246MCI6IntcIm5hbWVcIjpcImZpbHRlcl9ldmVudHNfbG9jYXRpb25cIixcImFyZ3NcIjpcIjExNjI2ODMwNTA1NDE2NVwifSJ9"
  },
  {
    "id": 4599,
    "name": "Fleury-sur-Orne",
    "state_id": 14,
    "postal_code": "14123",
    "state_name": "Calvados",
    "query": "https://www.facebook.com/events/search/?q=Gardening&sde=Abq6hpNmijm8kReC4KYmmDP0NuT4IxNliFRnd3vuRZUj8uh4BsVIK3dVq186DripYNQbuwiy5LR0V3y0W_iqLV_W&filters=eyJycF9ldmVudHNfbG9jYXRpb246MCI6IntcIm5hbWVcIjpcImZpbHRlcl9ldmVudHNfbG9jYXRpb25cIixcImFyZ3NcIjpcIjExMzI0MDU1NTM2MDU4NlwifSJ9"
  },
  {
    "id": 4600,
    "name": "La Folie",
    "state_id": 14,
    "postal_code": "14710",
    "state_name": "Calvados",
    "query": ""
  },
  {
    "id": 4601,
    "name": "La Folletière-Abenon",
    "state_id": 14,
    "postal_code": "14290",
    "state_name": "Calvados",
    "query": ""
  },
  {
    "id": 4602,
    "name": "Fontaine-Étoupefour",
    "state_id": 14,
    "postal_code": "14790",
    "state_name": "Calvados",
    "query": "https://www.facebook.com/events/search/?q=Gardening&sde=Abq6hpNmijm8kReC4KYmmDP0NuT4IxNliFRnd3vuRZUj8uh4BsVIK3dVq186DripYNQbuwiy5LR0V3y0W_iqLV_W&filters=eyJycF9ldmVudHNfbG9jYXRpb246MCI6IntcIm5hbWVcIjpcImZpbHRlcl9ldmVudHNfbG9jYXRpb25cIixcImFyZ3NcIjpcIjExMTUwODM4ODg2OTczNVwifSJ9"
  },
  {
    "id": 4603,
    "name": "Fontaine-Henry",
    "state_id": 14,
    "postal_code": "14610",
    "state_name": "Calvados",
    "query": "https://www.facebook.com/events/search/?q=Gardening&sde=Abq6hpNmijm8kReC4KYmmDP0NuT4IxNliFRnd3vuRZUj8uh4BsVIK3dVq186DripYNQbuwiy5LR0V3y0W_iqLV_W&filters=eyJycF9ldmVudHNfbG9jYXRpb246MCI6IntcIm5hbWVcIjpcImZpbHRlcl9ldmVudHNfbG9jYXRpb25cIixcImFyZ3NcIjpcIjExMTQ1Mzc5ODg3NjU1M1wifSJ9"
  },
  {
    "id": 4604,
    "name": "Fontaine-le-Pin",
    "state_id": 14,
    "postal_code": "14190",
    "state_name": "Calvados",
    "query": "https://www.facebook.com/events/search/?q=Gardening&sde=Abq6hpNmijm8kReC4KYmmDP0NuT4IxNliFRnd3vuRZUj8uh4BsVIK3dVq186DripYNQbuwiy5LR0V3y0W_iqLV_W&filters=eyJycF9ldmVudHNfbG9jYXRpb246MCI6IntcIm5hbWVcIjpcImZpbHRlcl9ldmVudHNfbG9jYXRpb25cIixcImFyZ3NcIjpcIjEwMzM1MjkzOTcwNzIxNFwifSJ9"
  },
  {
    "id": 4605,
    "name": "Fontenay-le-Marmion",
    "state_id": 14,
    "postal_code": "14320",
    "state_name": "Calvados",
    "query": "https://www.facebook.com/events/search/?q=Gardening&sde=Abq6hpNmijm8kReC4KYmmDP0NuT4IxNliFRnd3vuRZUj8uh4BsVIK3dVq186DripYNQbuwiy5LR0V3y0W_iqLV_W&filters=eyJycF9ldmVudHNfbG9jYXRpb246MCI6IntcIm5hbWVcIjpcImZpbHRlcl9ldmVudHNfbG9jYXRpb25cIixcImFyZ3NcIjpcIjExMjk1OTY5NTM4ODk5M1wifSJ9"
  },
  {
    "id": 4606,
    "name": "Fontenay-le-Pesnel",
    "state_id": 14,
    "postal_code": "14250",
    "state_name": "Calvados",
    "query": "https://www.facebook.com/events/search/?q=Gardening&sde=Abq6hpNmijm8kReC4KYmmDP0NuT4IxNliFRnd3vuRZUj8uh4BsVIK3dVq186DripYNQbuwiy5LR0V3y0W_iqLV_W&filters=eyJycF9ldmVudHNfbG9jYXRpb246MCI6IntcIm5hbWVcIjpcImZpbHRlcl9ldmVudHNfbG9jYXRpb25cIixcImFyZ3NcIjpcIjExNjA0MTgxNTA3MzUyM1wifSJ9"
  },
  {
    "id": 4607,
    "name": "Formentin",
    "state_id": 14,
    "postal_code": "14340",
    "state_name": "Calvados",
    "query": ""
  },
  {
    "id": 4608,
    "name": "Formigny La Bataille",
    "state_id": 14,
    "postal_code": "14710",
    "state_name": "Calvados",
    "query": ""
  },
  {
    "id": 4609,
    "name": "Foulognes",
    "state_id": 14,
    "postal_code": "14240",
    "state_name": "Calvados",
    "query": ""
  },
  {
    "id": 4610,
    "name": "Fourches",
    "state_id": 14,
    "postal_code": "14620",
    "state_name": "Calvados",
    "query": "https://www.facebook.com/events/search/?q=Gardening&sde=Abq6hpNmijm8kReC4KYmmDP0NuT4IxNliFRnd3vuRZUj8uh4BsVIK3dVq186DripYNQbuwiy5LR0V3y0W_iqLV_W&filters=eyJycF9ldmVudHNfbG9jYXRpb246MCI6IntcIm5hbWVcIjpcImZpbHRlcl9ldmVudHNfbG9jYXRpb25cIixcImFyZ3NcIjpcIjEwOTM1NzM0NTc0OTA4MVwifSJ9"
  },
  {
    "id": 4611,
    "name": "Fourneaux-le-Val",
    "state_id": 14,
    "postal_code": "14700",
    "state_name": "Calvados",
    "query": ""
  },
  {
    "id": 4612,
    "name": "Le Fournet",
    "state_id": 14,
    "postal_code": "14340",
    "state_name": "Calvados",
    "query": ""
  },
  {
    "id": 4613,
    "name": "Fourneville",
    "state_id": 14,
    "postal_code": "14600",
    "state_name": "Calvados",
    "query": "https://www.facebook.com/events/search/?q=Gardening&sde=Abq6hpNmijm8kReC4KYmmDP0NuT4IxNliFRnd3vuRZUj8uh4BsVIK3dVq186DripYNQbuwiy5LR0V3y0W_iqLV_W&filters=eyJycF9ldmVudHNfbG9jYXRpb246MCI6IntcIm5hbWVcIjpcImZpbHRlcl9ldmVudHNfbG9jYXRpb25cIixcImFyZ3NcIjpcIjExMzAyNzQzNTM4MzEzMFwifSJ9"
  },
  {
    "id": 4614,
    "name": "Frénouville",
    "state_id": 14,
    "postal_code": "14630",
    "state_name": "Calvados",
    "query": ""
  },
  {
    "id": 4615,
    "name": "Le Fresne-Camilly",
    "state_id": 14,
    "postal_code": "14480",
    "state_name": "Calvados",
    "query": "https://www.facebook.com/events/search/?q=Gardening&sde=Abq6hpNmijm8kReC4KYmmDP0NuT4IxNliFRnd3vuRZUj8uh4BsVIK3dVq186DripYNQbuwiy5LR0V3y0W_iqLV_W&filters=eyJycF9ldmVudHNfbG9jYXRpb246MCI6IntcIm5hbWVcIjpcImZpbHRlcl9ldmVudHNfbG9jYXRpb25cIixcImFyZ3NcIjpcIjExMTYwNzg0MjIwMDg3MFwifSJ9"
  },
  {
    "id": 4616,
    "name": "Fresné-la-Mère",
    "state_id": 14,
    "postal_code": "14700",
    "state_name": "Calvados",
    "query": "https://www.facebook.com/events/search/?q=Gardening&sde=Abq6hpNmijm8kReC4KYmmDP0NuT4IxNliFRnd3vuRZUj8uh4BsVIK3dVq186DripYNQbuwiy5LR0V3y0W_iqLV_W&filters=eyJycF9ldmVudHNfbG9jYXRpb246MCI6IntcIm5hbWVcIjpcImZpbHRlcl9ldmVudHNfbG9jYXRpb25cIixcImFyZ3NcIjpcIjEwOTAzOTM2NTc5NzAzNlwifSJ9"
  },
  {
    "id": 4617,
    "name": "Fresney-le-Puceux",
    "state_id": 14,
    "postal_code": "14680",
    "state_name": "Calvados",
    "query": "https://www.facebook.com/events/search/?q=Gardening&sde=Abq6hpNmijm8kReC4KYmmDP0NuT4IxNliFRnd3vuRZUj8uh4BsVIK3dVq186DripYNQbuwiy5LR0V3y0W_iqLV_W&filters=eyJycF9ldmVudHNfbG9jYXRpb246MCI6IntcIm5hbWVcIjpcImZpbHRlcl9ldmVudHNfbG9jYXRpb25cIixcImFyZ3NcIjpcIjExNjA1ODM1NTA3NjkwMVwifSJ9"
  },
  {
    "id": 4618,
    "name": "Fresney-le-Vieux",
    "state_id": 14,
    "postal_code": "14220",
    "state_name": "Calvados",
    "query": ""
  },
  {
    "id": 4619,
    "name": "Fumichon",
    "state_id": 14,
    "postal_code": "14590",
    "state_name": "Calvados",
    "query": "https://www.facebook.com/events/search/?q=Gardening&sde=Abq6hpNmijm8kReC4KYmmDP0NuT4IxNliFRnd3vuRZUj8uh4BsVIK3dVq186DripYNQbuwiy5LR0V3y0W_iqLV_W&filters=eyJycF9ldmVudHNfbG9jYXRpb246MCI6IntcIm5hbWVcIjpcImZpbHRlcl9ldmVudHNfbG9jYXRpb25cIixcImFyZ3NcIjpcIjExMjc2MTA2ODc1MDU1M1wifSJ9"
  },
  {
    "id": 4620,
    "name": "Gavrus",
    "state_id": 14,
    "postal_code": "14210",
    "state_name": "Calvados",
    "query": "https://www.facebook.com/events/search/?q=Gardening&sde=Abq6hpNmijm8kReC4KYmmDP0NuT4IxNliFRnd3vuRZUj8uh4BsVIK3dVq186DripYNQbuwiy5LR0V3y0W_iqLV_W&filters=eyJycF9ldmVudHNfbG9jYXRpb246MCI6IntcIm5hbWVcIjpcImZpbHRlcl9ldmVudHNfbG9jYXRpb25cIixcImFyZ3NcIjpcIjExMTMzMjEzNTU2MTg2NlwifSJ9"
  },
  {
    "id": 4621,
    "name": "Géfosse-Fontenay",
    "state_id": 14,
    "postal_code": "14230",
    "state_name": "Calvados",
    "query": "https://www.facebook.com/events/search/?q=Gardening&sde=Abq6hpNmijm8kReC4KYmmDP0NuT4IxNliFRnd3vuRZUj8uh4BsVIK3dVq186DripYNQbuwiy5LR0V3y0W_iqLV_W&filters=eyJycF9ldmVudHNfbG9jYXRpb246MCI6IntcIm5hbWVcIjpcImZpbHRlcl9ldmVudHNfbG9jYXRpb25cIixcImFyZ3NcIjpcIjExMjg2MjE4ODczMjk5NVwifSJ9"
  },
  {
    "id": 4622,
    "name": "Genneville",
    "state_id": 14,
    "postal_code": "14600",
    "state_name": "Calvados",
    "query": "https://www.facebook.com/events/search/?q=Gardening&sde=Abq6hpNmijm8kReC4KYmmDP0NuT4IxNliFRnd3vuRZUj8uh4BsVIK3dVq186DripYNQbuwiy5LR0V3y0W_iqLV_W&filters=eyJycF9ldmVudHNfbG9jYXRpb246MCI6IntcIm5hbWVcIjpcImZpbHRlcl9ldmVudHNfbG9jYXRpb25cIixcImFyZ3NcIjpcIjExMDI5MzQ4NTY1NzEyNlwifSJ9"
  },
  {
    "id": 4623,
    "name": "Gerrots",
    "state_id": 14,
    "postal_code": "14430",
    "state_name": "Calvados",
    "query": ""
  },
  {
    "id": 4624,
    "name": "Giberville",
    "state_id": 14,
    "postal_code": "14730",
    "state_name": "Calvados",
    "query": "https://www.facebook.com/events/search/?q=Gardening&sde=Abq6hpNmijm8kReC4KYmmDP0NuT4IxNliFRnd3vuRZUj8uh4BsVIK3dVq186DripYNQbuwiy5LR0V3y0W_iqLV_W&filters=eyJycF9ldmVudHNfbG9jYXRpb246MCI6IntcIm5hbWVcIjpcImZpbHRlcl9ldmVudHNfbG9jYXRpb25cIixcImFyZ3NcIjpcIjExMDkwODEyNTU5Njc5MFwifSJ9"
  },
  {
    "id": 4625,
    "name": "Glanville",
    "state_id": 14,
    "postal_code": "14950",
    "state_name": "Calvados",
    "query": "https://www.facebook.com/events/search/?q=Gardening&sde=Abq6hpNmijm8kReC4KYmmDP0NuT4IxNliFRnd3vuRZUj8uh4BsVIK3dVq186DripYNQbuwiy5LR0V3y0W_iqLV_W&filters=eyJycF9ldmVudHNfbG9jYXRpb246MCI6IntcIm5hbWVcIjpcImZpbHRlcl9ldmVudHNfbG9jYXRpb25cIixcImFyZ3NcIjpcIjEwOTY4MDk4OTA1NjUzMVwifSJ9"
  },
  {
    "id": 4626,
    "name": "Glos",
    "state_id": 14,
    "postal_code": "14100",
    "state_name": "Calvados",
    "query": ""
  },
  {
    "id": 4627,
    "name": "Gonneville-sur-Honfleur",
    "state_id": 14,
    "postal_code": "14600",
    "state_name": "Calvados",
    "query": "https://www.facebook.com/events/search/?q=Gardening&sde=Abq6hpNmijm8kReC4KYmmDP0NuT4IxNliFRnd3vuRZUj8uh4BsVIK3dVq186DripYNQbuwiy5LR0V3y0W_iqLV_W&filters=eyJycF9ldmVudHNfbG9jYXRpb246MCI6IntcIm5hbWVcIjpcImZpbHRlcl9ldmVudHNfbG9jYXRpb25cIixcImFyZ3NcIjpcIjExNjI3MDQwMTcxNzY1M1wifSJ9"
  },
  {
    "id": 4628,
    "name": "Gonneville-sur-Mer",
    "state_id": 14,
    "postal_code": "14510",
    "state_name": "Calvados",
    "query": "https://www.facebook.com/events/search/?q=Gardening&sde=Abq6hpNmijm8kReC4KYmmDP0NuT4IxNliFRnd3vuRZUj8uh4BsVIK3dVq186DripYNQbuwiy5LR0V3y0W_iqLV_W&filters=eyJycF9ldmVudHNfbG9jYXRpb246MCI6IntcIm5hbWVcIjpcImZpbHRlcl9ldmVudHNfbG9jYXRpb25cIixcImFyZ3NcIjpcIjExMTQzMDA3MjIxMjA2NlwifSJ9"
  },
  {
    "id": 4629,
    "name": "Gonneville-en-Auge",
    "state_id": 14,
    "postal_code": "14810",
    "state_name": "Calvados",
    "query": "https://www.facebook.com/events/search/?q=Gardening&sde=Abq6hpNmijm8kReC4KYmmDP0NuT4IxNliFRnd3vuRZUj8uh4BsVIK3dVq186DripYNQbuwiy5LR0V3y0W_iqLV_W&filters=eyJycF9ldmVudHNfbG9jYXRpb246MCI6IntcIm5hbWVcIjpcImZpbHRlcl9ldmVudHNfbG9jYXRpb25cIixcImFyZ3NcIjpcIjExMzIxODc1NTM3MTczNlwifSJ9"
  },
  {
    "id": 4630,
    "name": "Goustranville",
    "state_id": 14,
    "postal_code": "14430",
    "state_name": "Calvados",
    "query": "https://www.facebook.com/events/search/?q=Gardening&sde=Abq6hpNmijm8kReC4KYmmDP0NuT4IxNliFRnd3vuRZUj8uh4BsVIK3dVq186DripYNQbuwiy5LR0V3y0W_iqLV_W&__epa__=FILTERS&__eps__=EVENTS_DASHBOARD&filters=eyJycF9ldmVudHNfbG9jYXRpb246MCI6IntcIm5hbWVcIjpcImZpbHRlcl9ldmVudHNfbG9jYXRpb25cIixcImFyZ3NcIjpcIjExMTI4NDg2ODg5MjUwOVwifSJ9"
  },
  {
    "id": 4631,
    "name": "Gouvix",
    "state_id": 14,
    "postal_code": "14680",
    "state_name": "Calvados",
    "query": "https://www.facebook.com/events/search/?q=Gardening&sde=Abq6hpNmijm8kReC4KYmmDP0NuT4IxNliFRnd3vuRZUj8uh4BsVIK3dVq186DripYNQbuwiy5LR0V3y0W_iqLV_W&filters=eyJycF9ldmVudHNfbG9jYXRpb246MCI6IntcIm5hbWVcIjpcImZpbHRlcl9ldmVudHNfbG9jYXRpb25cIixcImFyZ3NcIjpcIjEwNzIyMTk2OTMxNjA3M1wifSJ9"
  },
  {
    "id": 4632,
    "name": "Grainville-Langannerie",
    "state_id": 14,
    "postal_code": "14190",
    "state_name": "Calvados",
    "query": "https://www.facebook.com/events/search/?q=Gardening&sde=Abq6hpNmijm8kReC4KYmmDP0NuT4IxNliFRnd3vuRZUj8uh4BsVIK3dVq186DripYNQbuwiy5LR0V3y0W_iqLV_W&filters=eyJycF9ldmVudHNfbG9jYXRpb246MCI6IntcIm5hbWVcIjpcImZpbHRlcl9ldmVudHNfbG9jYXRpb25cIixcImFyZ3NcIjpcIjExMjExMzI0ODgxMzE0M1wifSJ9"
  },
  {
    "id": 4633,
    "name": "Grainville-sur-Odon",
    "state_id": 14,
    "postal_code": "14210",
    "state_name": "Calvados",
    "query": "https://www.facebook.com/events/search/?q=Gardening&sde=Abq6hpNmijm8kReC4KYmmDP0NuT4IxNliFRnd3vuRZUj8uh4BsVIK3dVq186DripYNQbuwiy5LR0V3y0W_iqLV_W&filters=eyJycF9ldmVudHNfbG9jYXRpb246MCI6IntcIm5hbWVcIjpcImZpbHRlcl9ldmVudHNfbG9jYXRpb25cIixcImFyZ3NcIjpcIjEwNzQxMTExMjYyNzgxOVwifSJ9"
  },
  {
    "id": 4634,
    "name": "Grandcamp-Maisy",
    "state_id": 14,
    "postal_code": "14450",
    "state_name": "Calvados",
    "query": ""
  },
  {
    "id": 4635,
    "name": "Grangues",
    "state_id": 14,
    "postal_code": "14160",
    "state_name": "Calvados",
    "query": ""
  },
  {
    "id": 4636,
    "name": "Graye-sur-Mer",
    "state_id": 14,
    "postal_code": "14470",
    "state_name": "Calvados",
    "query": "https://www.facebook.com/events/search/?q=Gardening&sde=Abq6hpNmijm8kReC4KYmmDP0NuT4IxNliFRnd3vuRZUj8uh4BsVIK3dVq186DripYNQbuwiy5LR0V3y0W_iqLV_W&filters=eyJycF9ldmVudHNfbG9jYXRpb246MCI6IntcIm5hbWVcIjpcImZpbHRlcl9ldmVudHNfbG9jYXRpb25cIixcImFyZ3NcIjpcIjEwNzIwMjU5OTMxODM5MFwifSJ9"
  },
  {
    "id": 4637,
    "name": "Grentheville",
    "state_id": 14,
    "postal_code": "14540",
    "state_name": "Calvados",
    "query": "https://www.facebook.com/events/search/?q=Gardening&sde=Abq6hpNmijm8kReC4KYmmDP0NuT4IxNliFRnd3vuRZUj8uh4BsVIK3dVq186DripYNQbuwiy5LR0V3y0W_iqLV_W&filters=eyJycF9ldmVudHNfbG9jYXRpb246MCI6IntcIm5hbWVcIjpcImZpbHRlcl9ldmVudHNfbG9jYXRpb25cIixcImFyZ3NcIjpcIjEwMzMzNjY4OTcwNzM2MFwifSJ9"
  },
  {
    "id": 4638,
    "name": "Grimbosq",
    "state_id": 14,
    "postal_code": "14220",
    "state_name": "Calvados",
    "query": ""
  },
  {
    "id": 4639,
    "name": "Guéron",
    "state_id": 14,
    "postal_code": "14400",
    "state_name": "Calvados",
    "query": ""
  },
  {
    "id": 4640,
    "name": "Hermanville-sur-Mer",
    "state_id": 14,
    "postal_code": "14880",
    "state_name": "Calvados",
    "query": "https://www.facebook.com/events/search/?q=Gardening&sde=Abq6hpNmijm8kReC4KYmmDP0NuT4IxNliFRnd3vuRZUj8uh4BsVIK3dVq186DripYNQbuwiy5LR0V3y0W_iqLV_W&filters=eyJycF9ldmVudHNfbG9jYXRpb246MCI6IntcIm5hbWVcIjpcImZpbHRlcl9ldmVudHNfbG9jYXRpb25cIixcImFyZ3NcIjpcIjEwNTk4MTQwOTQzMzU0MlwifSJ9"
  },
  {
    "id": 4641,
    "name": "Hermival-les-Vaux",
    "state_id": 14,
    "postal_code": "14100",
    "state_name": "Calvados",
    "query": "https://www.facebook.com/events/search/?q=Gardening&sde=Abq6hpNmijm8kReC4KYmmDP0NuT4IxNliFRnd3vuRZUj8uh4BsVIK3dVq186DripYNQbuwiy5LR0V3y0W_iqLV_W&filters=eyJycF9ldmVudHNfbG9jYXRpb246MCI6IntcIm5hbWVcIjpcImZpbHRlcl9ldmVudHNfbG9jYXRpb25cIixcImFyZ3NcIjpcIjEwNDEwMzU5OTYyNzE5NlwifSJ9"
  },
  {
    "id": 4642,
    "name": "Hérouville-Saint-Clair",
    "state_id": 14,
    "postal_code": "14200",
    "state_name": "Calvados",
    "query": "https://www.facebook.com/events/search/?q=Gardening&sde=Abq6hpNmijm8kReC4KYmmDP0NuT4IxNliFRnd3vuRZUj8uh4BsVIK3dVq186DripYNQbuwiy5LR0V3y0W_iqLV_W&filters=eyJycF9ldmVudHNfbG9jYXRpb246MCI6IntcIm5hbWVcIjpcImZpbHRlcl9ldmVudHNfbG9jYXRpb25cIixcImFyZ3NcIjpcIjExMjQwNTYxNTQzOTMxNFwifSJ9"
  },
  {
    "id": 4643,
    "name": "Hérouvillette",
    "state_id": 14,
    "postal_code": "14850",
    "state_name": "Calvados",
    "query": "https://www.facebook.com/events/search/?q=Gardening&sde=Abq6hpNmijm8kReC4KYmmDP0NuT4IxNliFRnd3vuRZUj8uh4BsVIK3dVq186DripYNQbuwiy5LR0V3y0W_iqLV_W&filters=eyJycF9ldmVudHNfbG9jYXRpb246MCI6IntcIm5hbWVcIjpcImZpbHRlcl9ldmVudHNfbG9jYXRpb25cIixcImFyZ3NcIjpcIjExMzM0OTgyMjAyNTI4M1wifSJ9"
  },
  {
    "id": 4644,
    "name": "Heuland",
    "state_id": 14,
    "postal_code": "14430",
    "state_name": "Calvados",
    "query": ""
  },
  {
    "id": 4645,
    "name": "La Hoguette",
    "state_id": 14,
    "postal_code": "14700",
    "state_name": "Calvados",
    "query": "https://www.facebook.com/events/search/?q=Gardening&sde=Abq6hpNmijm8kReC4KYmmDP0NuT4IxNliFRnd3vuRZUj8uh4BsVIK3dVq186DripYNQbuwiy5LR0V3y0W_iqLV_W&filters=eyJycF9ldmVudHNfbG9jYXRpb246MCI6IntcIm5hbWVcIjpcImZpbHRlcl9ldmVudHNfbG9jYXRpb25cIixcImFyZ3NcIjpcIjEwODkyODU1NTgwNzEwNlwifSJ9"
  },
  {
    "id": 4646,
    "name": "Honfleur",
    "state_id": 14,
    "postal_code": "14600",
    "state_name": "Calvados",
    "query": "https://www.facebook.com/events/search/?q=Gardening&sde=Abq6hpNmijm8kReC4KYmmDP0NuT4IxNliFRnd3vuRZUj8uh4BsVIK3dVq186DripYNQbuwiy5LR0V3y0W_iqLV_W&filters=eyJycF9ldmVudHNfbG9jYXRpb246MCI6IntcIm5hbWVcIjpcImZpbHRlcl9ldmVudHNfbG9jYXRpb25cIixcImFyZ3NcIjpcIjEwOTU5NDUyMjM5OTM3N1wifSJ9"
  },
  {
    "id": 4647,
    "name": "L'Hôtellerie",
    "state_id": 14,
    "postal_code": "14100",
    "state_name": "Calvados",
    "query": "https://www.facebook.com/events/search/?q=Gardening&sde=Abq6hpNmijm8kReC4KYmmDP0NuT4IxNliFRnd3vuRZUj8uh4BsVIK3dVq186DripYNQbuwiy5LR0V3y0W_iqLV_W&filters=eyJycF9ldmVudHNfbG9jYXRpb246MCI6IntcIm5hbWVcIjpcImZpbHRlcl9ldmVudHNfbG9jYXRpb25cIixcImFyZ3NcIjpcIjEwOTE4Nzk4MjQ0MjAxOFwifSJ9"
  },
  {
    "id": 4648,
    "name": "Hotot-en-Auge",
    "state_id": 14,
    "postal_code": "14430",
    "state_name": "Calvados",
    "query": "https://www.facebook.com/events/search/?q=Gardening&sde=Abq6hpNmijm8kReC4KYmmDP0NuT4IxNliFRnd3vuRZUj8uh4BsVIK3dVq186DripYNQbuwiy5LR0V3y0W_iqLV_W&filters=eyJycF9ldmVudHNfbG9jYXRpb246MCI6IntcIm5hbWVcIjpcImZpbHRlcl9ldmVudHNfbG9jYXRpb25cIixcImFyZ3NcIjpcIjEwOTEyMjk2NTc4OTExNFwifSJ9"
  },
  {
    "id": 4649,
    "name": "Hottot-les-Bagues",
    "state_id": 14,
    "postal_code": "14250",
    "state_name": "Calvados",
    "query": "https://www.facebook.com/events/search?q=Gardening&sde=Abq6hpNmijm8kReC4KYmmDP0NuT4IxNliFRnd3vuRZUj8uh4BsVIK3dVq186DripYNQbuwiy5LR0V3y0W_iqLV_W&filters=eyJycF9ldmVudHNfbG9jYXRpb246MCI6IntcIm5hbWVcIjpcImZpbHRlcl9ldmVudHNfbG9jYXRpb25cIixcImFyZ3NcIjpcIjExNjQ1MzcxMTcwMzQ1OFwifSJ9"
  },
  {
    "id": 4650,
    "name": "La Houblonnière",
    "state_id": 14,
    "postal_code": "14340",
    "state_name": "Calvados",
    "query": "https://www.facebook.com/events/search/?q=Gardening&sde=Abq6hpNmijm8kReC4KYmmDP0NuT4IxNliFRnd3vuRZUj8uh4BsVIK3dVq186DripYNQbuwiy5LR0V3y0W_iqLV_W&filters=eyJycF9ldmVudHNfbG9jYXRpb246MCI6IntcIm5hbWVcIjpcImZpbHRlcl9ldmVudHNfbG9jYXRpb25cIixcImFyZ3NcIjpcIjExMTc3MTkyNTUxMzQ0NlwifSJ9"
  },
  {
    "id": 4651,
    "name": "Houlgate",
    "state_id": 14,
    "postal_code": "14510",
    "state_name": "Calvados",
    "query": "https://www.facebook.com/events/search/?q=Gardening&sde=Abq6hpNmijm8kReC4KYmmDP0NuT4IxNliFRnd3vuRZUj8uh4BsVIK3dVq186DripYNQbuwiy5LR0V3y0W_iqLV_W&filters=eyJycF9ldmVudHNfbG9jYXRpb246MCI6IntcIm5hbWVcIjpcImZpbHRlcl9ldmVudHNfbG9jYXRpb25cIixcImFyZ3NcIjpcIjExMzI3MTg0MjAxNzA1OFwifSJ9"
  },
  {
    "id": 4652,
    "name": "Ifs",
    "state_id": 14,
    "postal_code": "14123",
    "state_name": "Calvados",
    "query": "https://www.facebook.com/events/search/?q=Gardening&sde=Abq6hpNmijm8kReC4KYmmDP0NuT4IxNliFRnd3vuRZUj8uh4BsVIK3dVq186DripYNQbuwiy5LR0V3y0W_iqLV_W&filters=eyJycF9ldmVudHNfbG9jYXRpb246MCI6IntcIm5hbWVcIjpcImZpbHRlcl9ldmVudHNfbG9jYXRpb25cIixcImFyZ3NcIjpcIjExNDEyMTQ4NTI2ODQ5NlwifSJ9"
  },
  {
    "id": 4653,
    "name": "Isigny-sur-Mer",
    "state_id": 14,
    "postal_code": "14230",
    "state_name": "Calvados",
    "query": "https://www.facebook.com/events/search/?q=Gardening&sde=Abq6hpNmijm8kReC4KYmmDP0NuT4IxNliFRnd3vuRZUj8uh4BsVIK3dVq186DripYNQbuwiy5LR0V3y0W_iqLV_W&filters=eyJycF9ldmVudHNfbG9jYXRpb246MCI6IntcIm5hbWVcIjpcImZpbHRlcl9ldmVudHNfbG9jYXRpb25cIixcImFyZ3NcIjpcIjEwOTY0ODkzNTcyNzg3MlwifSJ9"
  },
  {
    "id": 4654,
    "name": "Les Isles-Bardel",
    "state_id": 14,
    "postal_code": "14690",
    "state_name": "Calvados",
    "query": ""
  },
  {
    "id": 4655,
    "name": "Janville",
    "state_id": 14,
    "postal_code": "14670",
    "state_name": "Calvados",
    "query": "https://www.facebook.com/events/search/?q=Gardening&sde=Abq6hpNmijm8kReC4KYmmDP0NuT4IxNliFRnd3vuRZUj8uh4BsVIK3dVq186DripYNQbuwiy5LR0V3y0W_iqLV_W&filters=eyJycF9ldmVudHNfbG9jYXRpb246MCI6IntcIm5hbWVcIjpcImZpbHRlcl9ldmVudHNfbG9jYXRpb25cIixcImFyZ3NcIjpcIjEwODgwNjkyOTE0MTA5MFwifSJ9"
  },
  {
    "id": 4656,
    "name": "Jort",
    "state_id": 14,
    "postal_code": "14170",
    "state_name": "Calvados",
    "query": ""
  },
  {
    "id": 4657,
    "name": "Juaye-Mondaye",
    "state_id": 14,
    "postal_code": "14250",
    "state_name": "Calvados",
    "query": "https://www.facebook.com/events/search/?q=Gardening&sde=Abq6hpNmijm8kReC4KYmmDP0NuT4IxNliFRnd3vuRZUj8uh4BsVIK3dVq186DripYNQbuwiy5LR0V3y0W_iqLV_W&filters=eyJycF9ldmVudHNfbG9jYXRpb246MCI6IntcIm5hbWVcIjpcImZpbHRlcl9ldmVudHNfbG9jYXRpb25cIixcImFyZ3NcIjpcIjEwNzQzNjUwMjYyNjg0MVwifSJ9"
  },
  {
    "id": 4658,
    "name": "Dialan sur Chaîne",
    "state_id": 14,
    "postal_code": "14260",
    "state_name": "Calvados",
    "query": ""
  },
  {
    "id": 4659,
    "name": "Juvigny-sur-Seulles",
    "state_id": 14,
    "postal_code": "14250",
    "state_name": "Calvados",
    "query": ""
  },
  {
    "id": 4660,
    "name": "Laize-Clinchamps",
    "state_id": 14,
    "postal_code": "14320",
    "state_name": "Calvados",
    "query": ""
  },
  {
    "id": 4661,
    "name": "Landelles-et-Coupigny",
    "state_id": 14,
    "postal_code": "14380",
    "state_name": "Calvados",
    "query": "https://www.facebook.com/events/search/?q=Gardening&sde=Abq6hpNmijm8kReC4KYmmDP0NuT4IxNliFRnd3vuRZUj8uh4BsVIK3dVq186DripYNQbuwiy5LR0V3y0W_iqLV_W&filters=eyJycF9ldmVudHNfbG9jYXRpb246MCI6IntcIm5hbWVcIjpcImZpbHRlcl9ldmVudHNfbG9jYXRpb25cIixcImFyZ3NcIjpcIjEwMzc3NzM1OTY2MDMxNVwifSJ9"
  },
  {
    "id": 4662,
    "name": "Landes-sur-Ajon",
    "state_id": 14,
    "postal_code": "14310",
    "state_name": "Calvados",
    "query": "https://www.facebook.com/events/search/?q=Gardening&sde=Abq6hpNmijm8kReC4KYmmDP0NuT4IxNliFRnd3vuRZUj8uh4BsVIK3dVq186DripYNQbuwiy5LR0V3y0W_iqLV_W&filters=eyJycF9ldmVudHNfbG9jYXRpb246MCI6IntcIm5hbWVcIjpcImZpbHRlcl9ldmVudHNfbG9jYXRpb25cIixcImFyZ3NcIjpcIjExMjU5NDM5NTQyNDk2N1wifSJ9"
  },
  {
    "id": 4663,
    "name": "Langrune-sur-Mer",
    "state_id": 14,
    "postal_code": "14830",
    "state_name": "Calvados",
    "query": "https://www.facebook.com/events/search/?q=Gardening&sde=Abq6hpNmijm8kReC4KYmmDP0NuT4IxNliFRnd3vuRZUj8uh4BsVIK3dVq186DripYNQbuwiy5LR0V3y0W_iqLV_W&filters=eyJycF9ldmVudHNfbG9jYXRpb246MCI6IntcIm5hbWVcIjpcImZpbHRlcl9ldmVudHNfbG9jYXRpb25cIixcImFyZ3NcIjpcIjExMjk3ODUxODcyMTA3MlwifSJ9"
  },
  {
    "id": 4664,
    "name": "Ponts sur Seulles",
    "state_id": 14,
    "postal_code": "14480",
    "state_name": "Calvados",
    "query": ""
  },
  {
    "id": 4665,
    "name": "Terres de Druance",
    "state_id": 14,
    "postal_code": "14770",
    "state_name": "Calvados",
    "query": ""
  },
  {
    "id": 4666,
    "name": "Léaupartie",
    "state_id": 14,
    "postal_code": "14340",
    "state_name": "Calvados",
    "query": "https://www.facebook.com/events/search/?q=Gardening&sde=Abq6hpNmijm8kReC4KYmmDP0NuT4IxNliFRnd3vuRZUj8uh4BsVIK3dVq186DripYNQbuwiy5LR0V3y0W_iqLV_W&__epa__=FILTERS&__eps__=EVENTS_DASHBOARD&filters=eyJycF9ldmVudHNfbG9jYXRpb246MCI6IntcIm5hbWVcIjpcImZpbHRlcl9ldmVudHNfbG9jYXRpb25cIixcImFyZ3NcIjpcIjExMjA5MTMyMjE0ODI5MVwifSJ9"
  },
  {
    "id": 4667,
    "name": "Leffard",
    "state_id": 14,
    "postal_code": "14700",
    "state_name": "Calvados",
    "query": ""
  },
  {
    "id": 4668,
    "name": "Lessard-et-le-Chêne",
    "state_id": 14,
    "postal_code": "14140",
    "state_name": "Calvados",
    "query": "https://www.facebook.com/events/search/?q=Gardening&sde=Abq6hpNmijm8kReC4KYmmDP0NuT4IxNliFRnd3vuRZUj8uh4BsVIK3dVq186DripYNQbuwiy5LR0V3y0W_iqLV_W&filters=eyJycF9ldmVudHNfbG9jYXRpb246MCI6IntcIm5hbWVcIjpcImZpbHRlcl9ldmVudHNfbG9jYXRpb25cIixcImFyZ3NcIjpcIjEwOTEwNDkwNTc4ODY4NVwifSJ9"
  },
  {
    "id": 4669,
    "name": "Lingèvres",
    "state_id": 14,
    "postal_code": "14250",
    "state_name": "Calvados",
    "query": "https://www.facebook.com/events/search?q=Gardening&sde=Abq6hpNmijm8kReC4KYmmDP0NuT4IxNliFRnd3vuRZUj8uh4BsVIK3dVq186DripYNQbuwiy5LR0V3y0W_iqLV_W&filters=eyJycF9ldmVudHNfbG9jYXRpb246MCI6IntcIm5hbWVcIjpcImZpbHRlcl9ldmVudHNfbG9jYXRpb25cIixcImFyZ3NcIjpcIjExNTQ5MDg5NTEzMDEzNFwifSJ9"
  },
  {
    "id": 4670,
    "name": "Lion-sur-Mer",
    "state_id": 14,
    "postal_code": "14780",
    "state_name": "Calvados",
    "query": "https://www.facebook.com/events/search/?q=Gardening&sde=Abq6hpNmijm8kReC4KYmmDP0NuT4IxNliFRnd3vuRZUj8uh4BsVIK3dVq186DripYNQbuwiy5LR0V3y0W_iqLV_W&filters=eyJycF9ldmVudHNfbG9jYXRpb246MCI6IntcIm5hbWVcIjpcImZpbHRlcl9ldmVudHNfbG9jYXRpb25cIixcImFyZ3NcIjpcIjEwNjA3NDYyNjA5MTA2MFwifSJ9"
  },
  {
    "id": 4671,
    "name": "Lisieux",
    "state_id": 14,
    "postal_code": "14100",
    "state_name": "Calvados",
    "query": "https://www.facebook.com/events/search/?q=Gardening&sde=Abq6hpNmijm8kReC4KYmmDP0NuT4IxNliFRnd3vuRZUj8uh4BsVIK3dVq186DripYNQbuwiy5LR0V3y0W_iqLV_W&filters=eyJycF9ldmVudHNfbG9jYXRpb246MCI6IntcIm5hbWVcIjpcImZpbHRlcl9ldmVudHNfbG9jYXRpb25cIixcImFyZ3NcIjpcIjEwNjQ1ODEzMjcyNDE0N1wifSJ9"
  },
  {
    "id": 4672,
    "name": "Lison",
    "state_id": 14,
    "postal_code": "14330",
    "state_name": "Calvados",
    "query": "https://www.facebook.com/events/search/?q=Gardening&sde=Abq6hpNmijm8kReC4KYmmDP0NuT4IxNliFRnd3vuRZUj8uh4BsVIK3dVq186DripYNQbuwiy5LR0V3y0W_iqLV_W&filters=eyJycF9ldmVudHNfbG9jYXRpb246MCI6IntcIm5hbWVcIjpcImZpbHRlcl9ldmVudHNfbG9jYXRpb25cIixcImFyZ3NcIjpcIjExNjc5MDAxNTAwMTgyNlwifSJ9"
  },
  {
    "id": 4673,
    "name": "Lisores",
    "state_id": 14,
    "postal_code": "14140",
    "state_name": "Calvados",
    "query": ""
  },
  {
    "id": 4674,
    "name": "Litteau",
    "state_id": 14,
    "postal_code": "14490",
    "state_name": "Calvados",
    "query": "https://www.facebook.com/events/search/?q=Gardening&sde=Abq6hpNmijm8kReC4KYmmDP0NuT4IxNliFRnd3vuRZUj8uh4BsVIK3dVq186DripYNQbuwiy5LR0V3y0W_iqLV_W&filters=eyJycF9ldmVudHNfbG9jYXRpb246MCI6IntcIm5hbWVcIjpcImZpbHRlcl9ldmVudHNfbG9jYXRpb25cIixcImFyZ3NcIjpcIjExNTQwMjI1ODQ3NzEzOFwifSJ9"
  },
  {
    "id": 4675,
    "name": "Le Molay-Littry",
    "state_id": 14,
    "postal_code": "14330",
    "state_name": "Calvados",
    "query": "https://www.facebook.com/events/search/?q=Gardening&sde=Abq6hpNmijm8kReC4KYmmDP0NuT4IxNliFRnd3vuRZUj8uh4BsVIK3dVq186DripYNQbuwiy5LR0V3y0W_iqLV_W&filters=eyJycF9ldmVudHNfbG9jYXRpb246MCI6IntcIm5hbWVcIjpcImZpbHRlcl9ldmVudHNfbG9jYXRpb25cIixcImFyZ3NcIjpcIjEwNzc2NzkyNTkxMzAwM1wifSJ9"
  },
  {
    "id": 4676,
    "name": "Livarot-Pays-d'Auge",
    "state_id": 14,
    "postal_code": "14140",
    "state_name": "Calvados",
    "query": ""
  },
  {
    "id": 4677,
    "name": "Les Loges",
    "state_id": 14,
    "postal_code": "14240",
    "state_name": "Calvados",
    "query": "https://www.facebook.com/events/search/?q=Gardening&sde=Abq6hpNmijm8kReC4KYmmDP0NuT4IxNliFRnd3vuRZUj8uh4BsVIK3dVq186DripYNQbuwiy5LR0V3y0W_iqLV_W&filters=eyJycF9ldmVudHNfbG9jYXRpb246MCI6IntcIm5hbWVcIjpcImZpbHRlcl9ldmVudHNfbG9jYXRpb25cIixcImFyZ3NcIjpcIjEwNzEzOTEwNTk5MjI3MFwifSJ9"
  },
  {
    "id": 4678,
    "name": "Les Loges-Saulces",
    "state_id": 14,
    "postal_code": "14700",
    "state_name": "Calvados",
    "query": ""
  },
  {
    "id": 4679,
    "name": "Longues-sur-Mer",
    "state_id": 14,
    "postal_code": "14400",
    "state_name": "Calvados",
    "query": "https://www.facebook.com/events/search/?q=Gardening&sde=Abq6hpNmijm8kReC4KYmmDP0NuT4IxNliFRnd3vuRZUj8uh4BsVIK3dVq186DripYNQbuwiy5LR0V3y0W_iqLV_W&filters=eyJycF9ldmVudHNfbG9jYXRpb246MCI6IntcIm5hbWVcIjpcImZpbHRlcl9ldmVudHNfbG9jYXRpb25cIixcImFyZ3NcIjpcIjEwOTYwMDI2OTA2NTgxNlwifSJ9"
  },
  {
    "id": 4680,
    "name": "Longueville",
    "state_id": 14,
    "postal_code": "14230",
    "state_name": "Calvados",
    "query": "https://www.facebook.com/events/search/?q=Gardening&sde=Abq6hpNmijm8kReC4KYmmDP0NuT4IxNliFRnd3vuRZUj8uh4BsVIK3dVq186DripYNQbuwiy5LR0V3y0W_iqLV_W&filters=eyJycF9ldmVudHNfbG9jYXRpb246MCI6IntcIm5hbWVcIjpcImZpbHRlcl9ldmVudHNfbG9jYXRpb25cIixcImFyZ3NcIjpcIjExMzEzNzUwNTM3MDM3NFwifSJ9"
  },
  {
    "id": 4681,
    "name": "Longvillers",
    "state_id": 14,
    "postal_code": "14310",
    "state_name": "Calvados",
    "query": ""
  },
  {
    "id": 4682,
    "name": "Loucelles",
    "state_id": 14,
    "postal_code": "14250",
    "state_name": "Calvados",
    "query": "https://www.facebook.com/events/search/?q=Gardening&sde=Abq6hpNmijm8kReC4KYmmDP0NuT4IxNliFRnd3vuRZUj8uh4BsVIK3dVq186DripYNQbuwiy5LR0V3y0W_iqLV_W&filters=eyJycF9ldmVudHNfbG9jYXRpb246MCI6IntcIm5hbWVcIjpcImZpbHRlcl9ldmVudHNfbG9jYXRpb25cIixcImFyZ3NcIjpcIjExNzI0MzA5NDk1MjM3MFwifSJ9"
  },
  {
    "id": 4683,
    "name": "Louvagny",
    "state_id": 14,
    "postal_code": "14170",
    "state_name": "Calvados",
    "query": ""
  },
  {
    "id": 4684,
    "name": "Louvigny",
    "state_id": 14,
    "postal_code": "14111",
    "state_name": "Calvados",
    "query": "https://www.facebook.com/events/search/?q=Gardening&sde=Abq6hpNmijm8kReC4KYmmDP0NuT4IxNliFRnd3vuRZUj8uh4BsVIK3dVq186DripYNQbuwiy5LR0V3y0W_iqLV_W&filters=eyJycF9ldmVudHNfbG9jYXRpb246MCI6IntcIm5hbWVcIjpcImZpbHRlcl9ldmVudHNfbG9jYXRpb25cIixcImFyZ3NcIjpcIjEwNDMwODAwMjk0MzUxNVwifSJ9"
  },
  {
    "id": 4685,
    "name": "Luc-sur-Mer",
    "state_id": 14,
    "postal_code": "14530",
    "state_name": "Calvados",
    "query": "https://www.facebook.com/events/search/?q=Gardening&sde=Abq6hpNmijm8kReC4KYmmDP0NuT4IxNliFRnd3vuRZUj8uh4BsVIK3dVq186DripYNQbuwiy5LR0V3y0W_iqLV_W&filters=eyJycF9ldmVudHNfbG9jYXRpb246MCI6IntcIm5hbWVcIjpcImZpbHRlcl9ldmVudHNfbG9jYXRpb25cIixcImFyZ3NcIjpcIjExMjUwODI1ODc2NDk5NFwifSJ9"
  },
  {
    "id": 4686,
    "name": "Magny-en-Bessin",
    "state_id": 14,
    "postal_code": "14400",
    "state_name": "Calvados",
    "query": ""
  },
  {
    "id": 4687,
    "name": "Maisoncelles-Pelvey",
    "state_id": 14,
    "postal_code": "14310",
    "state_name": "Calvados",
    "query": "https://www.facebook.com/events/search/?q=Gardening&sde=Abq6hpNmijm8kReC4KYmmDP0NuT4IxNliFRnd3vuRZUj8uh4BsVIK3dVq186DripYNQbuwiy5LR0V3y0W_iqLV_W&filters=eyJycF9ldmVudHNfbG9jYXRpb246MCI6IntcIm5hbWVcIjpcImZpbHRlcl9ldmVudHNfbG9jYXRpb25cIixcImFyZ3NcIjpcIjEwNzQwNzU4NTk2MjAxNFwifSJ9"
  },
  {
    "id": 4688,
    "name": "Maisoncelles-sur-Ajon",
    "state_id": 14,
    "postal_code": "14210",
    "state_name": "Calvados",
    "query": ""
  },
  {
    "id": 4689,
    "name": "Maisons",
    "state_id": 14,
    "postal_code": "14400",
    "state_name": "Calvados",
    "query": ""
  },
  {
    "id": 4690,
    "name": "Maizet",
    "state_id": 14,
    "postal_code": "14210",
    "state_name": "Calvados",
    "query": "https://www.facebook.com/events/search/?q=Gardening&sde=Abq6hpNmijm8kReC4KYmmDP0NuT4IxNliFRnd3vuRZUj8uh4BsVIK3dVq186DripYNQbuwiy5LR0V3y0W_iqLV_W&filters=eyJycF9ldmVudHNfbG9jYXRpb246MCI6IntcIm5hbWVcIjpcImZpbHRlcl9ldmVudHNfbG9jYXRpb25cIixcImFyZ3NcIjpcIjEwNzM2MjkzNTk2NzUzN1wifSJ9"
  },
  {
    "id": 4691,
    "name": "Maizières",
    "state_id": 14,
    "postal_code": "14190",
    "state_name": "Calvados",
    "query": "https://www.facebook.com/events/search/?q=Gardening&sde=Abq6hpNmijm8kReC4KYmmDP0NuT4IxNliFRnd3vuRZUj8uh4BsVIK3dVq186DripYNQbuwiy5LR0V3y0W_iqLV_W&filters=eyJycF9ldmVudHNfbG9jYXRpb246MCI6IntcIm5hbWVcIjpcImZpbHRlcl9ldmVudHNfbG9jYXRpb25cIixcImFyZ3NcIjpcIjExMDIzNjMxNTY2MjA2MFwifSJ9"
  },
  {
    "id": 4692,
    "name": "Maltot",
    "state_id": 14,
    "postal_code": "14930",
    "state_name": "Calvados",
    "query": "https://www.facebook.com/events/search/?q=Gardening&sde=Abq6hpNmijm8kReC4KYmmDP0NuT4IxNliFRnd3vuRZUj8uh4BsVIK3dVq186DripYNQbuwiy5LR0V3y0W_iqLV_W&filters=eyJycF9ldmVudHNfbG9jYXRpb246MCI6IntcIm5hbWVcIjpcImZpbHRlcl9ldmVudHNfbG9jYXRpb25cIixcImFyZ3NcIjpcIjEwMzM0MzY1NjM3NDQxOFwifSJ9"
  },
  {
    "id": 4693,
    "name": "Mandeville-en-Bessin",
    "state_id": 14,
    "postal_code": "14710",
    "state_name": "Calvados",
    "query": "https://www.facebook.com/events/search/?q=Gardening&sde=Abq6hpNmijm8kReC4KYmmDP0NuT4IxNliFRnd3vuRZUj8uh4BsVIK3dVq186DripYNQbuwiy5LR0V3y0W_iqLV_W&filters=eyJycF9ldmVudHNfbG9jYXRpb246MCI6IntcIm5hbWVcIjpcImZpbHRlcl9ldmVudHNfbG9jYXRpb25cIixcImFyZ3NcIjpcIjEwNzQxMTk5MjYyNzE1NlwifSJ9"
  },
  {
    "id": 4694,
    "name": "Manerbe",
    "state_id": 14,
    "postal_code": "14340",
    "state_name": "Calvados",
    "query": "https://www.facebook.com/events/search/?q=Gardening&sde=Abq6hpNmijm8kReC4KYmmDP0NuT4IxNliFRnd3vuRZUj8uh4BsVIK3dVq186DripYNQbuwiy5LR0V3y0W_iqLV_W&filters=eyJycF9ldmVudHNfbG9jYXRpb246MCI6IntcIm5hbWVcIjpcImZpbHRlcl9ldmVudHNfbG9jYXRpb25cIixcImFyZ3NcIjpcIjEwOTUyODUwOTA3ODgxMFwifSJ9"
  },
  {
    "id": 4695,
    "name": "Manneville-la-Pipard",
    "state_id": 14,
    "postal_code": "14130",
    "state_name": "Calvados",
    "query": "https://www.facebook.com/events/search?q=Gardening&sde=Abq6hpNmijm8kReC4KYmmDP0NuT4IxNliFRnd3vuRZUj8uh4BsVIK3dVq186DripYNQbuwiy5LR0V3y0W_iqLV_W&filters=eyJycF9ldmVudHNfbG9jYXRpb246MCI6IntcIm5hbWVcIjpcImZpbHRlcl9ldmVudHNfbG9jYXRpb25cIixcImFyZ3NcIjpcIjEwNzQwMDk0MjYyOTExOVwifSJ9"
  },
  {
    "id": 4696,
    "name": "Le Manoir",
    "state_id": 14,
    "postal_code": "14400",
    "state_name": "Calvados",
    "query": ""
  },
  {
    "id": 4697,
    "name": "Manvieux",
    "state_id": 14,
    "postal_code": "14117",
    "state_name": "Calvados",
    "query": ""
  },
  {
    "id": 4698,
    "name": "Le Marais-la-Chapelle",
    "state_id": 14,
    "postal_code": "14620",
    "state_name": "Calvados",
    "query": ""
  },
  {
    "id": 4699,
    "name": "Marolles",
    "state_id": 14,
    "postal_code": "14100",
    "state_name": "Calvados",
    "query": ""
  },
  {
    "id": 4700,
    "name": "Martainville",
    "state_id": 14,
    "postal_code": "14220",
    "state_name": "Calvados",
    "query": "https://www.facebook.com/events/search/?q=Gardening&sde=Abq6hpNmijm8kReC4KYmmDP0NuT4IxNliFRnd3vuRZUj8uh4BsVIK3dVq186DripYNQbuwiy5LR0V3y0W_iqLV_W&filters=eyJycF9ldmVudHNfbG9jYXRpb246MCI6IntcIm5hbWVcIjpcImZpbHRlcl9ldmVudHNfbG9jYXRpb25cIixcImFyZ3NcIjpcIjEwOTM0OTgyOTA4OTM2OFwifSJ9"
  },
  {
    "id": 4701,
    "name": "Martigny-sur-l'Ante",
    "state_id": 14,
    "postal_code": "14700",
    "state_name": "Calvados",
    "query": ""
  },
  {
    "id": 4702,
    "name": "Moulins-en-Bessin",
    "state_id": 14,
    "postal_code": "14480",
    "state_name": "Calvados",
    "query": ""
  },
  {
    "id": 4703,
    "name": "Mathieu",
    "state_id": 14,
    "postal_code": "14920",
    "state_name": "Calvados",
    "query": "https://www.facebook.com/events/search/?q=Gardening&sde=Abq6hpNmijm8kReC4KYmmDP0NuT4IxNliFRnd3vuRZUj8uh4BsVIK3dVq186DripYNQbuwiy5LR0V3y0W_iqLV_W&filters=eyJycF9ldmVudHNfbG9jYXRpb246MCI6IntcIm5hbWVcIjpcImZpbHRlcl9ldmVudHNfbG9jYXRpb25cIixcImFyZ3NcIjpcIjEwMzk4ODMwNjMwNTYwM1wifSJ9"
  },
  {
    "id": 4704,
    "name": "May-sur-Orne",
    "state_id": 14,
    "postal_code": "14320",
    "state_name": "Calvados",
    "query": "https://www.facebook.com/events/search/?q=Gardening&sde=Abq6hpNmijm8kReC4KYmmDP0NuT4IxNliFRnd3vuRZUj8uh4BsVIK3dVq186DripYNQbuwiy5LR0V3y0W_iqLV_W&filters=eyJycF9ldmVudHNfbG9jYXRpb246MCI6IntcIm5hbWVcIjpcImZpbHRlcl9ldmVudHNfbG9jYXRpb25cIixcImFyZ3NcIjpcIjExMTIxNzM0MjIzNDA1MVwifSJ9"
  },
  {
    "id": 4705,
    "name": "Merville-Franceville-Plage",
    "state_id": 14,
    "postal_code": "14810",
    "state_name": "Calvados",
    "query": "https://www.facebook.com/events/search/?q=Gardening&sde=Abq6hpNmijm8kReC4KYmmDP0NuT4IxNliFRnd3vuRZUj8uh4BsVIK3dVq186DripYNQbuwiy5LR0V3y0W_iqLV_W&filters=eyJycF9ldmVudHNfbG9jYXRpb246MCI6IntcIm5hbWVcIjpcImZpbHRlcl9ldmVudHNfbG9jYXRpb25cIixcImFyZ3NcIjpcIjEwNDA1NjA0NjI5NzI2MVwifSJ9"
  },
  {
    "id": 4706,
    "name": "Méry-Bissières-en-Auge",
    "state_id": 14,
    "postal_code": "14370",
    "state_name": "Calvados",
    "query": ""
  },
  {
    "id": 4707,
    "name": "Meslay",
    "state_id": 14,
    "postal_code": "14220",
    "state_name": "Calvados",
    "query": "https://www.facebook.com/events/search?q=Gardening&sde=Abq6hpNmijm8kReC4KYmmDP0NuT4IxNliFRnd3vuRZUj8uh4BsVIK3dVq186DripYNQbuwiy5LR0V3y0W_iqLV_W&filters=eyJycF9ldmVudHNfbG9jYXRpb246MCI6IntcIm5hbWVcIjpcImZpbHRlcl9ldmVudHNfbG9jYXRpb25cIixcImFyZ3NcIjpcIjExMzM5Mjc1ODY3MTQ5MlwifSJ9"
  },
  {
    "id": 4708,
    "name": "Le Mesnil-au-Grain",
    "state_id": 14,
    "postal_code": "14260",
    "state_name": "Calvados",
    "query": ""
  },
  {
    "id": 4709,
    "name": "Le Mesnil-Eudes",
    "state_id": 14,
    "postal_code": "14100",
    "state_name": "Calvados",
    "query": ""
  },
  {
    "id": 4710,
    "name": "Le Mesnil-Guillaume",
    "state_id": 14,
    "postal_code": "14100",
    "state_name": "Calvados",
    "query": ""
  },
  {
    "id": 4711,
    "name": "Le Mesnil-Robert",
    "state_id": 14,
    "postal_code": "14380",
    "state_name": "Calvados",
    "query": ""
  },
  {
    "id": 4712,
    "name": "Le Mesnil-Simon",
    "state_id": 14,
    "postal_code": "14140",
    "state_name": "Calvados",
    "query": "https://www.facebook.com/events/search/?q=Gardening&sde=Abq6hpNmijm8kReC4KYmmDP0NuT4IxNliFRnd3vuRZUj8uh4BsVIK3dVq186DripYNQbuwiy5LR0V3y0W_iqLV_W&filters=eyJycF9ldmVudHNfbG9jYXRpb246MCI6IntcIm5hbWVcIjpcImZpbHRlcl9ldmVudHNfbG9jYXRpb25cIixcImFyZ3NcIjpcIjExNDI0MjE1MTkyMjgxNFwifSJ9"
  },
  {
    "id": 4713,
    "name": "Le Mesnil-sur-Blangy",
    "state_id": 14,
    "postal_code": "14130",
    "state_name": "Calvados",
    "query": ""
  },
  {
    "id": 4714,
    "name": "Le Mesnil-Villement",
    "state_id": 14,
    "postal_code": "14690",
    "state_name": "Calvados",
    "query": ""
  },
  {
    "id": 4715,
    "name": "Meuvaines",
    "state_id": 14,
    "postal_code": "14960",
    "state_name": "Calvados",
    "query": "https://www.facebook.com/events/search?q=Gardening&sde=Abq6hpNmijm8kReC4KYmmDP0NuT4IxNliFRnd3vuRZUj8uh4BsVIK3dVq186DripYNQbuwiy5LR0V3y0W_iqLV_W&filters=eyJycF9ldmVudHNfbG9jYXRpb246MCI6IntcIm5hbWVcIjpcImZpbHRlcl9ldmVudHNfbG9jYXRpb25cIixcImFyZ3NcIjpcIjEwOTAzMTIyNTc5ODQ3NlwifSJ9"
  },
  {
    "id": 4716,
    "name": "Mézidon Vallée d'Auge",
    "state_id": 14,
    "postal_code": "14140",
    "state_name": "Calvados",
    "query": ""
  },
  {
    "id": 4717,
    "name": "Les Monceaux",
    "state_id": 14,
    "postal_code": "14100",
    "state_name": "Calvados",
    "query": ""
  },
  {
    "id": 4718,
    "name": "Monceaux-en-Bessin",
    "state_id": 14,
    "postal_code": "14400",
    "state_name": "Calvados",
    "query": "https://www.facebook.com/events/search/?q=Gardening&sde=Abq6hpNmijm8kReC4KYmmDP0NuT4IxNliFRnd3vuRZUj8uh4BsVIK3dVq186DripYNQbuwiy5LR0V3y0W_iqLV_W&filters=eyJycF9ldmVudHNfbG9jYXRpb246MCI6IntcIm5hbWVcIjpcImZpbHRlcl9ldmVudHNfbG9jYXRpb25cIixcImFyZ3NcIjpcIjExMzA5NjA0NTM4Mjg1MlwifSJ9"
  },
  {
    "id": 4719,
    "name": "Mondeville",
    "state_id": 14,
    "postal_code": "14120",
    "state_name": "Calvados",
    "query": "https://www.facebook.com/events/search/?q=Gardening&sde=Abq6hpNmijm8kReC4KYmmDP0NuT4IxNliFRnd3vuRZUj8uh4BsVIK3dVq186DripYNQbuwiy5LR0V3y0W_iqLV_W&filters=eyJycF9ldmVudHNfbG9jYXRpb246MCI6IntcIm5hbWVcIjpcImZpbHRlcl9ldmVudHNfbG9jYXRpb25cIixcImFyZ3NcIjpcIjEwODY4NDcyOTE1NDU1MVwifSJ9"
  },
  {
    "id": 4720,
    "name": "Mondrainville",
    "state_id": 14,
    "postal_code": "14210",
    "state_name": "Calvados",
    "query": "https://www.facebook.com/events/search/?q=Gardening&sde=Abq6hpNmijm8kReC4KYmmDP0NuT4IxNliFRnd3vuRZUj8uh4BsVIK3dVq186DripYNQbuwiy5LR0V3y0W_iqLV_W&filters=eyJycF9ldmVudHNfbG9jYXRpb246MCI6IntcIm5hbWVcIjpcImZpbHRlcl9ldmVudHNfbG9jYXRpb25cIixcImFyZ3NcIjpcIjExMjk2MDg2NTM5NzIwM1wifSJ9"
  },
  {
    "id": 4721,
    "name": "Monfréville",
    "state_id": 14,
    "postal_code": "14230",
    "state_name": "Calvados",
    "query": ""
  },
  {
    "id": 4722,
    "name": "Montfiquet",
    "state_id": 14,
    "postal_code": "14490",
    "state_name": "Calvados",
    "query": "https://www.facebook.com/events/search/?q=Gardening&sde=Abq6hpNmijm8kReC4KYmmDP0NuT4IxNliFRnd3vuRZUj8uh4BsVIK3dVq186DripYNQbuwiy5LR0V3y0W_iqLV_W&filters=eyJycF9ldmVudHNfbG9jYXRpb246MCI6IntcIm5hbWVcIjpcImZpbHRlcl9ldmVudHNfbG9jYXRpb25cIixcImFyZ3NcIjpcIjExMTY4NTgwODg1NTU2MlwifSJ9"
  },
  {
    "id": 4723,
    "name": "Montigny",
    "state_id": 14,
    "postal_code": "14210",
    "state_name": "Calvados",
    "query": "https://www.facebook.com/events/search?q=Gardening&sde=Abq6hpNmijm8kReC4KYmmDP0NuT4IxNliFRnd3vuRZUj8uh4BsVIK3dVq186DripYNQbuwiy5LR0V3y0W_iqLV_W&filters=eyJycF9ldmVudHNfbG9jYXRpb246MCI6IntcIm5hbWVcIjpcImZpbHRlcl9ldmVudHNfbG9jYXRpb25cIixcImFyZ3NcIjpcIjEwODQ5NDgzNTg0MTM1MVwifSJ9"
  },
  {
    "id": 4724,
    "name": "Montreuil-en-Auge",
    "state_id": 14,
    "postal_code": "14340",
    "state_name": "Calvados",
    "query": ""
  },
  {
    "id": 4725,
    "name": "Monts-en-Bessin",
    "state_id": 14,
    "postal_code": "14310",
    "state_name": "Calvados",
    "query": "https://www.facebook.com/events/search/?q=Gardening&sde=Abq6hpNmijm8kReC4KYmmDP0NuT4IxNliFRnd3vuRZUj8uh4BsVIK3dVq186DripYNQbuwiy5LR0V3y0W_iqLV_W&filters=eyJycF9ldmVudHNfbG9jYXRpb246MCI6IntcIm5hbWVcIjpcImZpbHRlcl9ldmVudHNfbG9jYXRpb25cIixcImFyZ3NcIjpcIjEwNzM4NDEwNTk2NDgxOVwifSJ9"
  },
  {
    "id": 4726,
    "name": "Morteaux-Coulibœuf",
    "state_id": 14,
    "postal_code": "14620",
    "state_name": "Calvados",
    "query": "https://www.facebook.com/events/search?q=Gardening&sde=Abq6hpNmijm8kReC4KYmmDP0NuT4IxNliFRnd3vuRZUj8uh4BsVIK3dVq186DripYNQbuwiy5LR0V3y0W_iqLV_W&filters=eyJycF9ldmVudHNfbG9jYXRpb246MCI6IntcIm5hbWVcIjpcImZpbHRlcl9ldmVudHNfbG9jYXRpb25cIixcImFyZ3NcIjpcIjEwMzMzMjMzMzA0MjAxM1wifSJ9"
  },
  {
    "id": 4727,
    "name": "Mosles",
    "state_id": 14,
    "postal_code": "14400",
    "state_name": "Calvados",
    "query": "https://www.facebook.com/events/search/?q=Gardening&sde=Abq6hpNmijm8kReC4KYmmDP0NuT4IxNliFRnd3vuRZUj8uh4BsVIK3dVq186DripYNQbuwiy5LR0V3y0W_iqLV_W&filters=eyJycF9ldmVudHNfbG9jYXRpb246MCI6IntcIm5hbWVcIjpcImZpbHRlcl9ldmVudHNfbG9jYXRpb25cIixcImFyZ3NcIjpcIjExNjk0NzczNDk4NTM4N1wifSJ9"
  },
  {
    "id": 4728,
    "name": "Mouen",
    "state_id": 14,
    "postal_code": "14790",
    "state_name": "Calvados",
    "query": "https://www.facebook.com/events/search/?q=Gardening&sde=Abq6hpNmijm8kReC4KYmmDP0NuT4IxNliFRnd3vuRZUj8uh4BsVIK3dVq186DripYNQbuwiy5LR0V3y0W_iqLV_W&filters=eyJycF9ldmVudHNfbG9jYXRpb246MCI6IntcIm5hbWVcIjpcImZpbHRlcl9ldmVudHNfbG9jYXRpb25cIixcImFyZ3NcIjpcIjExMTgyMzc2NTUwNjA2M1wifSJ9"
  },
  {
    "id": 4729,
    "name": "Moulines",
    "state_id": 14,
    "postal_code": "14220",
    "state_name": "Calvados",
    "query": "https://www.facebook.com/events/search/?q=Gardening&sde=Abq6hpNmijm8kReC4KYmmDP0NuT4IxNliFRnd3vuRZUj8uh4BsVIK3dVq186DripYNQbuwiy5LR0V3y0W_iqLV_W&filters=eyJycF9ldmVudHNfbG9jYXRpb246MCI6IntcIm5hbWVcIjpcImZpbHRlcl9ldmVudHNfbG9jYXRpb25cIixcImFyZ3NcIjpcIjExMDE2NDM2MjMzNTExOFwifSJ9"
  },
  {
    "id": 4730,
    "name": "Moult-Chicheboville",
    "state_id": 14,
    "postal_code": "14370",
    "state_name": "Calvados",
    "query": ""
  },
  {
    "id": 4731,
    "name": "Les Moutiers-en-Auge",
    "state_id": 14,
    "postal_code": "14620",
    "state_name": "Calvados",
    "query": ""
  },
  {
    "id": 4732,
    "name": "Les Moutiers-en-Cinglais",
    "state_id": 14,
    "postal_code": "14220",
    "state_name": "Calvados",
    "query": "https://www.facebook.com/events/search/?q=Gardening&sde=Abq6hpNmijm8kReC4KYmmDP0NuT4IxNliFRnd3vuRZUj8uh4BsVIK3dVq186DripYNQbuwiy5LR0V3y0W_iqLV_W&filters=eyJycF9ldmVudHNfbG9jYXRpb246MCI6IntcIm5hbWVcIjpcImZpbHRlcl9ldmVudHNfbG9jYXRpb25cIixcImFyZ3NcIjpcIjExNjY4NDMwMTY3ODY3M1wifSJ9"
  },
  {
    "id": 4733,
    "name": "Moyaux",
    "state_id": 14,
    "postal_code": "14590",
    "state_name": "Calvados",
    "query": "https://www.facebook.com/events/search/?q=Gardening&sde=Abq6hpNmijm8kReC4KYmmDP0NuT4IxNliFRnd3vuRZUj8uh4BsVIK3dVq186DripYNQbuwiy5LR0V3y0W_iqLV_W&filters=eyJycF9ldmVudHNfbG9jYXRpb246MCI6IntcIm5hbWVcIjpcImZpbHRlcl9ldmVudHNfbG9jYXRpb25cIixcImFyZ3NcIjpcIjExMTMxNzA3ODg5NzA3OVwifSJ9"
  },
  {
    "id": 4734,
    "name": "Mutrécy",
    "state_id": 14,
    "postal_code": "14220",
    "state_name": "Calvados",
    "query": "https://www.facebook.com/events/search/?q=Gardening&sde=Abq6hpNmijm8kReC4KYmmDP0NuT4IxNliFRnd3vuRZUj8uh4BsVIK3dVq186DripYNQbuwiy5LR0V3y0W_iqLV_W&filters=eyJycF9ldmVudHNfbG9jYXRpb246MCI6IntcIm5hbWVcIjpcImZpbHRlcl9ldmVudHNfbG9jYXRpb25cIixcImFyZ3NcIjpcIjEwMzE0ODIzNjM5MTU2MFwifSJ9"
  },
  {
    "id": 4735,
    "name": "Nonant",
    "state_id": 14,
    "postal_code": "14400",
    "state_name": "Calvados",
    "query": "https://www.facebook.com/events/search/?q=Gardening&sde=Abq6hpNmijm8kReC4KYmmDP0NuT4IxNliFRnd3vuRZUj8uh4BsVIK3dVq186DripYNQbuwiy5LR0V3y0W_iqLV_W&filters=eyJycF9ldmVudHNfbG9jYXRpb246MCI6IntcIm5hbWVcIjpcImZpbHRlcl9ldmVudHNfbG9jYXRpb25cIixcImFyZ3NcIjpcIjEwNzMyNDI0NTk3MjI1M1wifSJ9"
  },
  {
    "id": 4736,
    "name": "Norolles",
    "state_id": 14,
    "postal_code": "14100",
    "state_name": "Calvados",
    "query": ""
  },
  {
    "id": 4737,
    "name": "Noron-l'Abbaye",
    "state_id": 14,
    "postal_code": "14700",
    "state_name": "Calvados",
    "query": ""
  },
  {
    "id": 4738,
    "name": "Noron-la-Poterie",
    "state_id": 14,
    "postal_code": "14490",
    "state_name": "Calvados",
    "query": "https://www.facebook.com/events/search?q=Gardening&sde=Abq6hpNmijm8kReC4KYmmDP0NuT4IxNliFRnd3vuRZUj8uh4BsVIK3dVq186DripYNQbuwiy5LR0V3y0W_iqLV_W&filters=eyJycF9ldmVudHNfbG9jYXRpb246MCI6IntcIm5hbWVcIjpcImZpbHRlcl9ldmVudHNfbG9jYXRpb25cIixcImFyZ3NcIjpcIjExNTU3OTk4MTc5MTM3NFwifSJ9"
  },
  {
    "id": 4739,
    "name": "Norrey-en-Auge",
    "state_id": 14,
    "postal_code": "14620",
    "state_name": "Calvados",
    "query": ""
  },
  {
    "id": 4740,
    "name": "Notre-Dame-de-Livaye",
    "state_id": 14,
    "postal_code": "14340",
    "state_name": "Calvados",
    "query": ""
  },
  {
    "id": 4741,
    "name": "Notre-Dame-d'Estrées-Corbon",
    "state_id": 14,
    "postal_code": "14340",
    "state_name": "Calvados",
    "query": ""
  },
  {
    "id": 4742,
    "name": "Val d'Arry",
    "state_id": 14,
    "postal_code": "14210",
    "state_name": "Calvados",
    "query": ""
  },
  {
    "id": 4743,
    "name": "Olendon",
    "state_id": 14,
    "postal_code": "14170",
    "state_name": "Calvados",
    "query": ""
  },
  {
    "id": 4744,
    "name": "Orbec",
    "state_id": 14,
    "postal_code": "14290",
    "state_name": "Calvados",
    "query": "https://www.facebook.com/events/search/?q=Gardening&sde=Abq6hpNmijm8kReC4KYmmDP0NuT4IxNliFRnd3vuRZUj8uh4BsVIK3dVq186DripYNQbuwiy5LR0V3y0W_iqLV_W&filters=eyJycF9ldmVudHNfbG9jYXRpb246MCI6IntcIm5hbWVcIjpcImZpbHRlcl9ldmVudHNfbG9jYXRpb25cIixcImFyZ3NcIjpcIjEwNzQ3NTMxMjYyMjg5MlwifSJ9"
  },
  {
    "id": 4745,
    "name": "Osmanville",
    "state_id": 14,
    "postal_code": "14230",
    "state_name": "Calvados",
    "query": "https://www.facebook.com/events/search/?q=Gardening&sde=Abq6hpNmijm8kReC4KYmmDP0NuT4IxNliFRnd3vuRZUj8uh4BsVIK3dVq186DripYNQbuwiy5LR0V3y0W_iqLV_W&filters=eyJycF9ldmVudHNfbG9jYXRpb246MCI6IntcIm5hbWVcIjpcImZpbHRlcl9ldmVudHNfbG9jYXRpb25cIixcImFyZ3NcIjpcIjExMzQyNzE3NTM1MDgyOFwifSJ9"
  },
  {
    "id": 4746,
    "name": "Ouézy",
    "state_id": 14,
    "postal_code": "14270",
    "state_name": "Calvados",
    "query": "https://www.facebook.com/events/search/?q=Gardening&sde=Abq6hpNmijm8kReC4KYmmDP0NuT4IxNliFRnd3vuRZUj8uh4BsVIK3dVq186DripYNQbuwiy5LR0V3y0W_iqLV_W&filters=eyJycF9ldmVudHNfbG9jYXRpb246MCI6IntcIm5hbWVcIjpcImZpbHRlcl9ldmVudHNfbG9jYXRpb25cIixcImFyZ3NcIjpcIjExNjk2NzUzNDk4MDc5MlwifSJ9"
  },
  {
    "id": 4747,
    "name": "Ouffières",
    "state_id": 14,
    "postal_code": "14220",
    "state_name": "Calvados",
    "query": "https://www.facebook.com/events/search/?q=Gardening&sde=Abq6hpNmijm8kReC4KYmmDP0NuT4IxNliFRnd3vuRZUj8uh4BsVIK3dVq186DripYNQbuwiy5LR0V3y0W_iqLV_W&filters=eyJycF9ldmVudHNfbG9jYXRpb246MCI6IntcIm5hbWVcIjpcImZpbHRlcl9ldmVudHNfbG9jYXRpb25cIixcImFyZ3NcIjpcIjEwNzM1NjkwMjYzMjk2NVwifSJ9"
  },
  {
    "id": 4748,
    "name": "Ouilly-du-Houley",
    "state_id": 14,
    "postal_code": "14590",
    "state_name": "Calvados",
    "query": "https://www.facebook.com/events/search/?q=Gardening&sde=Abq6hpNmijm8kReC4KYmmDP0NuT4IxNliFRnd3vuRZUj8uh4BsVIK3dVq186DripYNQbuwiy5LR0V3y0W_iqLV_W&filters=eyJycF9ldmVudHNfbG9jYXRpb246MCI6IntcIm5hbWVcIjpcImZpbHRlcl9ldmVudHNfbG9jYXRpb25cIixcImFyZ3NcIjpcIjEwOTQzNTMwNTc1NTExN1wifSJ9"
  },
  {
    "id": 4749,
    "name": "Ouilly-le-Tesson",
    "state_id": 14,
    "postal_code": "14190",
    "state_name": "Calvados",
    "query": "https://www.facebook.com/events/search/?q=Gardening&sde=Abq6hpNmijm8kReC4KYmmDP0NuT4IxNliFRnd3vuRZUj8uh4BsVIK3dVq186DripYNQbuwiy5LR0V3y0W_iqLV_W&filters=eyJycF9ldmVudHNfbG9jYXRpb246MCI6IntcIm5hbWVcIjpcImZpbHRlcl9ldmVudHNfbG9jYXRpb25cIixcImFyZ3NcIjpcIjExMTM3NzQ0ODg4MzU3MFwifSJ9"
  },
  {
    "id": 4750,
    "name": "Ouilly-le-Vicomte",
    "state_id": 14,
    "postal_code": "14100",
    "state_name": "Calvados",
    "query": "https://www.facebook.com/events/search/?q=Gardening&sde=Abq6hpNmijm8kReC4KYmmDP0NuT4IxNliFRnd3vuRZUj8uh4BsVIK3dVq186DripYNQbuwiy5LR0V3y0W_iqLV_W&filters=eyJycF9ldmVudHNfbG9jYXRpb246MCI6IntcIm5hbWVcIjpcImZpbHRlcl9ldmVudHNfbG9jYXRpb25cIixcImFyZ3NcIjpcIjEwMzM4Mjk5NjM3MDAxMlwifSJ9"
  },
  {
    "id": 4751,
    "name": "Ouistreham",
    "state_id": 14,
    "postal_code": "14150",
    "state_name": "Calvados",
    "query": "https://www.facebook.com/events/search/?q=Gardening&sde=Abq6hpNmijm8kReC4KYmmDP0NuT4IxNliFRnd3vuRZUj8uh4BsVIK3dVq186DripYNQbuwiy5LR0V3y0W_iqLV_W&filters=eyJycF9ldmVudHNfbG9jYXRpb246MCI6IntcIm5hbWVcIjpcImZpbHRlcl9ldmVudHNfbG9jYXRpb25cIixcImFyZ3NcIjpcIjExMTg3NDkxMjE2MTc5MlwifSJ9"
  },
  {
    "id": 4752,
    "name": "Parfouru-sur-Odon",
    "state_id": 14,
    "postal_code": "14310",
    "state_name": "Calvados",
    "query": ""
  },
  {
    "id": 4753,
    "name": "Pennedepie",
    "state_id": 14,
    "postal_code": "14600",
    "state_name": "Calvados",
    "query": "https://www.facebook.com/events/search/?q=Gardening&sde=Abq6hpNmijm8kReC4KYmmDP0NuT4IxNliFRnd3vuRZUj8uh4BsVIK3dVq186DripYNQbuwiy5LR0V3y0W_iqLV_W&filters=eyJycF9ldmVudHNfbG9jYXRpb246MCI6IntcIm5hbWVcIjpcImZpbHRlcl9ldmVudHNfbG9jYXRpb25cIixcImFyZ3NcIjpcIjExMTEwNzU1NTU3Njg5M1wifSJ9"
  },
  {
    "id": 4754,
    "name": "Périers-en-Auge",
    "state_id": 14,
    "postal_code": "14160",
    "state_name": "Calvados",
    "query": ""
  },
  {
    "id": 4755,
    "name": "Périers-sur-le-Dan",
    "state_id": 14,
    "postal_code": "14112",
    "state_name": "Calvados",
    "query": "https://www.facebook.com/events/search/?q=Gardening&sde=Abq6hpNmijm8kReC4KYmmDP0NuT4IxNliFRnd3vuRZUj8uh4BsVIK3dVq186DripYNQbuwiy5LR0V3y0W_iqLV_W&filters=eyJycF9ldmVudHNfbG9jYXRpb246MCI6IntcIm5hbWVcIjpcImZpbHRlcl9ldmVudHNfbG9jYXRpb25cIixcImFyZ3NcIjpcIjExMjc1NTA0NTQxMDE2NVwifSJ9"
  },
  {
    "id": 4756,
    "name": "Périgny",
    "state_id": 14,
    "postal_code": "14770",
    "state_name": "Calvados",
    "query": "https://www.facebook.com/events/search/?q=Gardening&sde=Abq6hpNmijm8kReC4KYmmDP0NuT4IxNliFRnd3vuRZUj8uh4BsVIK3dVq186DripYNQbuwiy5LR0V3y0W_iqLV_W&filters=eyJycF9ldmVudHNfbG9jYXRpb246MCI6IntcIm5hbWVcIjpcImZpbHRlcl9ldmVudHNfbG9jYXRpb25cIixcImFyZ3NcIjpcIjExMzIzMDMxODY5MzM0NFwifSJ9"
  },
  {
    "id": 4757,
    "name": "Perrières",
    "state_id": 14,
    "postal_code": "14170",
    "state_name": "Calvados",
    "query": "https://www.facebook.com/events/search/?q=Gardening&sde=Abq6hpNmijm8kReC4KYmmDP0NuT4IxNliFRnd3vuRZUj8uh4BsVIK3dVq186DripYNQbuwiy5LR0V3y0W_iqLV_W&filters=eyJycF9ldmVudHNfbG9jYXRpb246MCI6IntcIm5hbWVcIjpcImZpbHRlcl9ldmVudHNfbG9jYXRpb25cIixcImFyZ3NcIjpcIjExMjk2OTEyMjA1NTEzOFwifSJ9"
  },
  {
    "id": 4758,
    "name": "Pertheville-Ners",
    "state_id": 14,
    "postal_code": "14700",
    "state_name": "Calvados",
    "query": "https://www.facebook.com/events/search/?q=Gardening&sde=Abq6hpNmijm8kReC4KYmmDP0NuT4IxNliFRnd3vuRZUj8uh4BsVIK3dVq186DripYNQbuwiy5LR0V3y0W_iqLV_W&filters=eyJycF9ldmVudHNfbG9jYXRpb246MCI6IntcIm5hbWVcIjpcImZpbHRlcl9ldmVudHNfbG9jYXRpb25cIixcImFyZ3NcIjpcIjEwOTQ3MzcxNTc1MTI4OFwifSJ9"
  },
  {
    "id": 4759,
    "name": "Petiville",
    "state_id": 14,
    "postal_code": "14390",
    "state_name": "Calvados",
    "query": "https://www.facebook.com/events/search/?q=Gardening&sde=Abq6hpNmijm8kReC4KYmmDP0NuT4IxNliFRnd3vuRZUj8uh4BsVIK3dVq186DripYNQbuwiy5LR0V3y0W_iqLV_W&filters=eyJycF9ldmVudHNfbG9jYXRpb246MCI6IntcIm5hbWVcIjpcImZpbHRlcl9ldmVudHNfbG9jYXRpb25cIixcImFyZ3NcIjpcIjEwNzA1OTk2OTMyNTIyNFwifSJ9"
  },
  {
    "id": 4760,
    "name": "Pierrefitte-en-Auge",
    "state_id": 14,
    "postal_code": "14130",
    "state_name": "Calvados",
    "query": ""
  },
  {
    "id": 4761,
    "name": "Pierrefitte-en-Cinglais",
    "state_id": 14,
    "postal_code": "14690",
    "state_name": "Calvados",
    "query": "https://www.facebook.com/events/search/?q=Gardening&sde=Abq6hpNmijm8kReC4KYmmDP0NuT4IxNliFRnd3vuRZUj8uh4BsVIK3dVq186DripYNQbuwiy5LR0V3y0W_iqLV_W&filters=eyJycF9ldmVudHNfbG9jYXRpb246MCI6IntcIm5hbWVcIjpcImZpbHRlcl9ldmVudHNfbG9jYXRpb25cIixcImFyZ3NcIjpcIjExMjc3MzU2MjA4MTUzOFwifSJ9"
  },
  {
    "id": 4762,
    "name": "Pierrepont",
    "state_id": 14,
    "postal_code": "14690",
    "state_name": "Calvados",
    "query": "https://www.facebook.com/events/search/?q=Gardening&sde=Abq6hpNmijm8kReC4KYmmDP0NuT4IxNliFRnd3vuRZUj8uh4BsVIK3dVq186DripYNQbuwiy5LR0V3y0W_iqLV_W&filters=eyJycF9ldmVudHNfbG9jYXRpb246MCI6IntcIm5hbWVcIjpcImZpbHRlcl9ldmVudHNfbG9jYXRpb25cIixcImFyZ3NcIjpcIjEwNjQ3Njg2NjA1MjY1NFwifSJ9"
  },
  {
    "id": 4763,
    "name": "Le Pin",
    "state_id": 14,
    "postal_code": "14590",
    "state_name": "Calvados",
    "query": "https://www.facebook.com/events/search/?q=Gardening&sde=Abq6hpNmijm8kReC4KYmmDP0NuT4IxNliFRnd3vuRZUj8uh4BsVIK3dVq186DripYNQbuwiy5LR0V3y0W_iqLV_W&filters=eyJycF9ldmVudHNfbG9jYXRpb246MCI6IntcIm5hbWVcIjpcImZpbHRlcl9ldmVudHNfbG9jYXRpb25cIixcImFyZ3NcIjpcIjExMjk0MjA1NTM5MTE3NlwifSJ9"
  },
  {
    "id": 4764,
    "name": "Planquery",
    "state_id": 14,
    "postal_code": "14490",
    "state_name": "Calvados",
    "query": "https://www.facebook.com/events/search/?q=Gardening&sde=Abq6hpNmijm8kReC4KYmmDP0NuT4IxNliFRnd3vuRZUj8uh4BsVIK3dVq186DripYNQbuwiy5LR0V3y0W_iqLV_W&filters=eyJycF9ldmVudHNfbG9jYXRpb246MCI6IntcIm5hbWVcIjpcImZpbHRlcl9ldmVudHNfbG9jYXRpb25cIixcImFyZ3NcIjpcIjExMTIwNjg0NTU2NjIzNlwifSJ9"
  },
  {
    "id": 4765,
    "name": "Plumetot",
    "state_id": 14,
    "postal_code": "14440",
    "state_name": "Calvados",
    "query": "https://www.facebook.com/events/search/?q=Gardening&sde=Abq6hpNmijm8kReC4KYmmDP0NuT4IxNliFRnd3vuRZUj8uh4BsVIK3dVq186DripYNQbuwiy5LR0V3y0W_iqLV_W&filters=eyJycF9ldmVudHNfbG9jYXRpb246MCI6IntcIm5hbWVcIjpcImZpbHRlcl9ldmVudHNfbG9jYXRpb25cIixcImFyZ3NcIjpcIjExMTcwNDg5NTUxNzE0OVwifSJ9"
  },
  {
    "id": 4766,
    "name": "La Pommeraye",
    "state_id": 14,
    "postal_code": "14690",
    "state_name": "Calvados",
    "query": ""
  },
  {
    "id": 4767,
    "name": "Pont-Bellanger",
    "state_id": 14,
    "postal_code": "14380",
    "state_name": "Calvados",
    "query": ""
  },
  {
    "id": 4768,
    "name": "Pontécoulant",
    "state_id": 14,
    "postal_code": "14110",
    "state_name": "Calvados",
    "query": ""
  },
  {
    "id": 4769,
    "name": "Pont-l'Évêque",
    "state_id": 14,
    "postal_code": "14130",
    "state_name": "Calvados",
    "query": "https://www.facebook.com/events/search/?q=Gardening&sde=Abq6hpNmijm8kReC4KYmmDP0NuT4IxNliFRnd3vuRZUj8uh4BsVIK3dVq186DripYNQbuwiy5LR0V3y0W_iqLV_W&filters=eyJycF9ldmVudHNfbG9jYXRpb246MCI6IntcIm5hbWVcIjpcImZpbHRlcl9ldmVudHNfbG9jYXRpb25cIixcImFyZ3NcIjpcIjEwNDg0ODYwMjg4NjE5MVwifSJ9"
  },
  {
    "id": 4770,
    "name": "Port-en-Bessin-Huppain",
    "state_id": 14,
    "postal_code": "14520",
    "state_name": "Calvados",
    "query": "https://www.facebook.com/events/search/?q=Gardening&sde=Abq6hpNmijm8kReC4KYmmDP0NuT4IxNliFRnd3vuRZUj8uh4BsVIK3dVq186DripYNQbuwiy5LR0V3y0W_iqLV_W&filters=eyJycF9ldmVudHNfbG9jYXRpb246MCI6IntcIm5hbWVcIjpcImZpbHRlcl9ldmVudHNfbG9jYXRpb25cIixcImFyZ3NcIjpcIjEwNjQyMjE0NjA1ODk2NVwifSJ9"
  },
  {
    "id": 4771,
    "name": "Potigny",
    "state_id": 14,
    "postal_code": "14420",
    "state_name": "Calvados",
    "query": "https://www.facebook.com/events/search/?q=Gardening&sde=Abq6hpNmijm8kReC4KYmmDP0NuT4IxNliFRnd3vuRZUj8uh4BsVIK3dVq186DripYNQbuwiy5LR0V3y0W_iqLV_W&filters=eyJycF9ldmVudHNfbG9jYXRpb246MCI6IntcIm5hbWVcIjpcImZpbHRlcl9ldmVudHNfbG9jYXRpb25cIixcImFyZ3NcIjpcIjExMzU0MDQzMTk5ODIwN1wifSJ9"
  },
  {
    "id": 4772,
    "name": "Préaux-Bocage",
    "state_id": 14,
    "postal_code": "14210",
    "state_name": "Calvados",
    "query": ""
  },
  {
    "id": 4773,
    "name": "Le Pré-d'Auge",
    "state_id": 14,
    "postal_code": "14340",
    "state_name": "Calvados",
    "query": "https://www.facebook.com/events/search/?q=Gardening&sde=Abq6hpNmijm8kReC4KYmmDP0NuT4IxNliFRnd3vuRZUj8uh4BsVIK3dVq186DripYNQbuwiy5LR0V3y0W_iqLV_W&filters=eyJycF9ldmVudHNfbG9jYXRpb246MCI6IntcIm5hbWVcIjpcImZpbHRlcl9ldmVudHNfbG9jYXRpb25cIixcImFyZ3NcIjpcIjExMjcyNTEwMjA3OTUxNVwifSJ9"
  },
  {
    "id": 4774,
    "name": "Prêtreville",
    "state_id": 14,
    "postal_code": "14140",
    "state_name": "Calvados",
    "query": "https://www.facebook.com/events/search/?q=Gardening&sde=Abq6hpNmijm8kReC4KYmmDP0NuT4IxNliFRnd3vuRZUj8uh4BsVIK3dVq186DripYNQbuwiy5LR0V3y0W_iqLV_W&filters=eyJycF9ldmVudHNfbG9jYXRpb246MCI6IntcIm5hbWVcIjpcImZpbHRlcl9ldmVudHNfbG9jYXRpb25cIixcImFyZ3NcIjpcIjEwOTU5NDM1NTczODUyMlwifSJ9"
  },
  {
    "id": 4775,
    "name": "Putot-en-Auge",
    "state_id": 14,
    "postal_code": "14430",
    "state_name": "Calvados",
    "query": "https://www.facebook.com/events/search/?q=Gardening&sde=Abq6hpNmijm8kReC4KYmmDP0NuT4IxNliFRnd3vuRZUj8uh4BsVIK3dVq186DripYNQbuwiy5LR0V3y0W_iqLV_W&filters=eyJycF9ldmVudHNfbG9jYXRpb246MCI6IntcIm5hbWVcIjpcImZpbHRlcl9ldmVudHNfbG9jYXRpb25cIixcImFyZ3NcIjpcIjEwODk2NDE3OTEzNzM3MlwifSJ9"
  },
  {
    "id": 4776,
    "name": "Belle Vie en Auge",
    "state_id": 14,
    "postal_code": "14270",
    "state_name": "Calvados",
    "query": ""
  },
  {
    "id": 4777,
    "name": "Quetteville",
    "state_id": 14,
    "postal_code": "14130",
    "state_name": "Calvados",
    "query": ""
  },
  {
    "id": 4778,
    "name": "Ranchy",
    "state_id": 14,
    "postal_code": "14400",
    "state_name": "Calvados",
    "query": ""
  },
  {
    "id": 4779,
    "name": "Ranville",
    "state_id": 14,
    "postal_code": "14860",
    "state_name": "Calvados",
    "query": "https://www.facebook.com/events/search/?q=Gardening&sde=Abq6hpNmijm8kReC4KYmmDP0NuT4IxNliFRnd3vuRZUj8uh4BsVIK3dVq186DripYNQbuwiy5LR0V3y0W_iqLV_W&filters=eyJycF9ldmVudHNfbG9jYXRpb246MCI6IntcIm5hbWVcIjpcImZpbHRlcl9ldmVudHNfbG9jYXRpb25cIixcImFyZ3NcIjpcIjExMjYyNzk5ODc1Njc5MlwifSJ9"
  },
  {
    "id": 4780,
    "name": "Rapilly",
    "state_id": 14,
    "postal_code": "14690",
    "state_name": "Calvados",
    "query": ""
  },
  {
    "id": 4781,
    "name": "Repentigny",
    "state_id": 14,
    "postal_code": "14340",
    "state_name": "Calvados",
    "query": ""
  },
  {
    "id": 4782,
    "name": "Reux",
    "state_id": 14,
    "postal_code": "14130",
    "state_name": "Calvados",
    "query": "https://www.facebook.com/events/search/?q=Gardening&sde=Abq6hpNmijm8kReC4KYmmDP0NuT4IxNliFRnd3vuRZUj8uh4BsVIK3dVq186DripYNQbuwiy5LR0V3y0W_iqLV_W&filters=eyJycF9ldmVudHNfbG9jYXRpb246MCI6IntcIm5hbWVcIjpcImZpbHRlcl9ldmVudHNfbG9jYXRpb25cIixcImFyZ3NcIjpcIjExMDUyNDgzODk3NDQ5MVwifSJ9"
  },
  {
    "id": 4783,
    "name": "Reviers",
    "state_id": 14,
    "postal_code": "14470",
    "state_name": "Calvados",
    "query": "https://www.facebook.com/events/search/?q=Gardening&sde=Abq6hpNmijm8kReC4KYmmDP0NuT4IxNliFRnd3vuRZUj8uh4BsVIK3dVq186DripYNQbuwiy5LR0V3y0W_iqLV_W&filters=eyJycF9ldmVudHNfbG9jYXRpb246MCI6IntcIm5hbWVcIjpcImZpbHRlcl9ldmVudHNfbG9jYXRpb25cIixcImFyZ3NcIjpcIjExNjE4ODA0ODM5NjYxOVwifSJ9"
  },
  {
    "id": 4784,
    "name": "La Rivière-Saint-Sauveur",
    "state_id": 14,
    "postal_code": "14600",
    "state_name": "Calvados",
    "query": "https://www.facebook.com/events/search/?q=Gardening&sde=Abq6hpNmijm8kReC4KYmmDP0NuT4IxNliFRnd3vuRZUj8uh4BsVIK3dVq186DripYNQbuwiy5LR0V3y0W_iqLV_W&filters=eyJycF9ldmVudHNfbG9jYXRpb246MCI6IntcIm5hbWVcIjpcImZpbHRlcl9ldmVudHNfbG9jYXRpb25cIixcImFyZ3NcIjpcIjExMTY1ODU2NTUyMDk0MVwifSJ9"
  },
  {
    "id": 4785,
    "name": "Castine-en-Plaine",
    "state_id": 14,
    "postal_code": "14540",
    "state_name": "Calvados",
    "query": ""
  },
  {
    "id": 4786,
    "name": "Rocques",
    "state_id": 14,
    "postal_code": "14100",
    "state_name": "Calvados",
    "query": "https://www.facebook.com/events/search/?q=Gardening&sde=Abq6hpNmijm8kReC4KYmmDP0NuT4IxNliFRnd3vuRZUj8uh4BsVIK3dVq186DripYNQbuwiy5LR0V3y0W_iqLV_W&filters=eyJycF9ldmVudHNfbG9jYXRpb246MCI6IntcIm5hbWVcIjpcImZpbHRlcl9ldmVudHNfbG9jYXRpb25cIixcImFyZ3NcIjpcIjEwNzQ3MTc2MjYyMzAxN1wifSJ9"
  },
  {
    "id": 4787,
    "name": "La Roque-Baignard",
    "state_id": 14,
    "postal_code": "14340",
    "state_name": "Calvados",
    "query": ""
  },
  {
    "id": 4788,
    "name": "Rosel",
    "state_id": 14,
    "postal_code": "14740",
    "state_name": "Calvados",
    "query": ""
  },
  {
    "id": 4789,
    "name": "Rots",
    "state_id": 14,
    "postal_code": "14740",
    "state_name": "Calvados",
    "query": "https://www.facebook.com/events/search/?q=Gardening&sde=Abq6hpNmijm8kReC4KYmmDP0NuT4IxNliFRnd3vuRZUj8uh4BsVIK3dVq186DripYNQbuwiy5LR0V3y0W_iqLV_W&filters=eyJycF9ldmVudHNfbG9jYXRpb246MCI6IntcIm5hbWVcIjpcImZpbHRlcl9ldmVudHNfbG9jYXRpb25cIixcImFyZ3NcIjpcIjEwNzE5MTI1NTk4NTY1NlwifSJ9"
  },
  {
    "id": 4790,
    "name": "Rouvres",
    "state_id": 14,
    "postal_code": "14190",
    "state_name": "Calvados",
    "query": "https://www.facebook.com/events/search/?q=Gardening&sde=Abq6hpNmijm8kReC4KYmmDP0NuT4IxNliFRnd3vuRZUj8uh4BsVIK3dVq186DripYNQbuwiy5LR0V3y0W_iqLV_W&filters=eyJycF9ldmVudHNfbG9jYXRpb246MCI6IntcIm5hbWVcIjpcImZpbHRlcl9ldmVudHNfbG9jYXRpb25cIixcImFyZ3NcIjpcIjEwNzEwODQxOTMxOTQ0MFwifSJ9"
  },
  {
    "id": 4791,
    "name": "Rubercy",
    "state_id": 14,
    "postal_code": "14710",
    "state_name": "Calvados",
    "query": "https://www.facebook.com/events/search/?q=Gardening&sde=Abq6hpNmijm8kReC4KYmmDP0NuT4IxNliFRnd3vuRZUj8uh4BsVIK3dVq186DripYNQbuwiy5LR0V3y0W_iqLV_W&filters=eyJycF9ldmVudHNfbG9jYXRpb246MCI6IntcIm5hbWVcIjpcImZpbHRlcl9ldmVudHNfbG9jYXRpb25cIixcImFyZ3NcIjpcIjExNTkyODU0MTc1MTk0OVwifSJ9"
  },
  {
    "id": 4792,
    "name": "Rumesnil",
    "state_id": 14,
    "postal_code": "14340",
    "state_name": "Calvados",
    "query": ""
  },
  {
    "id": 4793,
    "name": "Ryes",
    "state_id": 14,
    "postal_code": "14400",
    "state_name": "Calvados",
    "query": ""
  },
  {
    "id": 4794,
    "name": "Le Castelet",
    "state_id": 14,
    "postal_code": "14540",
    "state_name": "Calvados",
    "query": ""
  },
  {
    "id": 4795,
    "name": "Saint-André-d'Hébertot",
    "state_id": 14,
    "postal_code": "14130",
    "state_name": "Calvados",
    "query": "https://www.facebook.com/events/search/?q=Gardening&sde=Abq6hpNmijm8kReC4KYmmDP0NuT4IxNliFRnd3vuRZUj8uh4BsVIK3dVq186DripYNQbuwiy5LR0V3y0W_iqLV_W&filters=eyJycF9ldmVudHNfbG9jYXRpb246MCI6IntcIm5hbWVcIjpcImZpbHRlcl9ldmVudHNfbG9jYXRpb25cIixcImFyZ3NcIjpcIjEwMzEwMzcyMzA2MjczNVwifSJ9"
  },
  {
    "id": 4796,
    "name": "Saint-André-sur-Orne",
    "state_id": 14,
    "postal_code": "14320",
    "state_name": "Calvados",
    "query": "https://www.facebook.com/events/search/?q=Gardening&sde=Abq6hpNmijm8kReC4KYmmDP0NuT4IxNliFRnd3vuRZUj8uh4BsVIK3dVq186DripYNQbuwiy5LR0V3y0W_iqLV_W&filters=eyJycF9ldmVudHNfbG9jYXRpb246MCI6IntcIm5hbWVcIjpcImZpbHRlcl9ldmVudHNfbG9jYXRpb25cIixcImFyZ3NcIjpcIjEwODYwMDUyMjQ5ODA1NFwifSJ9"
  },
  {
    "id": 4797,
    "name": "Saint-Arnoult",
    "state_id": 14,
    "postal_code": "14800",
    "state_name": "Calvados",
    "query": "https://www.facebook.com/events/search?q=Gardening&sde=Abq6hpNmijm8kReC4KYmmDP0NuT4IxNliFRnd3vuRZUj8uh4BsVIK3dVq186DripYNQbuwiy5LR0V3y0W_iqLV_W&filters=eyJycF9ldmVudHNfbG9jYXRpb246MCI6IntcIm5hbWVcIjpcImZpbHRlcl9ldmVudHNfbG9jYXRpb25cIixcImFyZ3NcIjpcIjExMDI4ODUwODk4OTU0MlwifSJ9"
  },
  {
    "id": 4798,
    "name": "Saint-Aubin-d'Arquenay",
    "state_id": 14,
    "postal_code": "14970",
    "state_name": "Calvados",
    "query": "https://www.facebook.com/events/search/?q=Gardening&sde=Abq6hpNmijm8kReC4KYmmDP0NuT4IxNliFRnd3vuRZUj8uh4BsVIK3dVq186DripYNQbuwiy5LR0V3y0W_iqLV_W&filters=eyJycF9ldmVudHNfbG9jYXRpb246MCI6IntcIm5hbWVcIjpcImZpbHRlcl9ldmVudHNfbG9jYXRpb25cIixcImFyZ3NcIjpcIjEwOTAzMTg5NTc5ODE2NVwifSJ9"
  },
  {
    "id": 4799,
    "name": "Saint-Aubin-des-Bois",
    "state_id": 14,
    "postal_code": "14380",
    "state_name": "Calvados",
    "query": "https://www.facebook.com/events/search/?q=Gardening&sde=Abq6hpNmijm8kReC4KYmmDP0NuT4IxNliFRnd3vuRZUj8uh4BsVIK3dVq186DripYNQbuwiy5LR0V3y0W_iqLV_W&filters=eyJycF9ldmVudHNfbG9jYXRpb246MCI6IntcIm5hbWVcIjpcImZpbHRlcl9ldmVudHNfbG9jYXRpb25cIixcImFyZ3NcIjpcIjEwODkxNTIxOTEzNjkwNFwifSJ9"
  },
  {
    "id": 4800,
    "name": "Saint-Aubin-sur-Mer",
    "state_id": 14,
    "postal_code": "14750",
    "state_name": "Calvados",
    "query": "https://www.facebook.com/events/search/?q=Gardening&sde=Abq6hpNmijm8kReC4KYmmDP0NuT4IxNliFRnd3vuRZUj8uh4BsVIK3dVq186DripYNQbuwiy5LR0V3y0W_iqLV_W&filters=eyJycF9ldmVudHNfbG9jYXRpb246MCI6IntcIm5hbWVcIjpcImZpbHRlcl9ldmVudHNfbG9jYXRpb25cIixcImFyZ3NcIjpcIjEwMDI0NjQ5MzM1MTAxOVwifSJ9"
  },
  {
    "id": 4801,
    "name": "Saint-Benoît-d'Hébertot",
    "state_id": 14,
    "postal_code": "14130",
    "state_name": "Calvados",
    "query": ""
  },
  {
    "id": 4802,
    "name": "Saint-Côme-de-Fresné",
    "state_id": 14,
    "postal_code": "14960",
    "state_name": "Calvados",
    "query": "https://www.facebook.com/events/search/?q=Gardening&sde=Abq6hpNmijm8kReC4KYmmDP0NuT4IxNliFRnd3vuRZUj8uh4BsVIK3dVq186DripYNQbuwiy5LR0V3y0W_iqLV_W&filters=eyJycF9ldmVudHNfbG9jYXRpb246MCI6IntcIm5hbWVcIjpcImZpbHRlcl9ldmVudHNfbG9jYXRpb25cIixcImFyZ3NcIjpcIjExMjU0NDkzMjA5MDY1NFwifSJ9"
  },
  {
    "id": 4803,
    "name": "Saint-Contest",
    "state_id": 14,
    "postal_code": "14280",
    "state_name": "Calvados",
    "query": "https://www.facebook.com/events/search/?q=Gardening&sde=Abq6hpNmijm8kReC4KYmmDP0NuT4IxNliFRnd3vuRZUj8uh4BsVIK3dVq186DripYNQbuwiy5LR0V3y0W_iqLV_W&filters=eyJycF9ldmVudHNfbG9jYXRpb246MCI6IntcIm5hbWVcIjpcImZpbHRlcl9ldmVudHNfbG9jYXRpb25cIixcImFyZ3NcIjpcIjEwNTYzMDUxOTQ3MTUzNFwifSJ9"
  },
  {
    "id": 4804,
    "name": "Sainte-Croix-sur-Mer",
    "state_id": 14,
    "postal_code": "14480",
    "state_name": "Calvados",
    "query": ""
  },
  {
    "id": 4805,
    "name": "Valorbiquet",
    "state_id": 14,
    "postal_code": "14290",
    "state_name": "Calvados",
    "query": ""
  },
  {
    "id": 4806,
    "name": "Saint-Denis-de-Mailloc",
    "state_id": 14,
    "postal_code": "14100",
    "state_name": "Calvados",
    "query": ""
  },
  {
    "id": 4807,
    "name": "Saint-Denis-de-Méré",
    "state_id": 14,
    "postal_code": "14110",
    "state_name": "Calvados",
    "query": "https://www.facebook.com/events/search/?q=Gardening&sde=Abq6hpNmijm8kReC4KYmmDP0NuT4IxNliFRnd3vuRZUj8uh4BsVIK3dVq186DripYNQbuwiy5LR0V3y0W_iqLV_W&filters=eyJycF9ldmVudHNfbG9jYXRpb246MCI6IntcIm5hbWVcIjpcImZpbHRlcl9ldmVudHNfbG9jYXRpb25cIixcImFyZ3NcIjpcIjEwOTU1NjYxMjM5NzU1MFwifSJ9"
  },
  {
    "id": 4808,
    "name": "Saint-Désir",
    "state_id": 14,
    "postal_code": "14100",
    "state_name": "Calvados",
    "query": "https://www.facebook.com/events/search/?q=Gardening&sde=Abq6hpNmijm8kReC4KYmmDP0NuT4IxNliFRnd3vuRZUj8uh4BsVIK3dVq186DripYNQbuwiy5LR0V3y0W_iqLV_W&filters=eyJycF9ldmVudHNfbG9jYXRpb246MCI6IntcIm5hbWVcIjpcImZpbHRlcl9ldmVudHNfbG9jYXRpb25cIixcImFyZ3NcIjpcIjEwNzQzMzU3NTk1OTEzM1wifSJ9"
  },
  {
    "id": 4809,
    "name": "Saint-Étienne-la-Thillaye",
    "state_id": 14,
    "postal_code": "14950",
    "state_name": "Calvados",
    "query": "https://www.facebook.com/events/search/?q=Gardening&sde=Abq6hpNmijm8kReC4KYmmDP0NuT4IxNliFRnd3vuRZUj8uh4BsVIK3dVq186DripYNQbuwiy5LR0V3y0W_iqLV_W&filters=eyJycF9ldmVudHNfbG9jYXRpb246MCI6IntcIm5hbWVcIjpcImZpbHRlcl9ldmVudHNfbG9jYXRpb25cIixcImFyZ3NcIjpcIjExMjYxMzcxODc1MDc5MlwifSJ9"
  },
  {
    "id": 4810,
    "name": "Val-de-Vie",
    "state_id": 14,
    "postal_code": "14140",
    "state_name": "Calvados",
    "query": ""
  },
  {
    "id": 4811,
    "name": "Saint-Gatien-des-Bois",
    "state_id": 14,
    "postal_code": "14130",
    "state_name": "Calvados",
    "query": "https://www.facebook.com/events/search/?q=Gardening&sde=Abq6hpNmijm8kReC4KYmmDP0NuT4IxNliFRnd3vuRZUj8uh4BsVIK3dVq186DripYNQbuwiy5LR0V3y0W_iqLV_W&filters=eyJycF9ldmVudHNfbG9jYXRpb246MCI6IntcIm5hbWVcIjpcImZpbHRlcl9ldmVudHNfbG9jYXRpb25cIixcImFyZ3NcIjpcIjEwOTQzOTQ3OTA3OTcwMlwifSJ9"
  },
  {
    "id": 4812,
    "name": "Seulline",
    "state_id": 14,
    "postal_code": "14260",
    "state_name": "Calvados",
    "query": ""
  },
  {
    "id": 4813,
    "name": "Saint-Germain-de-Livet",
    "state_id": 14,
    "postal_code": "14100",
    "state_name": "Calvados",
    "query": "https://www.facebook.com/events/search/?q=Gardening&sde=Abq6hpNmijm8kReC4KYmmDP0NuT4IxNliFRnd3vuRZUj8uh4BsVIK3dVq186DripYNQbuwiy5LR0V3y0W_iqLV_W&filters=eyJycF9ldmVudHNfbG9jYXRpb246MCI6IntcIm5hbWVcIjpcImZpbHRlcl9ldmVudHNfbG9jYXRpb25cIixcImFyZ3NcIjpcIjExNjg1NTQ3NDk5NDYyOFwifSJ9"
  },
  {
    "id": 4814,
    "name": "Saint-Germain-du-Pert",
    "state_id": 14,
    "postal_code": "14230",
    "state_name": "Calvados",
    "query": "https://www.facebook.com/events/search/?q=Gardening&sde=Abq6hpNmijm8kReC4KYmmDP0NuT4IxNliFRnd3vuRZUj8uh4BsVIK3dVq186DripYNQbuwiy5LR0V3y0W_iqLV_W&filters=eyJycF9ldmVudHNfbG9jYXRpb246MCI6IntcIm5hbWVcIjpcImZpbHRlcl9ldmVudHNfbG9jYXRpb25cIixcImFyZ3NcIjpcIjEwNzc1MjUzNTkxNDAwMlwifSJ9"
  },
  {
    "id": 4815,
    "name": "Saint-Germain-la-Blanche-Herbe",
    "state_id": 14,
    "postal_code": "14280",
    "state_name": "Calvados",
    "query": "https://www.facebook.com/events/search/?q=Gardening&sde=Abq6hpNmijm8kReC4KYmmDP0NuT4IxNliFRnd3vuRZUj8uh4BsVIK3dVq186DripYNQbuwiy5LR0V3y0W_iqLV_W&filters=eyJycF9ldmVudHNfbG9jYXRpb246MCI6IntcIm5hbWVcIjpcImZpbHRlcl9ldmVudHNfbG9jYXRpb25cIixcImFyZ3NcIjpcIjExMzAxNzQ0NTM3OTQ3N1wifSJ9"
  },
  {
    "id": 4816,
    "name": "Saint-Germain-Langot",
    "state_id": 14,
    "postal_code": "14700",
    "state_name": "Calvados",
    "query": ""
  },
  {
    "id": 4817,
    "name": "Saint-Germain-le-Vasson",
    "state_id": 14,
    "postal_code": "14190",
    "state_name": "Calvados",
    "query": "https://www.facebook.com/events/search/?q=Gardening&sde=Abq6hpNmijm8kReC4KYmmDP0NuT4IxNliFRnd3vuRZUj8uh4BsVIK3dVq186DripYNQbuwiy5LR0V3y0W_iqLV_W&filters=eyJycF9ldmVudHNfbG9jYXRpb246MCI6IntcIm5hbWVcIjpcImZpbHRlcl9ldmVudHNfbG9jYXRpb25cIixcImFyZ3NcIjpcIjEwNzc3Mzg5OTI1MTM5N1wifSJ9"
  },
  {
    "id": 4818,
    "name": "Sainte-Honorine-de-Ducy",
    "state_id": 14,
    "postal_code": "14240",
    "state_name": "Calvados",
    "query": ""
  },
  {
    "id": 4819,
    "name": "Aure sur Mer",
    "state_id": 14,
    "postal_code": "14520",
    "state_name": "Calvados",
    "query": ""
  },
  {
    "id": 4820,
    "name": "Sainte-Honorine-du-Fay",
    "state_id": 14,
    "postal_code": "14210",
    "state_name": "Calvados",
    "query": "https://www.facebook.com/events/search/?q=Gardening&sde=Abq6hpNmijm8kReC4KYmmDP0NuT4IxNliFRnd3vuRZUj8uh4BsVIK3dVq186DripYNQbuwiy5LR0V3y0W_iqLV_W&filters=eyJycF9ldmVudHNfbG9jYXRpb246MCI6IntcIm5hbWVcIjpcImZpbHRlcl9ldmVudHNfbG9jYXRpb25cIixcImFyZ3NcIjpcIjEwODYxNzQwMjQ5NTcwMFwifSJ9"
  },
  {
    "id": 4821,
    "name": "Saint-Hymer",
    "state_id": 14,
    "postal_code": "14130",
    "state_name": "Calvados",
    "query": "https://www.facebook.com/events/search/?q=Gardening&sde=Abq6hpNmijm8kReC4KYmmDP0NuT4IxNliFRnd3vuRZUj8uh4BsVIK3dVq186DripYNQbuwiy5LR0V3y0W_iqLV_W&filters=eyJycF9ldmVudHNfbG9jYXRpb246MCI6IntcIm5hbWVcIjpcImZpbHRlcl9ldmVudHNfbG9jYXRpb25cIixcImFyZ3NcIjpcIjExMjI0NzkyODc4NzgxMVwifSJ9"
  },
  {
    "id": 4822,
    "name": "Saint-Jean-de-Livet",
    "state_id": 14,
    "postal_code": "14100",
    "state_name": "Calvados",
    "query": ""
  },
  {
    "id": 4823,
    "name": "Saint-Jouin",
    "state_id": 14,
    "postal_code": "14430",
    "state_name": "Calvados",
    "query": "https://www.facebook.com/events/search/?q=Gardening&sde=Abq6hpNmijm8kReC4KYmmDP0NuT4IxNliFRnd3vuRZUj8uh4BsVIK3dVq186DripYNQbuwiy5LR0V3y0W_iqLV_W&filters=eyJycF9ldmVudHNfbG9jYXRpb246MCI6IntcIm5hbWVcIjpcImZpbHRlcl9ldmVudHNfbG9jYXRpb25cIixcImFyZ3NcIjpcIjEwMzEyNTM0OTcyNzU2OFwifSJ9"
  },
  {
    "id": 4824,
    "name": "Saint-Julien-sur-Calonne",
    "state_id": 14,
    "postal_code": "14130",
    "state_name": "Calvados",
    "query": "https://www.facebook.com/events/search/?q=Gardening&sde=Abq6hpNmijm8kReC4KYmmDP0NuT4IxNliFRnd3vuRZUj8uh4BsVIK3dVq186DripYNQbuwiy5LR0V3y0W_iqLV_W&filters=eyJycF9ldmVudHNfbG9jYXRpb246MCI6IntcIm5hbWVcIjpcImZpbHRlcl9ldmVudHNfbG9jYXRpb25cIixcImFyZ3NcIjpcIjEwODIyODIwOTE5NzU2NFwifSJ9"
  },
  {
    "id": 4825,
    "name": "Saint-Lambert",
    "state_id": 14,
    "postal_code": "14570",
    "state_name": "Calvados",
    "query": ""
  },
  {
    "id": 4826,
    "name": "Saint-Laurent-de-Condel",
    "state_id": 14,
    "postal_code": "14220",
    "state_name": "Calvados",
    "query": "https://www.facebook.com/events/search/?q=Gardening&sde=Abq6hpNmijm8kReC4KYmmDP0NuT4IxNliFRnd3vuRZUj8uh4BsVIK3dVq186DripYNQbuwiy5LR0V3y0W_iqLV_W&filters=eyJycF9ldmVudHNfbG9jYXRpb246MCI6IntcIm5hbWVcIjpcImZpbHRlcl9ldmVudHNfbG9jYXRpb25cIixcImFyZ3NcIjpcIjEwOTU0ODcxNTczMDc1OFwifSJ9"
  },
  {
    "id": 4827,
    "name": "Saint-Laurent-sur-Mer",
    "state_id": 14,
    "postal_code": "14710",
    "state_name": "Calvados",
    "query": "https://www.facebook.com/events/search/?q=Gardening&sde=Abq6hpNmijm8kReC4KYmmDP0NuT4IxNliFRnd3vuRZUj8uh4BsVIK3dVq186DripYNQbuwiy5LR0V3y0W_iqLV_W&filters=eyJycF9ldmVudHNfbG9jYXRpb246MCI6IntcIm5hbWVcIjpcImZpbHRlcl9ldmVudHNfbG9jYXRpb25cIixcImFyZ3NcIjpcIjEwNDE0ODYzMjk1NTc2N1wifSJ9"
  },
  {
    "id": 4828,
    "name": "Saint-Léger-Dubosq",
    "state_id": 14,
    "postal_code": "14430",
    "state_name": "Calvados",
    "query": ""
  },
  {
    "id": 4829,
    "name": "Saint-Louet-sur-Seulles",
    "state_id": 14,
    "postal_code": "14310",
    "state_name": "Calvados",
    "query": ""
  },
  {
    "id": 4830,
    "name": "Saint-Loup-Hors",
    "state_id": 14,
    "postal_code": "14400",
    "state_name": "Calvados",
    "query": "https://www.facebook.com/events/search/?q=Gardening&sde=Abq6hpNmijm8kReC4KYmmDP0NuT4IxNliFRnd3vuRZUj8uh4BsVIK3dVq186DripYNQbuwiy5LR0V3y0W_iqLV_W&filters=eyJycF9ldmVudHNfbG9jYXRpb246MCI6IntcIm5hbWVcIjpcImZpbHRlcl9ldmVudHNfbG9jYXRpb25cIixcImFyZ3NcIjpcIjEwOTE4NjI1OTExNDc1NFwifSJ9"
  },
  {
    "id": 4831,
    "name": "Saint-Manvieu-Norrey",
    "state_id": 14,
    "postal_code": "14740",
    "state_name": "Calvados",
    "query": ""
  },
  {
    "id": 4832,
    "name": "Saint-Marcouf",
    "state_id": 14,
    "postal_code": "14330",
    "state_name": "Calvados",
    "query": "https://www.facebook.com/events/search/?q=Gardening&sde=Abq6hpNmijm8kReC4KYmmDP0NuT4IxNliFRnd3vuRZUj8uh4BsVIK3dVq186DripYNQbuwiy5LR0V3y0W_iqLV_W&filters=eyJycF9ldmVudHNfbG9jYXRpb246MCI6IntcIm5hbWVcIjpcImZpbHRlcl9ldmVudHNfbG9jYXRpb25cIixcImFyZ3NcIjpcIjExMTI2MzYyNTU2Mjg3M1wifSJ9"
  },
  {
    "id": 4833,
    "name": "Sainte-Marguerite-d'Elle",
    "state_id": 14,
    "postal_code": "14330",
    "state_name": "Calvados",
    "query": "https://www.facebook.com/events/search/?q=Gardening&sde=Abq6hpNmijm8kReC4KYmmDP0NuT4IxNliFRnd3vuRZUj8uh4BsVIK3dVq186DripYNQbuwiy5LR0V3y0W_iqLV_W&filters=eyJycF9ldmVudHNfbG9jYXRpb246MCI6IntcIm5hbWVcIjpcImZpbHRlcl9ldmVudHNfbG9jYXRpb25cIixcImFyZ3NcIjpcIjEwNjExMzYzNjA4NzAzMVwifSJ9"
  },
  {
    "id": 4834,
    "name": "Sainte-Marie-Outre-l'Eau",
    "state_id": 14,
    "postal_code": "14380",
    "state_name": "Calvados",
    "query": ""
  },
  {
    "id": 4835,
    "name": "Saint-Martin-aux-Chartrains",
    "state_id": 14,
    "postal_code": "14130",
    "state_name": "Calvados",
    "query": "https://www.facebook.com/events/search/?q=Gardening&sde=Abq6hpNmijm8kReC4KYmmDP0NuT4IxNliFRnd3vuRZUj8uh4BsVIK3dVq186DripYNQbuwiy5LR0V3y0W_iqLV_W&filters=eyJycF9ldmVudHNfbG9jYXRpb246MCI6IntcIm5hbWVcIjpcImZpbHRlcl9ldmVudHNfbG9jYXRpb25cIixcImFyZ3NcIjpcIjExMTkzMjU3ODgyMzczMFwifSJ9"
  },
  {
    "id": 4836,
    "name": "Saint-Martin-de-Bienfaite-la-Cressonnière",
    "state_id": 14,
    "postal_code": "14290",
    "state_name": "Calvados",
    "query": ""
  },
  {
    "id": 4837,
    "name": "Saint-Martin-de-Blagny",
    "state_id": 14,
    "postal_code": "14710",
    "state_name": "Calvados",
    "query": ""
  },
  {
    "id": 4838,
    "name": "Saint-Martin-de-Fontenay",
    "state_id": 14,
    "postal_code": "14320",
    "state_name": "Calvados",
    "query": "https://www.facebook.com/events/search/?q=Gardening&sde=Abq6hpNmijm8kReC4KYmmDP0NuT4IxNliFRnd3vuRZUj8uh4BsVIK3dVq186DripYNQbuwiy5LR0V3y0W_iqLV_W&filters=eyJycF9ldmVudHNfbG9jYXRpb246MCI6IntcIm5hbWVcIjpcImZpbHRlcl9ldmVudHNfbG9jYXRpb25cIixcImFyZ3NcIjpcIjExMzcxMjMyNTMwNjAzNVwifSJ9"
  },
  {
    "id": 4839,
    "name": "Saint-Martin-de-la-Lieue",
    "state_id": 14,
    "postal_code": "14100",
    "state_name": "Calvados",
    "query": "https://www.facebook.com/events/search/?q=Gardening&sde=Abq6hpNmijm8kReC4KYmmDP0NuT4IxNliFRnd3vuRZUj8uh4BsVIK3dVq186DripYNQbuwiy5LR0V3y0W_iqLV_W&filters=eyJycF9ldmVudHNfbG9jYXRpb246MCI6IntcIm5hbWVcIjpcImZpbHRlcl9ldmVudHNfbG9jYXRpb25cIixcImFyZ3NcIjpcIjEwNDA0NTUyMjk2NTQzNFwifSJ9"
  },
  {
    "id": 4840,
    "name": "Saint-Martin-de-Mailloc",
    "state_id": 14,
    "postal_code": "14100",
    "state_name": "Calvados",
    "query": "https://www.facebook.com/events/search/?q=Gardening&sde=Abq6hpNmijm8kReC4KYmmDP0NuT4IxNliFRnd3vuRZUj8uh4BsVIK3dVq186DripYNQbuwiy5LR0V3y0W_iqLV_W&filters=eyJycF9ldmVudHNfbG9jYXRpb246MCI6IntcIm5hbWVcIjpcImZpbHRlcl9ldmVudHNfbG9jYXRpb25cIixcImFyZ3NcIjpcIjExMzEyNDk2ODcwMTg3MFwifSJ9"
  },
  {
    "id": 4841,
    "name": "Saint-Martin-de-Mieux",
    "state_id": 14,
    "postal_code": "14700",
    "state_name": "Calvados",
    "query": "https://www.facebook.com/events/search/?q=Gardening&sde=Abq6hpNmijm8kReC4KYmmDP0NuT4IxNliFRnd3vuRZUj8uh4BsVIK3dVq186DripYNQbuwiy5LR0V3y0W_iqLV_W&filters=eyJycF9ldmVudHNfbG9jYXRpb246MCI6IntcIm5hbWVcIjpcImZpbHRlcl9ldmVudHNfbG9jYXRpb25cIixcImFyZ3NcIjpcIjEwNzgzMzgwMjU3MzAwN1wifSJ9"
  },
  {
    "id": 4842,
    "name": "Saint-Martin-des-Entrées",
    "state_id": 14,
    "postal_code": "14400",
    "state_name": "Calvados",
    "query": "https://www.facebook.com/events/search/?q=Gardening&sde=Abq6hpNmijm8kReC4KYmmDP0NuT4IxNliFRnd3vuRZUj8uh4BsVIK3dVq186DripYNQbuwiy5LR0V3y0W_iqLV_W&filters=eyJycF9ldmVudHNfbG9jYXRpb246MCI6IntcIm5hbWVcIjpcImZpbHRlcl9ldmVudHNfbG9jYXRpb25cIixcImFyZ3NcIjpcIjExNTQxNDQ2ODQ3NTE1OFwifSJ9"
  },
  {
    "id": 4843,
    "name": "Saint-Omer",
    "state_id": 14,
    "postal_code": "14220",
    "state_name": "Calvados",
    "query": "https://www.facebook.com/events/search/?q=Gardening&sde=Abq6hpNmijm8kReC4KYmmDP0NuT4IxNliFRnd3vuRZUj8uh4BsVIK3dVq186DripYNQbuwiy5LR0V3y0W_iqLV_W&filters=eyJycF9ldmVudHNfbG9jYXRpb246MCI6IntcIm5hbWVcIjpcImZpbHRlcl9ldmVudHNfbG9jYXRpb25cIixcImFyZ3NcIjpcIjExMDM0MTA1MjMyNTM5NVwifSJ9"
  },
  {
    "id": 4844,
    "name": "Saint-Ouen-du-Mesnil-Oger",
    "state_id": 14,
    "postal_code": "14670",
    "state_name": "Calvados",
    "query": "https://www.facebook.com/events/search/?q=Gardening&sde=Abq6hpNmijm8kReC4KYmmDP0NuT4IxNliFRnd3vuRZUj8uh4BsVIK3dVq186DripYNQbuwiy5LR0V3y0W_iqLV_W&filters=eyJycF9ldmVudHNfbG9jYXRpb246MCI6IntcIm5hbWVcIjpcImZpbHRlcl9ldmVudHNfbG9jYXRpb25cIixcImFyZ3NcIjpcIjEwODQwMDMzMjUxODQ0N1wifSJ9"
  },
  {
    "id": 4845,
    "name": "Saint-Ouen-le-Pin",
    "state_id": 14,
    "postal_code": "14340",
    "state_name": "Calvados",
    "query": ""
  },
  {
    "id": 4846,
    "name": "Saint-Pair",
    "state_id": 14,
    "postal_code": "14670",
    "state_name": "Calvados",
    "query": "https://www.facebook.com/events/search/?q=Gardening&sde=Abq6hpNmijm8kReC4KYmmDP0NuT4IxNliFRnd3vuRZUj8uh4BsVIK3dVq186DripYNQbuwiy5LR0V3y0W_iqLV_W&filters=eyJycF9ldmVudHNfbG9jYXRpb246MCI6IntcIm5hbWVcIjpcImZpbHRlcl9ldmVudHNfbG9jYXRpb25cIixcImFyZ3NcIjpcIjExMzQyOTY5ODY4MzI2MVwifSJ9"
  },
  {
    "id": 4847,
    "name": "Saint-Paul-du-Vernay",
    "state_id": 14,
    "postal_code": "14490",
    "state_name": "Calvados",
    "query": "https://www.facebook.com/events/search/?q=Gardening&sde=Abq6hpNmijm8kReC4KYmmDP0NuT4IxNliFRnd3vuRZUj8uh4BsVIK3dVq186DripYNQbuwiy5LR0V3y0W_iqLV_W&filters=eyJycF9ldmVudHNfbG9jYXRpb246MCI6IntcIm5hbWVcIjpcImZpbHRlcl9ldmVudHNfbG9jYXRpb25cIixcImFyZ3NcIjpcIjEwODA2Nzg2MjU1NTM3MFwifSJ9"
  },
  {
    "id": 4848,
    "name": "Saint-Philbert-des-Champs",
    "state_id": 14,
    "postal_code": "14130",
    "state_name": "Calvados",
    "query": "https://www.facebook.com/events/search/?q=Gardening&sde=Abq6hpNmijm8kReC4KYmmDP0NuT4IxNliFRnd3vuRZUj8uh4BsVIK3dVq186DripYNQbuwiy5LR0V3y0W_iqLV_W&filters=eyJycF9ldmVudHNfbG9jYXRpb246MCI6IntcIm5hbWVcIjpcImZpbHRlcl9ldmVudHNfbG9jYXRpb25cIixcImFyZ3NcIjpcIjEwNTcwNDM4Mjc5NTc2MVwifSJ9"
  },
  {
    "id": 4849,
    "name": "Saint-Pierre-Azif",
    "state_id": 14,
    "postal_code": "14950",
    "state_name": "Calvados",
    "query": ""
  },
  {
    "id": 4850,
    "name": "Saint-Pierre-Canivet",
    "state_id": 14,
    "postal_code": "14700",
    "state_name": "Calvados",
    "query": "https://www.facebook.com/events/search/?q=Gardening&sde=Abq6hpNmijm8kReC4KYmmDP0NuT4IxNliFRnd3vuRZUj8uh4BsVIK3dVq186DripYNQbuwiy5LR0V3y0W_iqLV_W&filters=eyJycF9ldmVudHNfbG9jYXRpb246MCI6IntcIm5hbWVcIjpcImZpbHRlcl9ldmVudHNfbG9jYXRpb25cIixcImFyZ3NcIjpcIjEwNjEwNjY0NjA4NzgyNVwifSJ9"
  },
  {
    "id": 4851,
    "name": "Saint-Pierre-des-Ifs",
    "state_id": 14,
    "postal_code": "14100",
    "state_name": "Calvados",
    "query": "https://www.facebook.com/events/search/?q=Gardening&sde=Abq6hpNmijm8kReC4KYmmDP0NuT4IxNliFRnd3vuRZUj8uh4BsVIK3dVq186DripYNQbuwiy5LR0V3y0W_iqLV_W&filters=eyJycF9ldmVudHNfbG9jYXRpb246MCI6IntcIm5hbWVcIjpcImZpbHRlcl9ldmVudHNfbG9jYXRpb25cIixcImFyZ3NcIjpcIjExNDEyMTQ4NTI2ODQ5NlwifSJ9"
  },
  {
    "id": 4852,
    "name": "Saint-Pierre-du-Bû",
    "state_id": 14,
    "postal_code": "14700",
    "state_name": "Calvados",
    "query": "https://www.facebook.com/events/search/?q=Gardening&sde=Abq6hpNmijm8kReC4KYmmDP0NuT4IxNliFRnd3vuRZUj8uh4BsVIK3dVq186DripYNQbuwiy5LR0V3y0W_iqLV_W&filters=eyJycF9ldmVudHNfbG9jYXRpb246MCI6IntcIm5hbWVcIjpcImZpbHRlcl9ldmVudHNfbG9jYXRpb25cIixcImFyZ3NcIjpcIjEwNTYyODM2NjEzNzczOFwifSJ9"
  },
  {
    "id": 4853,
    "name": "Saint-Pierre-du-Fresne",
    "state_id": 14,
    "postal_code": "14260",
    "state_name": "Calvados",
    "query": ""
  },
  {
    "id": 4854,
    "name": "Saint-Pierre-du-Jonquet",
    "state_id": 14,
    "postal_code": "14670",
    "state_name": "Calvados",
    "query": "https://www.facebook.com/events/search/?q=Gardening&sde=Abq6hpNmijm8kReC4KYmmDP0NuT4IxNliFRnd3vuRZUj8uh4BsVIK3dVq186DripYNQbuwiy5LR0V3y0W_iqLV_W&filters=eyJycF9ldmVudHNfbG9jYXRpb246MCI6IntcIm5hbWVcIjpcImZpbHRlcl9ldmVudHNfbG9jYXRpb25cIixcImFyZ3NcIjpcIjEwODU0NjYzOTE3MzQyN1wifSJ9"
  },
  {
    "id": 4855,
    "name": "Saint-Pierre-du-Mont",
    "state_id": 14,
    "postal_code": "14450",
    "state_name": "Calvados",
    "query": ""
  },
  {
    "id": 4856,
    "name": "Saint-Pierre-en-Auge",
    "state_id": 14,
    "postal_code": "14140",
    "state_name": "Calvados",
    "query": ""
  },
  {
    "id": 4857,
    "name": "Saint-Rémy",
    "state_id": 14,
    "postal_code": "14570",
    "state_name": "Calvados",
    "query": ""
  },
  {
    "id": 4858,
    "name": "Saint-Samson",
    "state_id": 14,
    "postal_code": "14670",
    "state_name": "Calvados",
    "query": "https://www.facebook.com/events/search/?q=Gardening&sde=Abq6hpNmijm8kReC4KYmmDP0NuT4IxNliFRnd3vuRZUj8uh4BsVIK3dVq186DripYNQbuwiy5LR0V3y0W_iqLV_W&filters=eyJycF9ldmVudHNfbG9jYXRpb246MCI6IntcIm5hbWVcIjpcImZpbHRlcl9ldmVudHNfbG9jYXRpb25cIixcImFyZ3NcIjpcIjEwOTAxMTgzNTc4NTAzMlwifSJ9"
  },
  {
    "id": 4859,
    "name": "Noues de Sienne",
    "state_id": 14,
    "postal_code": "14380",
    "state_name": "Calvados",
    "query": ""
  },
  {
    "id": 4860,
    "name": "Saint-Sylvain",
    "state_id": 14,
    "postal_code": "14190",
    "state_name": "Calvados",
    "query": "https://www.facebook.com/events/search/?q=Gardening&sde=Abq6hpNmijm8kReC4KYmmDP0NuT4IxNliFRnd3vuRZUj8uh4BsVIK3dVq186DripYNQbuwiy5LR0V3y0W_iqLV_W&filters=eyJycF9ldmVudHNfbG9jYXRpb246MCI6IntcIm5hbWVcIjpcImZpbHRlcl9ldmVudHNfbG9jYXRpb25cIixcImFyZ3NcIjpcIjExMDA4NjI4OTAxMTI4N1wifSJ9"
  },
  {
    "id": 4861,
    "name": "Saint-Vaast-en-Auge",
    "state_id": 14,
    "postal_code": "14640",
    "state_name": "Calvados",
    "query": ""
  },
  {
    "id": 4862,
    "name": "Saint-Vaast-sur-Seulles",
    "state_id": 14,
    "postal_code": "14250",
    "state_name": "Calvados",
    "query": "https://www.facebook.com/events/search/?q=Gardening&sde=Abq6hpNmijm8kReC4KYmmDP0NuT4IxNliFRnd3vuRZUj8uh4BsVIK3dVq186DripYNQbuwiy5LR0V3y0W_iqLV_W&filters=eyJycF9ldmVudHNfbG9jYXRpb246MCI6IntcIm5hbWVcIjpcImZpbHRlcl9ldmVudHNfbG9jYXRpb25cIixcImFyZ3NcIjpcIjEwNjEwMTAzNjA4ODAzNFwifSJ9"
  },
  {
    "id": 4863,
    "name": "Saint-Vigor-le-Grand",
    "state_id": 14,
    "postal_code": "14400",
    "state_name": "Calvados",
    "query": "https://www.facebook.com/events/search/?q=Gardening&sde=Abq6hpNmijm8kReC4KYmmDP0NuT4IxNliFRnd3vuRZUj8uh4BsVIK3dVq186DripYNQbuwiy5LR0V3y0W_iqLV_W&filters=eyJycF9ldmVudHNfbG9jYXRpb246MCI6IntcIm5hbWVcIjpcImZpbHRlcl9ldmVudHNfbG9jYXRpb25cIixcImFyZ3NcIjpcIjExNjA1NjYxMTc0MzUzM1wifSJ9"
  },
  {
    "id": 4864,
    "name": "Sallen",
    "state_id": 14,
    "postal_code": "14240",
    "state_name": "Calvados",
    "query": ""
  },
  {
    "id": 4865,
    "name": "Sallenelles",
    "state_id": 14,
    "postal_code": "14121",
    "state_name": "Calvados",
    "query": "https://www.facebook.com/events/search/?q=Gardening&sde=Abq6hpNmijm8kReC4KYmmDP0NuT4IxNliFRnd3vuRZUj8uh4BsVIK3dVq186DripYNQbuwiy5LR0V3y0W_iqLV_W&filters=eyJycF9ldmVudHNfbG9jYXRpb246MCI6IntcIm5hbWVcIjpcImZpbHRlcl9ldmVudHNfbG9jYXRpb25cIixcImFyZ3NcIjpcIjExMjE3MjA4NTQ2MjI3NFwifSJ9"
  },
  {
    "id": 4866,
    "name": "Sannerville",
    "state_id": 14,
    "postal_code": "14940",
    "state_name": "Calvados",
    "query": "https://www.facebook.com/events/search/?q=Gardening&sde=Abq6hpNmijm8kReC4KYmmDP0NuT4IxNliFRnd3vuRZUj8uh4BsVIK3dVq186DripYNQbuwiy5LR0V3y0W_iqLV_W&filters=eyJycF9ldmVudHNfbG9jYXRpb246MCI6IntcIm5hbWVcIjpcImZpbHRlcl9ldmVudHNfbG9jYXRpb25cIixcImFyZ3NcIjpcIjExMTIwNDkxODkwMTEyMFwifSJ9"
  },
  {
    "id": 4867,
    "name": "Saon",
    "state_id": 14,
    "postal_code": "14330",
    "state_name": "Calvados",
    "query": ""
  },
  {
    "id": 4868,
    "name": "Saonnet",
    "state_id": 14,
    "postal_code": "14330",
    "state_name": "Calvados",
    "query": ""
  },
  {
    "id": 4869,
    "name": "Sassy",
    "state_id": 14,
    "postal_code": "14170",
    "state_name": "Calvados",
    "query": "https://www.facebook.com/events/search/?q=Gardening&sde=Abq6hpNmijm8kReC4KYmmDP0NuT4IxNliFRnd3vuRZUj8uh4BsVIK3dVq186DripYNQbuwiy5LR0V3y0W_iqLV_W&filters=eyJycF9ldmVudHNfbG9jYXRpb246MCI6IntcIm5hbWVcIjpcImZpbHRlcl9ldmVudHNfbG9jYXRpb25cIixcImFyZ3NcIjpcIjEwNjIzMzA2Mjc0MDgyMFwifSJ9"
  },
  {
    "id": 4870,
    "name": "Val de Drôme",
    "state_id": 14,
    "postal_code": "14240",
    "state_name": "Calvados",
    "query": ""
  },
  {
    "id": 4871,
    "name": "Soignolles",
    "state_id": 14,
    "postal_code": "14190",
    "state_name": "Calvados",
    "query": "https://www.facebook.com/events/search/?q=Gardening&sde=Abq6hpNmijm8kReC4KYmmDP0NuT4IxNliFRnd3vuRZUj8uh4BsVIK3dVq186DripYNQbuwiy5LR0V3y0W_iqLV_W&filters=eyJycF9ldmVudHNfbG9jYXRpb246MCI6IntcIm5hbWVcIjpcImZpbHRlcl9ldmVudHNfbG9jYXRpb25cIixcImFyZ3NcIjpcIjExMjY4NTE2MjA4MTcwM1wifSJ9"
  },
  {
    "id": 4872,
    "name": "Soliers",
    "state_id": 14,
    "postal_code": "14540",
    "state_name": "Calvados",
    "query": "https://www.facebook.com/events/search/?q=Gardening&sde=Abq6hpNmijm8kReC4KYmmDP0NuT4IxNliFRnd3vuRZUj8uh4BsVIK3dVq186DripYNQbuwiy5LR0V3y0W_iqLV_W&filters=eyJycF9ldmVudHNfbG9jYXRpb246MCI6IntcIm5hbWVcIjpcImZpbHRlcl9ldmVudHNfbG9jYXRpb25cIixcImFyZ3NcIjpcIjEwOTE0MTk2NTc4MDc1N1wifSJ9"
  },
  {
    "id": 4873,
    "name": "Sommervieu",
    "state_id": 14,
    "postal_code": "14400",
    "state_name": "Calvados",
    "query": "https://www.facebook.com/events/search/?q=Gardening&sde=Abq6hpNmijm8kReC4KYmmDP0NuT4IxNliFRnd3vuRZUj8uh4BsVIK3dVq186DripYNQbuwiy5LR0V3y0W_iqLV_W&filters=eyJycF9ldmVudHNfbG9jYXRpb246MCI6IntcIm5hbWVcIjpcImZpbHRlcl9ldmVudHNfbG9jYXRpb25cIixcImFyZ3NcIjpcIjEwNzUxNDczOTI4NTgwNVwifSJ9"
  },
  {
    "id": 4874,
    "name": "Soulangy",
    "state_id": 14,
    "postal_code": "14700",
    "state_name": "Calvados",
    "query": ""
  },
  {
    "id": 4875,
    "name": "Soumont-Saint-Quentin",
    "state_id": 14,
    "postal_code": "14420",
    "state_name": "Calvados",
    "query": "https://www.facebook.com/events/search/?q=Gardening&sde=Abq6hpNmijm8kReC4KYmmDP0NuT4IxNliFRnd3vuRZUj8uh4BsVIK3dVq186DripYNQbuwiy5LR0V3y0W_iqLV_W&filters=eyJycF9ldmVudHNfbG9jYXRpb246MCI6IntcIm5hbWVcIjpcImZpbHRlcl9ldmVudHNfbG9jYXRpb25cIixcImFyZ3NcIjpcIjEwOTA4NjMyMjQ1OTAzMlwifSJ9"
  },
  {
    "id": 4876,
    "name": "Subles",
    "state_id": 14,
    "postal_code": "14400",
    "state_name": "Calvados",
    "query": "https://www.facebook.com/events/search/?q=Gardening&sde=Abq6hpNmijm8kReC4KYmmDP0NuT4IxNliFRnd3vuRZUj8uh4BsVIK3dVq186DripYNQbuwiy5LR0V3y0W_iqLV_W&filters=eyJycF9ldmVudHNfbG9jYXRpb246MCI6IntcIm5hbWVcIjpcImZpbHRlcl9ldmVudHNfbG9jYXRpb25cIixcImFyZ3NcIjpcIjEwNTU1ODQ0MjgxMjE2N1wifSJ9"
  },
  {
    "id": 4877,
    "name": "Sully",
    "state_id": 14,
    "postal_code": "14400",
    "state_name": "Calvados",
    "query": ""
  },
  {
    "id": 4878,
    "name": "Surrain",
    "state_id": 14,
    "postal_code": "14710",
    "state_name": "Calvados",
    "query": ""
  },
  {
    "id": 4879,
    "name": "Surville",
    "state_id": 14,
    "postal_code": "14130",
    "state_name": "Calvados",
    "query": "https://www.facebook.com/events/search/?q=Gardening&sde=Abq6hpNmijm8kReC4KYmmDP0NuT4IxNliFRnd3vuRZUj8uh4BsVIK3dVq186DripYNQbuwiy5LR0V3y0W_iqLV_W&filters=eyJycF9ldmVudHNfbG9jYXRpb246MCI6IntcIm5hbWVcIjpcImZpbHRlcl9ldmVudHNfbG9jYXRpb25cIixcImFyZ3NcIjpcIjEwODQxMTk2MjUyMTc3NFwifSJ9"
  },
  {
    "id": 4880,
    "name": "Tessel",
    "state_id": 14,
    "postal_code": "14250",
    "state_name": "Calvados",
    "query": "https://www.facebook.com/events/search/?q=Gardening&sde=Abq6hpNmijm8kReC4KYmmDP0NuT4IxNliFRnd3vuRZUj8uh4BsVIK3dVq186DripYNQbuwiy5LR0V3y0W_iqLV_W&filters=eyJycF9ldmVudHNfbG9jYXRpb246MCI6IntcIm5hbWVcIjpcImZpbHRlcl9ldmVudHNfbG9jYXRpb25cIixcImFyZ3NcIjpcIjEwNzMzNzgzMjYzNDg1MFwifSJ9"
  },
  {
    "id": 4881,
    "name": "Thaon",
    "state_id": 14,
    "postal_code": "14610",
    "state_name": "Calvados",
    "query": "https://www.facebook.com/events/search/?q=Gardening&sde=Abq6hpNmijm8kReC4KYmmDP0NuT4IxNliFRnd3vuRZUj8uh4BsVIK3dVq186DripYNQbuwiy5LR0V3y0W_iqLV_W&filters=eyJycF9ldmVudHNfbG9jYXRpb246MCI6IntcIm5hbWVcIjpcImZpbHRlcl9ldmVudHNfbG9jYXRpb25cIixcImFyZ3NcIjpcIjExMTE5OTk4ODkwMzQ3MVwifSJ9"
  },
  {
    "id": 4882,
    "name": "Le Theil-en-Auge",
    "state_id": 14,
    "postal_code": "14130",
    "state_name": "Calvados",
    "query": ""
  },
  {
    "id": 4883,
    "name": "Thury-Harcourt-le-Hom",
    "state_id": 14,
    "postal_code": "14220",
    "state_name": "Calvados",
    "query": ""
  },
  {
    "id": 4884,
    "name": "Tilly-sur-Seulles",
    "state_id": 14,
    "postal_code": "14250",
    "state_name": "Calvados",
    "query": "https://www.facebook.com/events/search/?q=Gardening&sde=Abq6hpNmijm8kReC4KYmmDP0NuT4IxNliFRnd3vuRZUj8uh4BsVIK3dVq186DripYNQbuwiy5LR0V3y0W_iqLV_W&filters=eyJycF9ldmVudHNfbG9jYXRpb246MCI6IntcIm5hbWVcIjpcImZpbHRlcl9ldmVudHNfbG9jYXRpb25cIixcImFyZ3NcIjpcIjExMDc4MDYzNTYxMTM4N1wifSJ9"
  },
  {
    "id": 4885,
    "name": "Le Torquesne",
    "state_id": 14,
    "postal_code": "14130",
    "state_name": "Calvados",
    "query": "https://www.facebook.com/events/search/?q=Gardening&sde=Abq6hpNmijm8kReC4KYmmDP0NuT4IxNliFRnd3vuRZUj8uh4BsVIK3dVq186DripYNQbuwiy5LR0V3y0W_iqLV_W&filters=eyJycF9ldmVudHNfbG9jYXRpb246MCI6IntcIm5hbWVcIjpcImZpbHRlcl9ldmVudHNfbG9jYXRpb25cIixcImFyZ3NcIjpcIjEwOTYwOTA5MjQwMjg5M1wifSJ9"
  },
  {
    "id": 4886,
    "name": "Touffréville",
    "state_id": 14,
    "postal_code": "14940",
    "state_name": "Calvados",
    "query": "https://www.facebook.com/events/search/?q=Gardening&sde=Abq6hpNmijm8kReC4KYmmDP0NuT4IxNliFRnd3vuRZUj8uh4BsVIK3dVq186DripYNQbuwiy5LR0V3y0W_iqLV_W&filters=eyJycF9ldmVudHNfbG9jYXRpb246MCI6IntcIm5hbWVcIjpcImZpbHRlcl9ldmVudHNfbG9jYXRpb25cIixcImFyZ3NcIjpcIjEwNzAyNjg1NTk5NTQyMFwifSJ9"
  },
  {
    "id": 4887,
    "name": "Touques",
    "state_id": 14,
    "postal_code": "14800",
    "state_name": "Calvados",
    "query": "https://www.facebook.com/events/search/?q=Gardening&sde=Abq6hpNmijm8kReC4KYmmDP0NuT4IxNliFRnd3vuRZUj8uh4BsVIK3dVq186DripYNQbuwiy5LR0V3y0W_iqLV_W&filters=eyJycF9ldmVudHNfbG9jYXRpb246MCI6IntcIm5hbWVcIjpcImZpbHRlcl9ldmVudHNfbG9jYXRpb25cIixcImFyZ3NcIjpcIjEwOTI4ODM4MjQyMjMyNlwifSJ9"
  },
  {
    "id": 4888,
    "name": "Tour-en-Bessin",
    "state_id": 14,
    "postal_code": "14400",
    "state_name": "Calvados",
    "query": "https://www.facebook.com/events/search/?q=Gardening&sde=Abq6hpNmijm8kReC4KYmmDP0NuT4IxNliFRnd3vuRZUj8uh4BsVIK3dVq186DripYNQbuwiy5LR0V3y0W_iqLV_W&filters=eyJycF9ldmVudHNfbG9jYXRpb246MCI6IntcIm5hbWVcIjpcImZpbHRlcl9ldmVudHNfbG9jYXRpb25cIixcImFyZ3NcIjpcIjEwNzI0MDk1NTk4MTc4OVwifSJ9"
  },
  {
    "id": 4889,
    "name": "Tourgéville",
    "state_id": 14,
    "postal_code": "14800",
    "state_name": "Calvados",
    "query": "https://www.facebook.com/events/search/?q=Gardening&sde=Abq6hpNmijm8kReC4KYmmDP0NuT4IxNliFRnd3vuRZUj8uh4BsVIK3dVq186DripYNQbuwiy5LR0V3y0W_iqLV_W&filters=eyJycF9ldmVudHNfbG9jYXRpb246MCI6IntcIm5hbWVcIjpcImZpbHRlcl9ldmVudHNfbG9jYXRpb25cIixcImFyZ3NcIjpcIjExMDMwOTg0MjMzMDU3MFwifSJ9"
  },
  {
    "id": 4890,
    "name": "Tournières",
    "state_id": 14,
    "postal_code": "14330",
    "state_name": "Calvados",
    "query": ""
  },
  {
    "id": 4891,
    "name": "Tourville-en-Auge",
    "state_id": 14,
    "postal_code": "14130",
    "state_name": "Calvados",
    "query": ""
  },
  {
    "id": 4892,
    "name": "Tourville-sur-Odon",
    "state_id": 14,
    "postal_code": "14210",
    "state_name": "Calvados",
    "query": "https://www.facebook.com/events/search/?q=Gardening&sde=Abq6hpNmijm8kReC4KYmmDP0NuT4IxNliFRnd3vuRZUj8uh4BsVIK3dVq186DripYNQbuwiy5LR0V3y0W_iqLV_W&filters=eyJycF9ldmVudHNfbG9jYXRpb246MCI6IntcIm5hbWVcIjpcImZpbHRlcl9ldmVudHNfbG9jYXRpb25cIixcImFyZ3NcIjpcIjExNjM4NjI0NTA0MzU0NlwifSJ9"
  },
  {
    "id": 4893,
    "name": "Tracy-Bocage",
    "state_id": 14,
    "postal_code": "14310",
    "state_name": "Calvados",
    "query": "https://www.facebook.com/events/search/?q=Gardening&sde=Abq6hpNmijm8kReC4KYmmDP0NuT4IxNliFRnd3vuRZUj8uh4BsVIK3dVq186DripYNQbuwiy5LR0V3y0W_iqLV_W&filters=eyJycF9ldmVudHNfbG9jYXRpb246MCI6IntcIm5hbWVcIjpcImZpbHRlcl9ldmVudHNfbG9jYXRpb25cIixcImFyZ3NcIjpcIjEwNzQwMzU3NTk2NDA3OVwifSJ9"
  },
  {
    "id": 4894,
    "name": "Tracy-sur-Mer",
    "state_id": 14,
    "postal_code": "14117",
    "state_name": "Calvados",
    "query": ""
  },
  {
    "id": 4895,
    "name": "Tréprel",
    "state_id": 14,
    "postal_code": "14690",
    "state_name": "Calvados",
    "query": ""
  },
  {
    "id": 4896,
    "name": "Trévières",
    "state_id": 14,
    "postal_code": "14710",
    "state_name": "Calvados",
    "query": "https://www.facebook.com/events/search/?q=Gardening&sde=Abq6hpNmijm8kReC4KYmmDP0NuT4IxNliFRnd3vuRZUj8uh4BsVIK3dVq186DripYNQbuwiy5LR0V3y0W_iqLV_W&filters=eyJycF9ldmVudHNfbG9jYXRpb246MCI6IntcIm5hbWVcIjpcImZpbHRlcl9ldmVudHNfbG9jYXRpb25cIixcImFyZ3NcIjpcIjEwNjAzMDcyMjc2MjE3MVwifSJ9"
  },
  {
    "id": 4897,
    "name": "Troarn",
    "state_id": 14,
    "postal_code": "14670",
    "state_name": "Calvados",
    "query": "https://www.facebook.com/events/search/?q=Gardening&sde=Abq6hpNmijm8kReC4KYmmDP0NuT4IxNliFRnd3vuRZUj8uh4BsVIK3dVq186DripYNQbuwiy5LR0V3y0W_iqLV_W&filters=eyJycF9ldmVudHNfbG9jYXRpb246MCI6IntcIm5hbWVcIjpcImZpbHRlcl9ldmVudHNfbG9jYXRpb25cIixcImFyZ3NcIjpcIjExMDkzNTA0ODkzNjMyNlwifSJ9"
  },
  {
    "id": 4898,
    "name": "Montillières-sur-Orne",
    "state_id": 14,
    "postal_code": "14210",
    "state_name": "Calvados",
    "query": ""
  },
  {
    "id": 4899,
    "name": "Le Tronquay",
    "state_id": 14,
    "postal_code": "14490",
    "state_name": "Calvados",
    "query": "https://www.facebook.com/events/search/?q=Gardening&sde=Abq6hpNmijm8kReC4KYmmDP0NuT4IxNliFRnd3vuRZUj8uh4BsVIK3dVq186DripYNQbuwiy5LR0V3y0W_iqLV_W&filters=eyJycF9ldmVudHNfbG9jYXRpb246MCI6IntcIm5hbWVcIjpcImZpbHRlcl9ldmVudHNfbG9jYXRpb25cIixcImFyZ3NcIjpcIjEwODk4MDA2NTc5NzIyNVwifSJ9"
  },
  {
    "id": 4900,
    "name": "Trouville-sur-Mer",
    "state_id": 14,
    "postal_code": "14360",
    "state_name": "Calvados",
    "query": "https://www.facebook.com/events/search/?q=Gardening&sde=Abq6hpNmijm8kReC4KYmmDP0NuT4IxNliFRnd3vuRZUj8uh4BsVIK3dVq186DripYNQbuwiy5LR0V3y0W_iqLV_W&filters=eyJycF9ldmVudHNfbG9jYXRpb246MCI6IntcIm5hbWVcIjpcImZpbHRlcl9ldmVudHNfbG9jYXRpb25cIixcImFyZ3NcIjpcIjEwNTU4NzY5OTQ3NTc2NFwifSJ9"
  },
  {
    "id": 4901,
    "name": "Trungy",
    "state_id": 14,
    "postal_code": "14490",
    "state_name": "Calvados",
    "query": ""
  },
  {
    "id": 4902,
    "name": "Urville",
    "state_id": 14,
    "postal_code": "14190",
    "state_name": "Calvados",
    "query": ""
  },
  {
    "id": 4903,
    "name": "Ussy",
    "state_id": 14,
    "postal_code": "14420",
    "state_name": "Calvados",
    "query": "https://www.facebook.com/events/search/?q=Gardening&sde=Abq6hpNmijm8kReC4KYmmDP0NuT4IxNliFRnd3vuRZUj8uh4BsVIK3dVq186DripYNQbuwiy5LR0V3y0W_iqLV_W&filters=eyJycF9ldmVudHNfbG9jYXRpb246MCI6IntcIm5hbWVcIjpcImZpbHRlcl9ldmVudHNfbG9jYXRpb25cIixcImFyZ3NcIjpcIjEwMzM0MTYzNjM3NDI2N1wifSJ9"
  },
  {
    "id": 4904,
    "name": "Vacognes-Neuilly",
    "state_id": 14,
    "postal_code": "14210",
    "state_name": "Calvados",
    "query": ""
  },
  {
    "id": 4905,
    "name": "Valsemé",
    "state_id": 14,
    "postal_code": "14340",
    "state_name": "Calvados",
    "query": ""
  },
  {
    "id": 4906,
    "name": "Varaville",
    "state_id": 14,
    "postal_code": "14390",
    "state_name": "Calvados",
    "query": "https://www.facebook.com/events/search/?q=Gardening&sde=Abq6hpNmijm8kReC4KYmmDP0NuT4IxNliFRnd3vuRZUj8uh4BsVIK3dVq186DripYNQbuwiy5LR0V3y0W_iqLV_W&filters=eyJycF9ldmVudHNfbG9jYXRpb246MCI6IntcIm5hbWVcIjpcImZpbHRlcl9ldmVudHNfbG9jYXRpb25cIixcImFyZ3NcIjpcIjExNjY0MzA5MTY4NDAyMFwifSJ9"
  },
  {
    "id": 4907,
    "name": "Valdallière",
    "state_id": 14,
    "postal_code": "14350",
    "state_name": "Calvados",
    "query": ""
  },
  {
    "id": 4908,
    "name": "Vaucelles",
    "state_id": 14,
    "postal_code": "14400",
    "state_name": "Calvados",
    "query": "https://www.facebook.com/events/search/?q=Gardening&sde=Abq6hpNmijm8kReC4KYmmDP0NuT4IxNliFRnd3vuRZUj8uh4BsVIK3dVq186DripYNQbuwiy5LR0V3y0W_iqLV_W&filters=eyJycF9ldmVudHNfbG9jYXRpb246MCI6IntcIm5hbWVcIjpcImZpbHRlcl9ldmVudHNfbG9jYXRpb25cIixcImFyZ3NcIjpcIjEwNDg4MTQyOTU0ODQzNFwifSJ9"
  },
  {
    "id": 4909,
    "name": "Vauville",
    "state_id": 14,
    "postal_code": "14800",
    "state_name": "Calvados",
    "query": ""
  },
  {
    "id": 4910,
    "name": "Vaux-sur-Aure",
    "state_id": 14,
    "postal_code": "14400",
    "state_name": "Calvados",
    "query": "https://www.facebook.com/events/search/?q=Gardening&sde=Abq6hpNmijm8kReC4KYmmDP0NuT4IxNliFRnd3vuRZUj8uh4BsVIK3dVq186DripYNQbuwiy5LR0V3y0W_iqLV_W&filters=eyJycF9ldmVudHNfbG9jYXRpb246MCI6IntcIm5hbWVcIjpcImZpbHRlcl9ldmVudHNfbG9jYXRpb25cIixcImFyZ3NcIjpcIjEwOTYwMzk1MjQwNDA0NFwifSJ9"
  },
  {
    "id": 4911,
    "name": "Vaux-sur-Seulles",
    "state_id": 14,
    "postal_code": "14400",
    "state_name": "Calvados",
    "query": ""
  },
  {
    "id": 4912,
    "name": "Vendes",
    "state_id": 14,
    "postal_code": "14250",
    "state_name": "Calvados",
    "query": ""
  },
  {
    "id": 4913,
    "name": "Vendeuvre",
    "state_id": 14,
    "postal_code": "14170",
    "state_name": "Calvados",
    "query": "https://www.facebook.com/events/search/?q=Gardening&sde=Abq6hpNmijm8kReC4KYmmDP0NuT4IxNliFRnd3vuRZUj8uh4BsVIK3dVq186DripYNQbuwiy5LR0V3y0W_iqLV_W&filters=eyJycF9ldmVudHNfbG9jYXRpb246MCI6IntcIm5hbWVcIjpcImZpbHRlcl9ldmVudHNfbG9jYXRpb25cIixcImFyZ3NcIjpcIjExNDE3NTgyMTkzMDc3OFwifSJ9"
  },
  {
    "id": 4914,
    "name": "Versainville",
    "state_id": 14,
    "postal_code": "14700",
    "state_name": "Calvados",
    "query": "https://www.facebook.com/events/search/?q=Gardening&sde=Abq6hpNmijm8kReC4KYmmDP0NuT4IxNliFRnd3vuRZUj8uh4BsVIK3dVq186DripYNQbuwiy5LR0V3y0W_iqLV_W&filters=eyJycF9ldmVudHNfbG9jYXRpb246MCI6IntcIm5hbWVcIjpcImZpbHRlcl9ldmVudHNfbG9jYXRpb25cIixcImFyZ3NcIjpcIjEwODk4NDI3OTEzNTEyM1wifSJ9"
  },
  {
    "id": 4915,
    "name": "Verson",
    "state_id": 14,
    "postal_code": "14790",
    "state_name": "Calvados",
    "query": "https://www.facebook.com/events/search/?q=Gardening&sde=Abq6hpNmijm8kReC4KYmmDP0NuT4IxNliFRnd3vuRZUj8uh4BsVIK3dVq186DripYNQbuwiy5LR0V3y0W_iqLV_W&filters=eyJycF9ldmVudHNfbG9jYXRpb246MCI6IntcIm5hbWVcIjpcImZpbHRlcl9ldmVudHNfbG9jYXRpb25cIixcImFyZ3NcIjpcIjEwNzE1MzE1NTk5MDE3N1wifSJ9"
  },
  {
    "id": 4916,
    "name": "Ver-sur-Mer",
    "state_id": 14,
    "postal_code": "14114",
    "state_name": "Calvados",
    "query": "https://www.facebook.com/events/search/?q=Gardening&sde=Abq6hpNmijm8kReC4KYmmDP0NuT4IxNliFRnd3vuRZUj8uh4BsVIK3dVq186DripYNQbuwiy5LR0V3y0W_iqLV_W&filters=eyJycF9ldmVudHNfbG9jYXRpb246MCI6IntcIm5hbWVcIjpcImZpbHRlcl9ldmVudHNfbG9jYXRpb25cIixcImFyZ3NcIjpcIjEwOTUwODkxMjQxMzgxNlwifSJ9"
  },
  {
    "id": 4917,
    "name": "La Vespière-Friardel",
    "state_id": 14,
    "postal_code": "14290",
    "state_name": "Calvados",
    "query": ""
  },
  {
    "id": 4918,
    "name": "Le Vey",
    "state_id": 14,
    "postal_code": "14570",
    "state_name": "Calvados",
    "query": ""
  },
  {
    "id": 4919,
    "name": "Vicques",
    "state_id": 14,
    "postal_code": "14170",
    "state_name": "Calvados",
    "query": ""
  },
  {
    "id": 4920,
    "name": "Victot-Pontfol",
    "state_id": 14,
    "postal_code": "14430",
    "state_name": "Calvados",
    "query": "https://www.facebook.com/events/search/?q=Gardening&sde=Abq6hpNmijm8kReC4KYmmDP0NuT4IxNliFRnd3vuRZUj8uh4BsVIK3dVq186DripYNQbuwiy5LR0V3y0W_iqLV_W&filters=eyJycF9ldmVudHNfbG9jYXRpb246MCI6IntcIm5hbWVcIjpcImZpbHRlcl9ldmVudHNfbG9jYXRpb25cIixcImFyZ3NcIjpcIjExMTQxMzc3NTU0NzQyMlwifSJ9"
  },
  {
    "id": 4921,
    "name": "Vienne-en-Bessin",
    "state_id": 14,
    "postal_code": "14400",
    "state_name": "Calvados",
    "query": "https://www.facebook.com/events/search/?q=Gardening&sde=Abq6hpNmijm8kReC4KYmmDP0NuT4IxNliFRnd3vuRZUj8uh4BsVIK3dVq186DripYNQbuwiy5LR0V3y0W_iqLV_W&filters=eyJycF9ldmVudHNfbG9jYXRpb246MCI6IntcIm5hbWVcIjpcImZpbHRlcl9ldmVudHNfbG9jYXRpb25cIixcImFyZ3NcIjpcIjEwOTU1Njc0OTA3NjA4NlwifSJ9"
  },
  {
    "id": 4922,
    "name": "Vierville-sur-Mer",
    "state_id": 14,
    "postal_code": "14710",
    "state_name": "Calvados",
    "query": "https://www.facebook.com/events/search/?q=Gardening&sde=Abq6hpNmijm8kReC4KYmmDP0NuT4IxNliFRnd3vuRZUj8uh4BsVIK3dVq186DripYNQbuwiy5LR0V3y0W_iqLV_W&filters=eyJycF9ldmVudHNfbG9jYXRpb246MCI6IntcIm5hbWVcIjpcImZpbHRlcl9ldmVudHNfbG9jYXRpb25cIixcImFyZ3NcIjpcIjExMjQ0OTE1ODc3NDIyNlwifSJ9"
  },
  {
    "id": 4923,
    "name": "Vieux",
    "state_id": 14,
    "postal_code": "14930",
    "state_name": "Calvados",
    "query": "https://www.facebook.com/events/search/?q=Gardening&sde=Abq6hpNmijm8kReC4KYmmDP0NuT4IxNliFRnd3vuRZUj8uh4BsVIK3dVq186DripYNQbuwiy5LR0V3y0W_iqLV_W&filters=eyJycF9ldmVudHNfbG9jYXRpb246MCI6IntcIm5hbWVcIjpcImZpbHRlcl9ldmVudHNfbG9jYXRpb25cIixcImFyZ3NcIjpcIjExMzUyMDk3MTk5NTQ2MlwifSJ9"
  },
  {
    "id": 4924,
    "name": "Vieux-Bourg",
    "state_id": 14,
    "postal_code": "14130",
    "state_name": "Calvados",
    "query": "https://www.facebook.com/events/search/?q=Gardening&sde=Abq6hpNmijm8kReC4KYmmDP0NuT4IxNliFRnd3vuRZUj8uh4BsVIK3dVq186DripYNQbuwiy5LR0V3y0W_iqLV_W&filters=eyJycF9ldmVudHNfbG9jYXRpb246MCI6IntcIm5hbWVcIjpcImZpbHRlcl9ldmVudHNfbG9jYXRpb25cIixcImFyZ3NcIjpcIjEwNjkxNTQ1NjAwNzE1NVwifSJ9"
  },
  {
    "id": 4925,
    "name": "Vignats",
    "state_id": 14,
    "postal_code": "14700",
    "state_name": "Calvados",
    "query": "https://www.facebook.com/events/search/?q=Gardening&sde=Abq6hpNmijm8kReC4KYmmDP0NuT4IxNliFRnd3vuRZUj8uh4BsVIK3dVq186DripYNQbuwiy5LR0V3y0W_iqLV_W&filters=eyJycF9ldmVudHNfbG9jYXRpb246MCI6IntcIm5hbWVcIjpcImZpbHRlcl9ldmVudHNfbG9jYXRpb25cIixcImFyZ3NcIjpcIjExNTkzNTE2MTc1MjI3M1wifSJ9"
  },
  {
    "id": 4926,
    "name": "Villers-Bocage",
    "state_id": 14,
    "postal_code": "14310",
    "state_name": "Calvados",
    "query": "https://www.facebook.com/events/search/?q=Gardening&sde=Abq6hpNmijm8kReC4KYmmDP0NuT4IxNliFRnd3vuRZUj8uh4BsVIK3dVq186DripYNQbuwiy5LR0V3y0W_iqLV_W&filters=eyJycF9ldmVudHNfbG9jYXRpb246MCI6IntcIm5hbWVcIjpcImZpbHRlcl9ldmVudHNfbG9jYXRpb25cIixcImFyZ3NcIjpcIjEwOTAwNjQ5NTc4NzMyMFwifSJ9"
  },
  {
    "id": 4927,
    "name": "Villers-Canivet",
    "state_id": 14,
    "postal_code": "14420",
    "state_name": "Calvados",
    "query": "https://www.facebook.com/events/search/?q=Gardening&sde=Abq6hpNmijm8kReC4KYmmDP0NuT4IxNliFRnd3vuRZUj8uh4BsVIK3dVq186DripYNQbuwiy5LR0V3y0W_iqLV_W&filters=eyJycF9ldmVudHNfbG9jYXRpb246MCI6IntcIm5hbWVcIjpcImZpbHRlcl9ldmVudHNfbG9jYXRpb25cIixcImFyZ3NcIjpcIjExNTQxNTQxODQ3MDY3MVwifSJ9"
  },
  {
    "id": 4928,
    "name": "Villers-sur-Mer",
    "state_id": 14,
    "postal_code": "14640",
    "state_name": "Calvados",
    "query": "https://www.facebook.com/events/search/?q=Gardening&sde=Abq6hpNmijm8kReC4KYmmDP0NuT4IxNliFRnd3vuRZUj8uh4BsVIK3dVq186DripYNQbuwiy5LR0V3y0W_iqLV_W&filters=eyJycF9ldmVudHNfbG9jYXRpb246MCI6IntcIm5hbWVcIjpcImZpbHRlcl9ldmVudHNfbG9jYXRpb25cIixcImFyZ3NcIjpcIjExNTU2OTU2NTEyNjU2NFwifSJ9"
  },
  {
    "id": 4929,
    "name": "Villerville",
    "state_id": 14,
    "postal_code": "14113",
    "state_name": "Calvados",
    "query": "https://www.facebook.com/events/search/?q=Gardening&sde=Abq6hpNmijm8kReC4KYmmDP0NuT4IxNliFRnd3vuRZUj8uh4BsVIK3dVq186DripYNQbuwiy5LR0V3y0W_iqLV_W&filters=eyJycF9ldmVudHNfbG9jYXRpb246MCI6IntcIm5hbWVcIjpcImZpbHRlcl9ldmVudHNfbG9jYXRpb25cIixcImFyZ3NcIjpcIjExMzEyMTI2NTM4MDUwNFwifSJ9"
  },
  {
    "id": 4930,
    "name": "La Villette",
    "state_id": 14,
    "postal_code": "14570",
    "state_name": "Calvados",
    "query": "https://www.facebook.com/events/search/?q=Gardening&sde=Abq6hpNmijm8kReC4KYmmDP0NuT4IxNliFRnd3vuRZUj8uh4BsVIK3dVq186DripYNQbuwiy5LR0V3y0W_iqLV_W&filters=eyJycF9ldmVudHNfbG9jYXRpb246MCI6IntcIm5hbWVcIjpcImZpbHRlcl9ldmVudHNfbG9jYXRpb25cIixcImFyZ3NcIjpcIjExMDUxOTk4ODk3MzU3OVwifSJ9"
  },
  {
    "id": 4931,
    "name": "Villons-les-Buissons",
    "state_id": 14,
    "postal_code": "14610",
    "state_name": "Calvados",
    "query": "https://www.facebook.com/events/search/?q=Gardening&sde=Abq6hpNmijm8kReC4KYmmDP0NuT4IxNliFRnd3vuRZUj8uh4BsVIK3dVq186DripYNQbuwiy5LR0V3y0W_iqLV_W&filters=eyJycF9ldmVudHNfbG9jYXRpb246MCI6IntcIm5hbWVcIjpcImZpbHRlcl9ldmVudHNfbG9jYXRpb25cIixcImFyZ3NcIjpcIjExMTM3NjIwMjIxNzQxNVwifSJ9"
  },
  {
    "id": 4932,
    "name": "Villy-lez-Falaise",
    "state_id": 14,
    "postal_code": "14700",
    "state_name": "Calvados",
    "query": ""
  },
  {
    "id": 4933,
    "name": "Villy-Bocage",
    "state_id": 14,
    "postal_code": "14310",
    "state_name": "Calvados",
    "query": "https://www.facebook.com/events/search/?q=Gardening&sde=Abq6hpNmijm8kReC4KYmmDP0NuT4IxNliFRnd3vuRZUj8uh4BsVIK3dVq186DripYNQbuwiy5LR0V3y0W_iqLV_W&filters=eyJycF9ldmVudHNfbG9jYXRpb246MCI6IntcIm5hbWVcIjpcImZpbHRlcl9ldmVudHNfbG9jYXRpb25cIixcImFyZ3NcIjpcIjExNTk2MTQ0NTA4NzkzOVwifSJ9"
  },
  {
    "id": 4934,
    "name": "Vimont",
    "state_id": 14,
    "postal_code": "14370",
    "state_name": "Calvados",
    "query": "https://www.facebook.com/events/search/?q=Gardening&sde=Abq6hpNmijm8kReC4KYmmDP0NuT4IxNliFRnd3vuRZUj8uh4BsVIK3dVq186DripYNQbuwiy5LR0V3y0W_iqLV_W&filters=eyJycF9ldmVudHNfbG9jYXRpb246MCI6IntcIm5hbWVcIjpcImZpbHRlcl9ldmVudHNfbG9jYXRpb25cIixcImFyZ3NcIjpcIjEwNDkxODI0Mjg3ODI0NFwifSJ9"
  },
  {
    "id": 4935,
    "name": "Vire Normandie",
    "state_id": 14,
    "postal_code": "14500",
    "state_name": "Calvados",
    "query": "https://www.facebook.com/events/search/?q=Gardening&sde=Abq6hpNmijm8kReC4KYmmDP0NuT4IxNliFRnd3vuRZUj8uh4BsVIK3dVq186DripYNQbuwiy5LR0V3y0W_iqLV_W&filters=eyJycF9ldmVudHNfbG9jYXRpb246MCI6IntcIm5hbWVcIjpcImZpbHRlcl9ldmVudHNfbG9jYXRpb25cIixcImFyZ3NcIjpcIjEwNzc1NjU3MjU4MDE2NVwifSJ9"
  },
  {
    "id": 4936,
    "name": "Pont-d'Ouilly",
    "state_id": 14,
    "postal_code": "14690",
    "state_name": "Calvados",
    "query": ""
  }
]