[
  {
    "id": 9314,
    "name": "Aclou",
    "state_id": 26,
    "postal_code": "27800",
    "state_name": "Eure",
    "query": ""
  },
  {
    "id": 9315,
    "name": "Acon",
    "state_id": 26,
    "postal_code": "27570",
    "state_name": "Eure",
    "query": "https://www.facebook.com/events/search?q=Classics&sde=Abq6hpNmijm8kReC4KYmmDP0NuT4IxNliFRnd3vuRZUj8uh4BsVIK3dVq186DripYNQbuwiy5LR0V3y0W_iqLV_W&filters=eyJycF9ldmVudHNfbG9jYXRpb246MCI6IntcIm5hbWVcIjpcImZpbHRlcl9ldmVudHNfbG9jYXRpb25cIixcImFyZ3NcIjpcIjEwODcwNTM0OTE1NDQ3N1wifSJ9"
  },
  {
    "id": 9316,
    "name": "Acquigny",
    "state_id": 26,
    "postal_code": "27400",
    "state_name": "Eure",
    "query": "https://www.facebook.com/events/search?q=Classics&sde=Abq6hpNmijm8kReC4KYmmDP0NuT4IxNliFRnd3vuRZUj8uh4BsVIK3dVq186DripYNQbuwiy5LR0V3y0W_iqLV_W&filters=eyJycF9ldmVudHNfbG9jYXRpb246MCI6IntcIm5hbWVcIjpcImZpbHRlcl9ldmVudHNfbG9jYXRpb25cIixcImFyZ3NcIjpcIjExMjEwMDEwMjE0MDAxOVwifSJ9"
  },
  {
    "id": 9317,
    "name": "Aigleville",
    "state_id": 26,
    "postal_code": "27120",
    "state_name": "Eure",
    "query": "https://www.facebook.com/events/search?q=Classics&sde=Abq6hpNmijm8kReC4KYmmDP0NuT4IxNliFRnd3vuRZUj8uh4BsVIK3dVq186DripYNQbuwiy5LR0V3y0W_iqLV_W&filters=eyJycF9ldmVudHNfbG9jYXRpb246MCI6IntcIm5hbWVcIjpcImZpbHRlcl9ldmVudHNfbG9jYXRpb25cIixcImFyZ3NcIjpcIjEwNzM4MzU2MjYyNDkwNVwifSJ9"
  },
  {
    "id": 9318,
    "name": "Ailly",
    "state_id": 26,
    "postal_code": "27600",
    "state_name": "Eure",
    "query": "https://www.facebook.com/events/search?q=Classics&sde=Abq6hpNmijm8kReC4KYmmDP0NuT4IxNliFRnd3vuRZUj8uh4BsVIK3dVq186DripYNQbuwiy5LR0V3y0W_iqLV_W&filters=eyJycF9ldmVudHNfbG9jYXRpb246MCI6IntcIm5hbWVcIjpcImZpbHRlcl9ldmVudHNfbG9jYXRpb25cIixcImFyZ3NcIjpcIjEwMzczOTE1Mjk5ODUxOVwifSJ9"
  },
  {
    "id": 9319,
    "name": "Aizier",
    "state_id": 26,
    "postal_code": "27500",
    "state_name": "Eure",
    "query": ""
  },
  {
    "id": 9320,
    "name": "Alizay",
    "state_id": 26,
    "postal_code": "27460",
    "state_name": "Eure",
    "query": "https://www.facebook.com/events/search?q=Classics&sde=Abq6hpNmijm8kReC4KYmmDP0NuT4IxNliFRnd3vuRZUj8uh4BsVIK3dVq186DripYNQbuwiy5LR0V3y0W_iqLV_W&filters=eyJycF9ldmVudHNfbG9jYXRpb246MCI6IntcIm5hbWVcIjpcImZpbHRlcl9ldmVudHNfbG9jYXRpb25cIixcImFyZ3NcIjpcIjEwNTc2NzQwNjEyMzQ1OFwifSJ9"
  },
  {
    "id": 9321,
    "name": "Ambenay",
    "state_id": 26,
    "postal_code": "27250",
    "state_name": "Eure",
    "query": "https://www.facebook.com/events/search?q=Classics&sde=Abq6hpNmijm8kReC4KYmmDP0NuT4IxNliFRnd3vuRZUj8uh4BsVIK3dVq186DripYNQbuwiy5LR0V3y0W_iqLV_W&filters=eyJycF9ldmVudHNfbG9jYXRpb246MCI6IntcIm5hbWVcIjpcImZpbHRlcl9ldmVudHNfbG9jYXRpb25cIixcImFyZ3NcIjpcIjEwNTkyMTI3OTQzOTUyMVwifSJ9"
  },
  {
    "id": 9322,
    "name": "Amécourt",
    "state_id": 26,
    "postal_code": "27140",
    "state_name": "Eure",
    "query": "https://www.facebook.com/events/search?q=Classics&sde=Abq6hpNmijm8kReC4KYmmDP0NuT4IxNliFRnd3vuRZUj8uh4BsVIK3dVq186DripYNQbuwiy5LR0V3y0W_iqLV_W&filters=eyJycF9ldmVudHNfbG9jYXRpb246MCI6IntcIm5hbWVcIjpcImZpbHRlcl9ldmVudHNfbG9jYXRpb25cIixcImFyZ3NcIjpcIjEwODAwMDI4NTg5MDAzNVwifSJ9"
  },
  {
    "id": 9323,
    "name": "Amfreville-Saint-Amand",
    "state_id": 26,
    "postal_code": "27370",
    "state_name": "Eure",
    "query": ""
  },
  {
    "id": 9324,
    "name": "Amfreville-les-Champs",
    "state_id": 26,
    "postal_code": "27380",
    "state_name": "Eure",
    "query": "https://www.facebook.com/events/search?q=Classics&sde=Abq6hpNmijm8kReC4KYmmDP0NuT4IxNliFRnd3vuRZUj8uh4BsVIK3dVq186DripYNQbuwiy5LR0V3y0W_iqLV_W&filters=eyJycF9ldmVudHNfbG9jYXRpb246MCI6IntcIm5hbWVcIjpcImZpbHRlcl9ldmVudHNfbG9jYXRpb25cIixcImFyZ3NcIjpcIjEwOTYwNzcwMjM5NzYxNFwifSJ9"
  },
  {
    "id": 9325,
    "name": "Amfreville-sous-les-Monts",
    "state_id": 26,
    "postal_code": "27380",
    "state_name": "Eure",
    "query": "https://www.facebook.com/events/search?q=Classics&sde=Abq6hpNmijm8kReC4KYmmDP0NuT4IxNliFRnd3vuRZUj8uh4BsVIK3dVq186DripYNQbuwiy5LR0V3y0W_iqLV_W&filters=eyJycF9ldmVudHNfbG9jYXRpb246MCI6IntcIm5hbWVcIjpcImZpbHRlcl9ldmVudHNfbG9jYXRpb25cIixcImFyZ3NcIjpcIjEwNzE3OTYxMjY1NDI5MFwifSJ9"
  },
  {
    "id": 9326,
    "name": "Amfreville-sur-Iton",
    "state_id": 26,
    "postal_code": "27400",
    "state_name": "Eure",
    "query": "https://www.facebook.com/events/search?q=Classics&sde=Abq6hpNmijm8kReC4KYmmDP0NuT4IxNliFRnd3vuRZUj8uh4BsVIK3dVq186DripYNQbuwiy5LR0V3y0W_iqLV_W&filters=eyJycF9ldmVudHNfbG9jYXRpb246MCI6IntcIm5hbWVcIjpcImZpbHRlcl9ldmVudHNfbG9jYXRpb25cIixcImFyZ3NcIjpcIjExMzExMjAxNTM4MTA4OVwifSJ9"
  },
  {
    "id": 9327,
    "name": "Andé",
    "state_id": 26,
    "postal_code": "27430",
    "state_name": "Eure",
    "query": ""
  },
  {
    "id": 9328,
    "name": "Les Andelys",
    "state_id": 26,
    "postal_code": "27700",
    "state_name": "Eure",
    "query": "https://www.facebook.com/events/search?q=Classics&sde=Abq6hpNmijm8kReC4KYmmDP0NuT4IxNliFRnd3vuRZUj8uh4BsVIK3dVq186DripYNQbuwiy5LR0V3y0W_iqLV_W&filters=eyJycF9ldmVudHNfbG9jYXRpb246MCI6IntcIm5hbWVcIjpcImZpbHRlcl9ldmVudHNfbG9jYXRpb25cIixcImFyZ3NcIjpcIjEwODY0NzM2NTgyNjgzM1wifSJ9"
  },
  {
    "id": 9329,
    "name": "Angerville-la-Campagne",
    "state_id": 26,
    "postal_code": "27930",
    "state_name": "Eure",
    "query": ""
  },
  {
    "id": 9330,
    "name": "Appeville-Annebault",
    "state_id": 26,
    "postal_code": "27290",
    "state_name": "Eure",
    "query": "https://www.facebook.com/events/search?q=Classics&sde=Abq6hpNmijm8kReC4KYmmDP0NuT4IxNliFRnd3vuRZUj8uh4BsVIK3dVq186DripYNQbuwiy5LR0V3y0W_iqLV_W&filters=eyJycF9ldmVudHNfbG9jYXRpb246MCI6IntcIm5hbWVcIjpcImZpbHRlcl9ldmVudHNfbG9jYXRpb25cIixcImFyZ3NcIjpcIjEwOTU3MTk0NTc0MTM2NFwifSJ9"
  },
  {
    "id": 9331,
    "name": "Armentières-sur-Avre",
    "state_id": 26,
    "postal_code": "27820",
    "state_name": "Eure",
    "query": "https://www.facebook.com/events/search?q=Classics&sde=Abq6hpNmijm8kReC4KYmmDP0NuT4IxNliFRnd3vuRZUj8uh4BsVIK3dVq186DripYNQbuwiy5LR0V3y0W_iqLV_W&filters=eyJycF9ldmVudHNfbG9jYXRpb246MCI6IntcIm5hbWVcIjpcImZpbHRlcl9ldmVudHNfbG9jYXRpb25cIixcImFyZ3NcIjpcIjExMTcxNjY1NTUyMzM5NFwifSJ9"
  },
  {
    "id": 9332,
    "name": "Arnières-sur-Iton",
    "state_id": 26,
    "postal_code": "27180",
    "state_name": "Eure",
    "query": "https://www.facebook.com/events/search?q=Classics&sde=Abq6hpNmijm8kReC4KYmmDP0NuT4IxNliFRnd3vuRZUj8uh4BsVIK3dVq186DripYNQbuwiy5LR0V3y0W_iqLV_W&filters=eyJycF9ldmVudHNfbG9jYXRpb246MCI6IntcIm5hbWVcIjpcImZpbHRlcl9ldmVudHNfbG9jYXRpb25cIixcImFyZ3NcIjpcIjExMTY3MDMyNTUyMTQwOFwifSJ9"
  },
  {
    "id": 9333,
    "name": "Asnières",
    "state_id": 26,
    "postal_code": "27260",
    "state_name": "Eure",
    "query": ""
  },
  {
    "id": 9334,
    "name": "Le Val d'Hazey",
    "state_id": 26,
    "postal_code": "27600",
    "state_name": "Eure",
    "query": ""
  },
  {
    "id": 9335,
    "name": "Aulnay-sur-Iton",
    "state_id": 26,
    "postal_code": "27180",
    "state_name": "Eure",
    "query": "https://www.facebook.com/events/search?q=Classics&sde=Abq6hpNmijm8kReC4KYmmDP0NuT4IxNliFRnd3vuRZUj8uh4BsVIK3dVq186DripYNQbuwiy5LR0V3y0W_iqLV_W&filters=eyJycF9ldmVudHNfbG9jYXRpb246MCI6IntcIm5hbWVcIjpcImZpbHRlcl9ldmVudHNfbG9jYXRpb25cIixcImFyZ3NcIjpcIjExNTY0MzE5MTc4MjIxOVwifSJ9"
  },
  {
    "id": 9336,
    "name": "Autheuil-Authouillet",
    "state_id": 26,
    "postal_code": "27490",
    "state_name": "Eure",
    "query": ""
  },
  {
    "id": 9337,
    "name": "Authevernes",
    "state_id": 26,
    "postal_code": "27420",
    "state_name": "Eure",
    "query": "https://www.facebook.com/events/search?q=Classics&sde=Abq6hpNmijm8kReC4KYmmDP0NuT4IxNliFRnd3vuRZUj8uh4BsVIK3dVq186DripYNQbuwiy5LR0V3y0W_iqLV_W&filters=eyJycF9ldmVudHNfbG9jYXRpb246MCI6IntcIm5hbWVcIjpcImZpbHRlcl9ldmVudHNfbG9jYXRpb25cIixcImFyZ3NcIjpcIjExMTc4NTcyODg0OTEyM1wifSJ9"
  },
  {
    "id": 9338,
    "name": "Les Authieux",
    "state_id": 26,
    "postal_code": "27220",
    "state_name": "Eure",
    "query": "https://www.facebook.com/events/search?q=Classics&sde=Abq6hpNmijm8kReC4KYmmDP0NuT4IxNliFRnd3vuRZUj8uh4BsVIK3dVq186DripYNQbuwiy5LR0V3y0W_iqLV_W&filters=eyJycF9ldmVudHNfbG9jYXRpb246MCI6IntcIm5hbWVcIjpcImZpbHRlcl9ldmVudHNfbG9jYXRpb25cIixcImFyZ3NcIjpcIjEwNDA2OTUyMjk2MjM5NFwifSJ9"
  },
  {
    "id": 9339,
    "name": "Authou",
    "state_id": 26,
    "postal_code": "27290",
    "state_name": "Eure",
    "query": "https://www.facebook.com/events/search?q=Classics&sde=Abq6hpNmijm8kReC4KYmmDP0NuT4IxNliFRnd3vuRZUj8uh4BsVIK3dVq186DripYNQbuwiy5LR0V3y0W_iqLV_W&filters=eyJycF9ldmVudHNfbG9jYXRpb246MCI6IntcIm5hbWVcIjpcImZpbHRlcl9ldmVudHNfbG9jYXRpb25cIixcImFyZ3NcIjpcIjEwOTc3MDI0NTcyMDcyMlwifSJ9"
  },
  {
    "id": 9340,
    "name": "Aviron",
    "state_id": 26,
    "postal_code": "27930",
    "state_name": "Eure",
    "query": "https://www.facebook.com/events/search?q=Classics&sde=Abq6hpNmijm8kReC4KYmmDP0NuT4IxNliFRnd3vuRZUj8uh4BsVIK3dVq186DripYNQbuwiy5LR0V3y0W_iqLV_W&filters=eyJycF9ldmVudHNfbG9jYXRpb246MCI6IntcIm5hbWVcIjpcImZpbHRlcl9ldmVudHNfbG9jYXRpb25cIixcImFyZ3NcIjpcIjExMjM3MzgwNTQ0MDczN1wifSJ9"
  },
  {
    "id": 9341,
    "name": "Chambois",
    "state_id": 26,
    "postal_code": "27240",
    "state_name": "Eure",
    "query": ""
  },
  {
    "id": 9342,
    "name": "Bacquepuis",
    "state_id": 26,
    "postal_code": "27930",
    "state_name": "Eure",
    "query": ""
  },
  {
    "id": 9343,
    "name": "Bacqueville",
    "state_id": 26,
    "postal_code": "27440",
    "state_name": "Eure",
    "query": "https://www.facebook.com/events/search?q=Classics&sde=Abq6hpNmijm8kReC4KYmmDP0NuT4IxNliFRnd3vuRZUj8uh4BsVIK3dVq186DripYNQbuwiy5LR0V3y0W_iqLV_W&filters=eyJycF9ldmVudHNfbG9jYXRpb246MCI6IntcIm5hbWVcIjpcImZpbHRlcl9ldmVudHNfbG9jYXRpb25cIixcImFyZ3NcIjpcIjExNTg4NjA3NTA5MDM1M1wifSJ9"
  },
  {
    "id": 9344,
    "name": "Bailleul-la-Vallée",
    "state_id": 26,
    "postal_code": "27260",
    "state_name": "Eure",
    "query": ""
  },
  {
    "id": 9345,
    "name": "Bâlines",
    "state_id": 26,
    "postal_code": "27130",
    "state_name": "Eure",
    "query": ""
  },
  {
    "id": 9346,
    "name": "Barc",
    "state_id": 26,
    "postal_code": "27170",
    "state_name": "Eure",
    "query": ""
  },
  {
    "id": 9347,
    "name": "Les Barils",
    "state_id": 26,
    "postal_code": "27130",
    "state_name": "Eure",
    "query": "https://www.facebook.com/events/search?q=Classics&sde=Abq6hpNmijm8kReC4KYmmDP0NuT4IxNliFRnd3vuRZUj8uh4BsVIK3dVq186DripYNQbuwiy5LR0V3y0W_iqLV_W&filters=eyJycF9ldmVudHNfbG9jYXRpb246MCI6IntcIm5hbWVcIjpcImZpbHRlcl9ldmVudHNfbG9jYXRpb25cIixcImFyZ3NcIjpcIjExMTMzMDQ0ODg4NzQ4M1wifSJ9"
  },
  {
    "id": 9348,
    "name": "Barneville-sur-Seine",
    "state_id": 26,
    "postal_code": "27310",
    "state_name": "Eure",
    "query": "https://www.facebook.com/events/search?q=Classics&sde=Abq6hpNmijm8kReC4KYmmDP0NuT4IxNliFRnd3vuRZUj8uh4BsVIK3dVq186DripYNQbuwiy5LR0V3y0W_iqLV_W&filters=eyJycF9ldmVudHNfbG9jYXRpb246MCI6IntcIm5hbWVcIjpcImZpbHRlcl9ldmVudHNfbG9jYXRpb25cIixcImFyZ3NcIjpcIjExMTQxMzIxNTU1NDA3M1wifSJ9"
  },
  {
    "id": 9349,
    "name": "Barquet",
    "state_id": 26,
    "postal_code": "27170",
    "state_name": "Eure",
    "query": "https://www.facebook.com/events/search?q=Classics&sde=Abq6hpNmijm8kReC4KYmmDP0NuT4IxNliFRnd3vuRZUj8uh4BsVIK3dVq186DripYNQbuwiy5LR0V3y0W_iqLV_W&filters=eyJycF9ldmVudHNfbG9jYXRpb246MCI6IntcIm5hbWVcIjpcImZpbHRlcl9ldmVudHNfbG9jYXRpb25cIixcImFyZ3NcIjpcIjEwOTYxMjI5NTczNzI3OFwifSJ9"
  },
  {
    "id": 9350,
    "name": "Barville",
    "state_id": 26,
    "postal_code": "27230",
    "state_name": "Eure",
    "query": "https://www.facebook.com/events/search?q=Classics&sde=Abq6hpNmijm8kReC4KYmmDP0NuT4IxNliFRnd3vuRZUj8uh4BsVIK3dVq186DripYNQbuwiy5LR0V3y0W_iqLV_W&filters=eyJycF9ldmVudHNfbG9jYXRpb246MCI6IntcIm5hbWVcIjpcImZpbHRlcl9ldmVudHNfbG9jYXRpb25cIixcImFyZ3NcIjpcIjEwNDA1MjI1Mjk2NDY1NlwifSJ9"
  },
  {
    "id": 9351,
    "name": "Les Baux-de-Breteuil",
    "state_id": 26,
    "postal_code": "27160",
    "state_name": "Eure",
    "query": "https://www.facebook.com/events/search?q=Classics&sde=Abq6hpNmijm8kReC4KYmmDP0NuT4IxNliFRnd3vuRZUj8uh4BsVIK3dVq186DripYNQbuwiy5LR0V3y0W_iqLV_W&filters=eyJycF9ldmVudHNfbG9jYXRpb246MCI6IntcIm5hbWVcIjpcImZpbHRlcl9ldmVudHNfbG9jYXRpb25cIixcImFyZ3NcIjpcIjEwODk3NDY5OTEzNzA4MFwifSJ9"
  },
  {
    "id": 9352,
    "name": "Les Baux-Sainte-Croix",
    "state_id": 26,
    "postal_code": "27180",
    "state_name": "Eure",
    "query": ""
  },
  {
    "id": 9353,
    "name": "Bazincourt-sur-Epte",
    "state_id": 26,
    "postal_code": "27140",
    "state_name": "Eure",
    "query": "https://www.facebook.com/events/search?q=Classics&sde=Abq6hpNmijm8kReC4KYmmDP0NuT4IxNliFRnd3vuRZUj8uh4BsVIK3dVq186DripYNQbuwiy5LR0V3y0W_iqLV_W&filters=eyJycF9ldmVudHNfbG9jYXRpb246MCI6IntcIm5hbWVcIjpcImZpbHRlcl9ldmVudHNfbG9jYXRpb25cIixcImFyZ3NcIjpcIjEwOTA1MDg0NTc5NDU5NlwifSJ9"
  },
  {
    "id": 9354,
    "name": "Bazoques",
    "state_id": 26,
    "postal_code": "27230",
    "state_name": "Eure",
    "query": "https://www.facebook.com/events/search?q=Classics&sde=Abq6hpNmijm8kReC4KYmmDP0NuT4IxNliFRnd3vuRZUj8uh4BsVIK3dVq186DripYNQbuwiy5LR0V3y0W_iqLV_W&filters=eyJycF9ldmVudHNfbG9jYXRpb246MCI6IntcIm5hbWVcIjpcImZpbHRlcl9ldmVudHNfbG9jYXRpb25cIixcImFyZ3NcIjpcIjEwNzMwODExMjYzOTc2MVwifSJ9"
  },
  {
    "id": 9355,
    "name": "Beaubray",
    "state_id": 26,
    "postal_code": "27190",
    "state_name": "Eure",
    "query": "https://www.facebook.com/events/search?q=Classics&sde=Abq6hpNmijm8kReC4KYmmDP0NuT4IxNliFRnd3vuRZUj8uh4BsVIK3dVq186DripYNQbuwiy5LR0V3y0W_iqLV_W&filters=eyJycF9ldmVudHNfbG9jYXRpb246MCI6IntcIm5hbWVcIjpcImZpbHRlcl9ldmVudHNfbG9jYXRpb25cIixcImFyZ3NcIjpcIjEwNzQxMjQ3NTk2MTk3NVwifSJ9"
  },
  {
    "id": 9356,
    "name": "Beauficel-en-Lyons",
    "state_id": 26,
    "postal_code": "27480",
    "state_name": "Eure",
    "query": "https://www.facebook.com/events/search?q=Classics&sde=Abq6hpNmijm8kReC4KYmmDP0NuT4IxNliFRnd3vuRZUj8uh4BsVIK3dVq186DripYNQbuwiy5LR0V3y0W_iqLV_W&filters=eyJycF9ldmVudHNfbG9jYXRpb246MCI6IntcIm5hbWVcIjpcImZpbHRlcl9ldmVudHNfbG9jYXRpb25cIixcImFyZ3NcIjpcIjExMTI1Mzg0MjIzNzUxNlwifSJ9"
  },
  {
    "id": 9357,
    "name": "Mesnil-en-Ouche",
    "state_id": 26,
    "postal_code": "27270",
    "state_name": "Eure",
    "query": ""
  },
  {
    "id": 9358,
    "name": "Beaumontel",
    "state_id": 26,
    "postal_code": "27170",
    "state_name": "Eure",
    "query": "https://www.facebook.com/events/search?q=Classics&sde=Abq6hpNmijm8kReC4KYmmDP0NuT4IxNliFRnd3vuRZUj8uh4BsVIK3dVq186DripYNQbuwiy5LR0V3y0W_iqLV_W&filters=eyJycF9ldmVudHNfbG9jYXRpb246MCI6IntcIm5hbWVcIjpcImZpbHRlcl9ldmVudHNfbG9jYXRpb25cIixcImFyZ3NcIjpcIjExMzM4MDk2ODY3NTQ0NlwifSJ9"
  },
  {
    "id": 9359,
    "name": "Beaumont-le-Roger",
    "state_id": 26,
    "postal_code": "27170",
    "state_name": "Eure",
    "query": "https://www.facebook.com/events/search?q=Classics&sde=Abq6hpNmijm8kReC4KYmmDP0NuT4IxNliFRnd3vuRZUj8uh4BsVIK3dVq186DripYNQbuwiy5LR0V3y0W_iqLV_W&filters=eyJycF9ldmVudHNfbG9jYXRpb246MCI6IntcIm5hbWVcIjpcImZpbHRlcl9ldmVudHNfbG9jYXRpb25cIixcImFyZ3NcIjpcIjEwODM5OTA5NTg1NDI2NFwifSJ9"
  },
  {
    "id": 9360,
    "name": "Le Bec-Hellouin",
    "state_id": 26,
    "postal_code": "27800",
    "state_name": "Eure",
    "query": "https://www.facebook.com/events/search?q=Classics&sde=Abq6hpNmijm8kReC4KYmmDP0NuT4IxNliFRnd3vuRZUj8uh4BsVIK3dVq186DripYNQbuwiy5LR0V3y0W_iqLV_W&filters=eyJycF9ldmVudHNfbG9jYXRpb246MCI6IntcIm5hbWVcIjpcImZpbHRlcl9ldmVudHNfbG9jYXRpb25cIixcImFyZ3NcIjpcIjExNDE2MDQ4MTkzMzg2NlwifSJ9"
  },
  {
    "id": 9361,
    "name": "Le Bec-Thomas",
    "state_id": 26,
    "postal_code": "27370",
    "state_name": "Eure",
    "query": "https://www.facebook.com/events/search?q=Classics&sde=Abq6hpNmijm8kReC4KYmmDP0NuT4IxNliFRnd3vuRZUj8uh4BsVIK3dVq186DripYNQbuwiy5LR0V3y0W_iqLV_W&filters=eyJycF9ldmVudHNfbG9jYXRpb246MCI6IntcIm5hbWVcIjpcImZpbHRlcl9ldmVudHNfbG9jYXRpb25cIixcImFyZ3NcIjpcIjExMjcxMTk0MjA4MDkzMVwifSJ9"
  },
  {
    "id": 9362,
    "name": "Bémécourt",
    "state_id": 26,
    "postal_code": "27160",
    "state_name": "Eure",
    "query": "https://www.facebook.com/events/search?q=Classics&sde=Abq6hpNmijm8kReC4KYmmDP0NuT4IxNliFRnd3vuRZUj8uh4BsVIK3dVq186DripYNQbuwiy5LR0V3y0W_iqLV_W&filters=eyJycF9ldmVudHNfbG9jYXRpb246MCI6IntcIm5hbWVcIjpcImZpbHRlcl9ldmVudHNfbG9jYXRpb25cIixcImFyZ3NcIjpcIjEwODE5NjIyMjUzODkwNFwifSJ9"
  },
  {
    "id": 9363,
    "name": "Bérengeville-la-Campagne",
    "state_id": 26,
    "postal_code": "27110",
    "state_name": "Eure",
    "query": "https://www.facebook.com/events/search?q=Classics&sde=Abq6hpNmijm8kReC4KYmmDP0NuT4IxNliFRnd3vuRZUj8uh4BsVIK3dVq186DripYNQbuwiy5LR0V3y0W_iqLV_W&filters=eyJycF9ldmVudHNfbG9jYXRpb246MCI6IntcIm5hbWVcIjpcImZpbHRlcl9ldmVudHNfbG9jYXRpb25cIixcImFyZ3NcIjpcIjEwODA2NDQ0NTg4MjcxMlwifSJ9"
  },
  {
    "id": 9364,
    "name": "Bernay",
    "state_id": 26,
    "postal_code": "27300",
    "state_name": "Eure",
    "query": "https://www.facebook.com/events/search?q=Classics&sde=Abq6hpNmijm8kReC4KYmmDP0NuT4IxNliFRnd3vuRZUj8uh4BsVIK3dVq186DripYNQbuwiy5LR0V3y0W_iqLV_W&filters=eyJycF9ldmVudHNfbG9jYXRpb246MCI6IntcIm5hbWVcIjpcImZpbHRlcl9ldmVudHNfbG9jYXRpb25cIixcImFyZ3NcIjpcIjEwODU0NzU3MjUwODY2MFwifSJ9"
  },
  {
    "id": 9365,
    "name": "Bernienville",
    "state_id": 26,
    "postal_code": "27180",
    "state_name": "Eure",
    "query": ""
  },
  {
    "id": 9366,
    "name": "Bernouville",
    "state_id": 26,
    "postal_code": "27660",
    "state_name": "Eure",
    "query": "https://www.facebook.com/events/search?q=Classics&sde=Abq6hpNmijm8kReC4KYmmDP0NuT4IxNliFRnd3vuRZUj8uh4BsVIK3dVq186DripYNQbuwiy5LR0V3y0W_iqLV_W&filters=eyJycF9ldmVudHNfbG9jYXRpb246MCI6IntcIm5hbWVcIjpcImZpbHRlcl9ldmVudHNfbG9jYXRpb25cIixcImFyZ3NcIjpcIjExMzA3NTI3MjA1Mjg0MFwifSJ9"
  },
  {
    "id": 9367,
    "name": "Berthouville",
    "state_id": 26,
    "postal_code": "27800",
    "state_name": "Eure",
    "query": ""
  },
  {
    "id": 9368,
    "name": "Les Monts du Roumois",
    "state_id": 26,
    "postal_code": "27370",
    "state_name": "Eure",
    "query": ""
  },
  {
    "id": 9369,
    "name": "Berville-la-Campagne",
    "state_id": 26,
    "postal_code": "27170",
    "state_name": "Eure",
    "query": "https://www.facebook.com/events/search/?q=Classics&sde=Abq6hpNmijm8kReC4KYmmDP0NuT4IxNliFRnd3vuRZUj8uh4BsVIK3dVq186DripYNQbuwiy5LR0V3y0W_iqLV_W&filters=eyJycF9ldmVudHNfbG9jYXRpb246MCI6IntcIm5hbWVcIjpcImZpbHRlcl9ldmVudHNfbG9jYXRpb25cIixcImFyZ3NcIjpcIjEwNzMyMTM4NTk3MDQyNVwifSJ9"
  },
  {
    "id": 9370,
    "name": "Berville-sur-Mer",
    "state_id": 26,
    "postal_code": "27210",
    "state_name": "Eure",
    "query": "https://www.facebook.com/events/search?q=Classics&sde=Abq6hpNmijm8kReC4KYmmDP0NuT4IxNliFRnd3vuRZUj8uh4BsVIK3dVq186DripYNQbuwiy5LR0V3y0W_iqLV_W&filters=eyJycF9ldmVudHNfbG9jYXRpb246MCI6IntcIm5hbWVcIjpcImZpbHRlcl9ldmVudHNfbG9jYXRpb25cIixcImFyZ3NcIjpcIjExNjQ1MDc4MTcwMjk2M1wifSJ9"
  },
  {
    "id": 9371,
    "name": "Beuzeville",
    "state_id": 26,
    "postal_code": "27210",
    "state_name": "Eure",
    "query": "https://www.facebook.com/events/search?q=Classics&sde=Abq6hpNmijm8kReC4KYmmDP0NuT4IxNliFRnd3vuRZUj8uh4BsVIK3dVq186DripYNQbuwiy5LR0V3y0W_iqLV_W&filters=eyJycF9ldmVudHNfbG9jYXRpb246MCI6IntcIm5hbWVcIjpcImZpbHRlcl9ldmVudHNfbG9jYXRpb25cIixcImFyZ3NcIjpcIjEwNzc5OTI0MjU4MTg2OFwifSJ9"
  },
  {
    "id": 9372,
    "name": "Bézu-la-Forêt",
    "state_id": 26,
    "postal_code": "27480",
    "state_name": "Eure",
    "query": "https://www.facebook.com/events/search?q=Classics&sde=Abq6hpNmijm8kReC4KYmmDP0NuT4IxNliFRnd3vuRZUj8uh4BsVIK3dVq186DripYNQbuwiy5LR0V3y0W_iqLV_W&filters=eyJycF9ldmVudHNfbG9jYXRpb246MCI6IntcIm5hbWVcIjpcImZpbHRlcl9ldmVudHNfbG9jYXRpb25cIixcImFyZ3NcIjpcIjEwNTU3MDg0MjgxMDUzNVwifSJ9"
  },
  {
    "id": 9373,
    "name": "Bézu-Saint-Éloi",
    "state_id": 26,
    "postal_code": "27660",
    "state_name": "Eure",
    "query": "https://www.facebook.com/events/search?q=Classics&sde=Abq6hpNmijm8kReC4KYmmDP0NuT4IxNliFRnd3vuRZUj8uh4BsVIK3dVq186DripYNQbuwiy5LR0V3y0W_iqLV_W&filters=eyJycF9ldmVudHNfbG9jYXRpb246MCI6IntcIm5hbWVcIjpcImZpbHRlcl9ldmVudHNfbG9jYXRpb25cIixcImFyZ3NcIjpcIjEwNDEwOTAzNjI5MjA5MFwifSJ9"
  },
  {
    "id": 9374,
    "name": "Bois-Anzeray",
    "state_id": 26,
    "postal_code": "27330",
    "state_name": "Eure",
    "query": "https://www.facebook.com/events/search?q=Classics&sde=Abq6hpNmijm8kReC4KYmmDP0NuT4IxNliFRnd3vuRZUj8uh4BsVIK3dVq186DripYNQbuwiy5LR0V3y0W_iqLV_W&filters=eyJycF9ldmVudHNfbG9jYXRpb246MCI6IntcIm5hbWVcIjpcImZpbHRlcl9ldmVudHNfbG9jYXRpb25cIixcImFyZ3NcIjpcIjEwODk3NDI3OTEzNjUwMFwifSJ9"
  },
  {
    "id": 9375,
    "name": "Bois-Arnault",
    "state_id": 26,
    "postal_code": "27250",
    "state_name": "Eure",
    "query": "https://www.facebook.com/events/search?q=Classics&sde=Abq6hpNmijm8kReC4KYmmDP0NuT4IxNliFRnd3vuRZUj8uh4BsVIK3dVq186DripYNQbuwiy5LR0V3y0W_iqLV_W&filters=eyJycF9ldmVudHNfbG9jYXRpb246MCI6IntcIm5hbWVcIjpcImZpbHRlcl9ldmVudHNfbG9jYXRpb25cIixcImFyZ3NcIjpcIjExMTMxMjEzNTU1NjMzMlwifSJ9"
  },
  {
    "id": 9376,
    "name": "Frenelles-en-Vexin",
    "state_id": 26,
    "postal_code": "27150",
    "state_name": "Eure",
    "query": ""
  },
  {
    "id": 9377,
    "name": "Le Bois-Hellain",
    "state_id": 26,
    "postal_code": "27260",
    "state_name": "Eure",
    "query": ""
  },
  {
    "id": 9378,
    "name": "Bois-Jérôme-Saint-Ouen",
    "state_id": 26,
    "postal_code": "27620",
    "state_name": "Eure",
    "query": "https://www.facebook.com/events/search?q=Classics&sde=Abq6hpNmijm8kReC4KYmmDP0NuT4IxNliFRnd3vuRZUj8uh4BsVIK3dVq186DripYNQbuwiy5LR0V3y0W_iqLV_W&filters=eyJycF9ldmVudHNfbG9jYXRpb246MCI6IntcIm5hbWVcIjpcImZpbHRlcl9ldmVudHNfbG9jYXRpb25cIixcImFyZ3NcIjpcIjExMTY0MDk5MjE5ODI2OVwifSJ9"
  },
  {
    "id": 9379,
    "name": "Bois-le-Roi",
    "state_id": 26,
    "postal_code": "27220",
    "state_name": "Eure",
    "query": "https://www.facebook.com/events/search?q=Classics&sde=Abq6hpNmijm8kReC4KYmmDP0NuT4IxNliFRnd3vuRZUj8uh4BsVIK3dVq186DripYNQbuwiy5LR0V3y0W_iqLV_W&filters=eyJycF9ldmVudHNfbG9jYXRpb246MCI6IntcIm5hbWVcIjpcImZpbHRlcl9ldmVudHNfbG9jYXRpb25cIixcImFyZ3NcIjpcIjExMDIyMTU2ODk5NzUzOVwifSJ9"
  },
  {
    "id": 9380,
    "name": "Boisney",
    "state_id": 26,
    "postal_code": "27800",
    "state_name": "Eure",
    "query": "https://www.facebook.com/events/search?q=Classics&sde=Abq6hpNmijm8kReC4KYmmDP0NuT4IxNliFRnd3vuRZUj8uh4BsVIK3dVq186DripYNQbuwiy5LR0V3y0W_iqLV_W&filters=eyJycF9ldmVudHNfbG9jYXRpb246MCI6IntcIm5hbWVcIjpcImZpbHRlcl9ldmVudHNfbG9jYXRpb25cIixcImFyZ3NcIjpcIjExNjI0NDUwNTA1ODAzNFwifSJ9"
  },
  {
    "id": 9381,
    "name": "Bois-Normand-près-Lyre",
    "state_id": 26,
    "postal_code": "27330",
    "state_name": "Eure",
    "query": "https://www.facebook.com/events/search?q=Classics&sde=Abq6hpNmijm8kReC4KYmmDP0NuT4IxNliFRnd3vuRZUj8uh4BsVIK3dVq186DripYNQbuwiy5LR0V3y0W_iqLV_W&filters=eyJycF9ldmVudHNfbG9jYXRpb246MCI6IntcIm5hbWVcIjpcImZpbHRlcl9ldmVudHNfbG9jYXRpb25cIixcImFyZ3NcIjpcIjExNTE0NDQzNTE2OTExOVwifSJ9"
  },
  {
    "id": 9382,
    "name": "Boisset-les-Prévanches",
    "state_id": 26,
    "postal_code": "27120",
    "state_name": "Eure",
    "query": "https://www.facebook.com/events/search?q=Classics&sde=Abq6hpNmijm8kReC4KYmmDP0NuT4IxNliFRnd3vuRZUj8uh4BsVIK3dVq186DripYNQbuwiy5LR0V3y0W_iqLV_W&filters=eyJycF9ldmVudHNfbG9jYXRpb246MCI6IntcIm5hbWVcIjpcImZpbHRlcl9ldmVudHNfbG9jYXRpb25cIixcImFyZ3NcIjpcIjExNjUyNDU3MTY5NTY2NFwifSJ9"
  },
  {
    "id": 9383,
    "name": "Boissey-le-Châtel",
    "state_id": 26,
    "postal_code": "27520",
    "state_name": "Eure",
    "query": "https://www.facebook.com/events/search?q=Classics&sde=Abq6hpNmijm8kReC4KYmmDP0NuT4IxNliFRnd3vuRZUj8uh4BsVIK3dVq186DripYNQbuwiy5LR0V3y0W_iqLV_W&filters=eyJycF9ldmVudHNfbG9jYXRpb246MCI6IntcIm5hbWVcIjpcImZpbHRlcl9ldmVudHNfbG9jYXRpb25cIixcImFyZ3NcIjpcIjExNzI1MzA3NDk1MTk1M1wifSJ9"
  },
  {
    "id": 9384,
    "name": "La Boissière",
    "state_id": 26,
    "postal_code": "27220",
    "state_name": "Eure",
    "query": "https://www.facebook.com/events/search?q=Classics&sde=Abq6hpNmijm8kReC4KYmmDP0NuT4IxNliFRnd3vuRZUj8uh4BsVIK3dVq186DripYNQbuwiy5LR0V3y0W_iqLV_W&filters=eyJycF9ldmVudHNfbG9jYXRpb246MCI6IntcIm5hbWVcIjpcImZpbHRlcl9ldmVudHNfbG9jYXRpb25cIixcImFyZ3NcIjpcIjEwNzQ3NTczOTI4MjIzNVwifSJ9"
  },
  {
    "id": 9385,
    "name": "Boissy-Lamberville",
    "state_id": 26,
    "postal_code": "27300",
    "state_name": "Eure",
    "query": "https://www.facebook.com/events/search?q=Classics&sde=Abq6hpNmijm8kReC4KYmmDP0NuT4IxNliFRnd3vuRZUj8uh4BsVIK3dVq186DripYNQbuwiy5LR0V3y0W_iqLV_W&filters=eyJycF9ldmVudHNfbG9jYXRpb246MCI6IntcIm5hbWVcIjpcImZpbHRlcl9ldmVudHNfbG9jYXRpb25cIixcImFyZ3NcIjpcIjEwOTA0NjA5OTEzMDA4M1wifSJ9"
  },
  {
    "id": 9386,
    "name": "Boncourt",
    "state_id": 26,
    "postal_code": "27120",
    "state_name": "Eure",
    "query": "https://www.facebook.com/events/search?q=Classics&sde=Abq6hpNmijm8kReC4KYmmDP0NuT4IxNliFRnd3vuRZUj8uh4BsVIK3dVq186DripYNQbuwiy5LR0V3y0W_iqLV_W&filters=eyJycF9ldmVudHNfbG9jYXRpb246MCI6IntcIm5hbWVcIjpcImZpbHRlcl9ldmVudHNfbG9jYXRpb25cIixcImFyZ3NcIjpcIjEwNjUzMTQxMjcxMjU4N1wifSJ9"
  },
  {
    "id": 9387,
    "name": "La Bonneville-sur-Iton",
    "state_id": 26,
    "postal_code": "27190",
    "state_name": "Eure",
    "query": ""
  },
  {
    "id": 9388,
    "name": "Bonneville-Aptot",
    "state_id": 26,
    "postal_code": "27290",
    "state_name": "Eure",
    "query": "https://www.facebook.com/events/search?q=Classics&sde=Abq6hpNmijm8kReC4KYmmDP0NuT4IxNliFRnd3vuRZUj8uh4BsVIK3dVq186DripYNQbuwiy5LR0V3y0W_iqLV_W&filters=eyJycF9ldmVudHNfbG9jYXRpb246MCI6IntcIm5hbWVcIjpcImZpbHRlcl9ldmVudHNfbG9jYXRpb25cIixcImFyZ3NcIjpcIjEwNzIwNjUxNTk4NDg1NlwifSJ9"
  },
  {
    "id": 9389,
    "name": "Flancourt-Crescy-en-Roumois",
    "state_id": 26,
    "postal_code": "27310",
    "state_name": "Eure",
    "query": ""
  },
  {
    "id": 9390,
    "name": "Thénouville",
    "state_id": 26,
    "postal_code": "27290",
    "state_name": "Eure",
    "query": ""
  },
  {
    "id": 9391,
    "name": "Bosroumois",
    "state_id": 26,
    "postal_code": "27670",
    "state_name": "Eure",
    "query": ""
  },
  {
    "id": 9392,
    "name": "Bosgouet",
    "state_id": 26,
    "postal_code": "27310",
    "state_name": "Eure",
    "query": "https://www.facebook.com/events/search?q=Classics&sde=Abq6hpNmijm8kReC4KYmmDP0NuT4IxNliFRnd3vuRZUj8uh4BsVIK3dVq186DripYNQbuwiy5LR0V3y0W_iqLV_W&filters=eyJycF9ldmVudHNfbG9jYXRpb246MCI6IntcIm5hbWVcIjpcImZpbHRlcl9ldmVudHNfbG9jYXRpb25cIixcImFyZ3NcIjpcIjExNTY5OTUyMTc4MDM4OVwifSJ9"
  },
  {
    "id": 9393,
    "name": "Bosquentin",
    "state_id": 26,
    "postal_code": "27480",
    "state_name": "Eure",
    "query": "https://www.facebook.com/events/search?q=Classics&sde=Abq6hpNmijm8kReC4KYmmDP0NuT4IxNliFRnd3vuRZUj8uh4BsVIK3dVq186DripYNQbuwiy5LR0V3y0W_iqLV_W&filters=eyJycF9ldmVudHNfbG9jYXRpb246MCI6IntcIm5hbWVcIjpcImZpbHRlcl9ldmVudHNfbG9jYXRpb25cIixcImFyZ3NcIjpcIjExMTU4NDM5MjE5NjgyOVwifSJ9"
  },
  {
    "id": 9394,
    "name": "Bosrobert",
    "state_id": 26,
    "postal_code": "27800",
    "state_name": "Eure",
    "query": "https://www.facebook.com/events/search?q=Classics&sde=Abq6hpNmijm8kReC4KYmmDP0NuT4IxNliFRnd3vuRZUj8uh4BsVIK3dVq186DripYNQbuwiy5LR0V3y0W_iqLV_W&filters=eyJycF9ldmVudHNfbG9jYXRpb246MCI6IntcIm5hbWVcIjpcImZpbHRlcl9ldmVudHNfbG9jYXRpb25cIixcImFyZ3NcIjpcIjEwODk4MzE0OTEzNTM1MVwifSJ9"
  },
  {
    "id": 9395,
    "name": "Les Bottereaux",
    "state_id": 26,
    "postal_code": "27250",
    "state_name": "Eure",
    "query": "https://www.facebook.com/events/search?q=Classics&sde=Abq6hpNmijm8kReC4KYmmDP0NuT4IxNliFRnd3vuRZUj8uh4BsVIK3dVq186DripYNQbuwiy5LR0V3y0W_iqLV_W&filters=eyJycF9ldmVudHNfbG9jYXRpb246MCI6IntcIm5hbWVcIjpcImZpbHRlcl9ldmVudHNfbG9jYXRpb25cIixcImFyZ3NcIjpcIjExMjk1ODk1NTM4OTE4N1wifSJ9"
  },
  {
    "id": 9396,
    "name": "Bouafles",
    "state_id": 26,
    "postal_code": "27700",
    "state_name": "Eure",
    "query": "https://www.facebook.com/events/search?q=Classics&sde=Abq6hpNmijm8kReC4KYmmDP0NuT4IxNliFRnd3vuRZUj8uh4BsVIK3dVq186DripYNQbuwiy5LR0V3y0W_iqLV_W&filters=eyJycF9ldmVudHNfbG9jYXRpb246MCI6IntcIm5hbWVcIjpcImZpbHRlcl9ldmVudHNfbG9jYXRpb25cIixcImFyZ3NcIjpcIjExMzE2MzY1NTM2Nzk1NVwifSJ9"
  },
  {
    "id": 9397,
    "name": "Bouchevilliers",
    "state_id": 26,
    "postal_code": "27150",
    "state_name": "Eure",
    "query": "https://www.facebook.com/events/search?q=Classics&sde=Abq6hpNmijm8kReC4KYmmDP0NuT4IxNliFRnd3vuRZUj8uh4BsVIK3dVq186DripYNQbuwiy5LR0V3y0W_iqLV_W&filters=eyJycF9ldmVudHNfbG9jYXRpb246MCI6IntcIm5hbWVcIjpcImZpbHRlcl9ldmVudHNfbG9jYXRpb25cIixcImFyZ3NcIjpcIjExMTk4MTE4MjE1OTQ4MlwifSJ9"
  },
  {
    "id": 9398,
    "name": "Le Boulay-Morin",
    "state_id": 26,
    "postal_code": "27930",
    "state_name": "Eure",
    "query": "https://www.facebook.com/events/search?q=Classics&sde=Abq6hpNmijm8kReC4KYmmDP0NuT4IxNliFRnd3vuRZUj8uh4BsVIK3dVq186DripYNQbuwiy5LR0V3y0W_iqLV_W&filters=eyJycF9ldmVudHNfbG9jYXRpb246MCI6IntcIm5hbWVcIjpcImZpbHRlcl9ldmVudHNfbG9jYXRpb25cIixcImFyZ3NcIjpcIjEwMzM2MTE2OTcwNTQ4OVwifSJ9"
  },
  {
    "id": 9399,
    "name": "Boulleville",
    "state_id": 26,
    "postal_code": "27210",
    "state_name": "Eure",
    "query": "https://www.facebook.com/events/search?q=Classics&sde=Abq6hpNmijm8kReC4KYmmDP0NuT4IxNliFRnd3vuRZUj8uh4BsVIK3dVq186DripYNQbuwiy5LR0V3y0W_iqLV_W&filters=eyJycF9ldmVudHNfbG9jYXRpb246MCI6IntcIm5hbWVcIjpcImZpbHRlcl9ldmVudHNfbG9jYXRpb25cIixcImFyZ3NcIjpcIjExMTI4MzgxODg5NDUwNlwifSJ9"
  },
  {
    "id": 9400,
    "name": "Bouquelon",
    "state_id": 26,
    "postal_code": "27500",
    "state_name": "Eure",
    "query": "https://www.facebook.com/events/search?q=Classics&sde=Abq6hpNmijm8kReC4KYmmDP0NuT4IxNliFRnd3vuRZUj8uh4BsVIK3dVq186DripYNQbuwiy5LR0V3y0W_iqLV_W&filters=eyJycF9ldmVudHNfbG9jYXRpb246MCI6IntcIm5hbWVcIjpcImZpbHRlcl9ldmVudHNfbG9jYXRpb25cIixcImFyZ3NcIjpcIjExNjI2Mzk1NTA1NzI3NlwifSJ9"
  },
  {
    "id": 9401,
    "name": "Bouquetot",
    "state_id": 26,
    "postal_code": "27310",
    "state_name": "Eure",
    "query": "https://www.facebook.com/events/search?q=Classics&sde=Abq6hpNmijm8kReC4KYmmDP0NuT4IxNliFRnd3vuRZUj8uh4BsVIK3dVq186DripYNQbuwiy5LR0V3y0W_iqLV_W&filters=eyJycF9ldmVudHNfbG9jYXRpb246MCI6IntcIm5hbWVcIjpcImZpbHRlcl9ldmVudHNfbG9jYXRpb25cIixcImFyZ3NcIjpcIjEwNzE4ODQwMjY1Mzk4MVwifSJ9"
  },
  {
    "id": 9402,
    "name": "Bourg-Achard",
    "state_id": 26,
    "postal_code": "27310",
    "state_name": "Eure",
    "query": "https://www.facebook.com/events/search?q=Classics&sde=Abq6hpNmijm8kReC4KYmmDP0NuT4IxNliFRnd3vuRZUj8uh4BsVIK3dVq186DripYNQbuwiy5LR0V3y0W_iqLV_W&filters=eyJycF9ldmVudHNfbG9jYXRpb246MCI6IntcIm5hbWVcIjpcImZpbHRlcl9ldmVudHNfbG9jYXRpb25cIixcImFyZ3NcIjpcIjEwMzc1NDI2Mjk5NzA5OFwifSJ9"
  },
  {
    "id": 9403,
    "name": "Bourg-Beaudouin",
    "state_id": 26,
    "postal_code": "27380",
    "state_name": "Eure",
    "query": "https://www.facebook.com/events/search?q=Classics&sde=Abq6hpNmijm8kReC4KYmmDP0NuT4IxNliFRnd3vuRZUj8uh4BsVIK3dVq186DripYNQbuwiy5LR0V3y0W_iqLV_W&filters=eyJycF9ldmVudHNfbG9jYXRpb246MCI6IntcIm5hbWVcIjpcImZpbHRlcl9ldmVudHNfbG9jYXRpb25cIixcImFyZ3NcIjpcIjExMTgyMzAzODg0MjM5OFwifSJ9"
  },
  {
    "id": 9404,
    "name": "Grand Bourgtheroulde",
    "state_id": 26,
    "postal_code": "27520",
    "state_name": "Eure",
    "query": ""
  },
  {
    "id": 9405,
    "name": "Bournainville-Faverolles",
    "state_id": 26,
    "postal_code": "27230",
    "state_name": "Eure",
    "query": ""
  },
  {
    "id": 9406,
    "name": "Bourneville-Sainte-Croix",
    "state_id": 26,
    "postal_code": "27500",
    "state_name": "Eure",
    "query": ""
  },
  {
    "id": 9407,
    "name": "Bourth",
    "state_id": 26,
    "postal_code": "27580",
    "state_name": "Eure",
    "query": "https://www.facebook.com/events/search?q=Classics&sde=Abq6hpNmijm8kReC4KYmmDP0NuT4IxNliFRnd3vuRZUj8uh4BsVIK3dVq186DripYNQbuwiy5LR0V3y0W_iqLV_W&filters=eyJycF9ldmVudHNfbG9jYXRpb246MCI6IntcIm5hbWVcIjpcImZpbHRlcl9ldmVudHNfbG9jYXRpb25cIixcImFyZ3NcIjpcIjExNjAyMTUxNTA3NzgxOVwifSJ9"
  },
  {
    "id": 9408,
    "name": "Bray",
    "state_id": 26,
    "postal_code": "27170",
    "state_name": "Eure",
    "query": "https://www.facebook.com/events/search?q=Classics&sde=Abq6hpNmijm8kReC4KYmmDP0NuT4IxNliFRnd3vuRZUj8uh4BsVIK3dVq186DripYNQbuwiy5LR0V3y0W_iqLV_W&filters=eyJycF9ldmVudHNfbG9jYXRpb246MCI6IntcIm5hbWVcIjpcImZpbHRlcl9ldmVudHNfbG9jYXRpb25cIixcImFyZ3NcIjpcIjEwODMxMDg1OTE5NzI2OVwifSJ9"
  },
  {
    "id": 9409,
    "name": "Brestot",
    "state_id": 26,
    "postal_code": "27350",
    "state_name": "Eure",
    "query": "https://www.facebook.com/events/search?q=Classics&sde=Abq6hpNmijm8kReC4KYmmDP0NuT4IxNliFRnd3vuRZUj8uh4BsVIK3dVq186DripYNQbuwiy5LR0V3y0W_iqLV_W&filters=eyJycF9ldmVudHNfbG9jYXRpb246MCI6IntcIm5hbWVcIjpcImZpbHRlcl9ldmVudHNfbG9jYXRpb25cIixcImFyZ3NcIjpcIjExNTg3MDc3MTc1ODI2MlwifSJ9"
  },
  {
    "id": 9410,
    "name": "Bretagnolles",
    "state_id": 26,
    "postal_code": "27220",
    "state_name": "Eure",
    "query": ""
  },
  {
    "id": 9411,
    "name": "Breteuil",
    "state_id": 26,
    "postal_code": "27160",
    "state_name": "Eure",
    "query": "https://www.facebook.com/events/search?q=Classics&sde=Abq6hpNmijm8kReC4KYmmDP0NuT4IxNliFRnd3vuRZUj8uh4BsVIK3dVq186DripYNQbuwiy5LR0V3y0W_iqLV_W&filters=eyJycF9ldmVudHNfbG9jYXRpb246MCI6IntcIm5hbWVcIjpcImZpbHRlcl9ldmVudHNfbG9jYXRpb25cIixcImFyZ3NcIjpcIjEwMDI0MzYxMDAxNzU1M1wifSJ9"
  },
  {
    "id": 9412,
    "name": "Brétigny",
    "state_id": 26,
    "postal_code": "27800",
    "state_name": "Eure",
    "query": "https://www.facebook.com/events/search?q=Classics&sde=Abq6hpNmijm8kReC4KYmmDP0NuT4IxNliFRnd3vuRZUj8uh4BsVIK3dVq186DripYNQbuwiy5LR0V3y0W_iqLV_W&filters=eyJycF9ldmVudHNfbG9jYXRpb246MCI6IntcIm5hbWVcIjpcImZpbHRlcl9ldmVudHNfbG9jYXRpb25cIixcImFyZ3NcIjpcIjEwMzc3MDY4OTY2MTQ3MFwifSJ9"
  },
  {
    "id": 9413,
    "name": "Breuilpont",
    "state_id": 26,
    "postal_code": "27640",
    "state_name": "Eure",
    "query": "https://www.facebook.com/events/search?q=Classics&sde=Abq6hpNmijm8kReC4KYmmDP0NuT4IxNliFRnd3vuRZUj8uh4BsVIK3dVq186DripYNQbuwiy5LR0V3y0W_iqLV_W&filters=eyJycF9ldmVudHNfbG9jYXRpb246MCI6IntcIm5hbWVcIjpcImZpbHRlcl9ldmVudHNfbG9jYXRpb25cIixcImFyZ3NcIjpcIjEwNTYwODUzNjEzODkyNVwifSJ9"
  },
  {
    "id": 9414,
    "name": "Breux-sur-Avre",
    "state_id": 26,
    "postal_code": "27570",
    "state_name": "Eure",
    "query": "https://www.facebook.com/events/search?q=Classics&sde=Abq6hpNmijm8kReC4KYmmDP0NuT4IxNliFRnd3vuRZUj8uh4BsVIK3dVq186DripYNQbuwiy5LR0V3y0W_iqLV_W&filters=eyJycF9ldmVudHNfbG9jYXRpb246MCI6IntcIm5hbWVcIjpcImZpbHRlcl9ldmVudHNfbG9jYXRpb25cIixcImFyZ3NcIjpcIjEwOTEwNzI3OTEyNDEwMlwifSJ9"
  },
  {
    "id": 9415,
    "name": "Brionne",
    "state_id": 26,
    "postal_code": "27800",
    "state_name": "Eure",
    "query": "https://www.facebook.com/events/search?q=Classics&sde=Abq6hpNmijm8kReC4KYmmDP0NuT4IxNliFRnd3vuRZUj8uh4BsVIK3dVq186DripYNQbuwiy5LR0V3y0W_iqLV_W&filters=eyJycF9ldmVudHNfbG9jYXRpb246MCI6IntcIm5hbWVcIjpcImZpbHRlcl9ldmVudHNfbG9jYXRpb25cIixcImFyZ3NcIjpcIjExNjU2MjYxNTAyNDI0MVwifSJ9"
  },
  {
    "id": 9416,
    "name": "Broglie",
    "state_id": 26,
    "postal_code": "27270",
    "state_name": "Eure",
    "query": "https://www.facebook.com/events/search?q=Classics&sde=Abq6hpNmijm8kReC4KYmmDP0NuT4IxNliFRnd3vuRZUj8uh4BsVIK3dVq186DripYNQbuwiy5LR0V3y0W_iqLV_W&filters=eyJycF9ldmVudHNfbG9jYXRpb246MCI6IntcIm5hbWVcIjpcImZpbHRlcl9ldmVudHNfbG9jYXRpb25cIixcImFyZ3NcIjpcIjEwOTA2NTIzMjQ0NzQ0OFwifSJ9"
  },
  {
    "id": 9417,
    "name": "Brosville",
    "state_id": 26,
    "postal_code": "27930",
    "state_name": "Eure",
    "query": "https://www.facebook.com/events/search?q=Classics&sde=Abq6hpNmijm8kReC4KYmmDP0NuT4IxNliFRnd3vuRZUj8uh4BsVIK3dVq186DripYNQbuwiy5LR0V3y0W_iqLV_W&filters=eyJycF9ldmVudHNfbG9jYXRpb246MCI6IntcIm5hbWVcIjpcImZpbHRlcl9ldmVudHNfbG9jYXRpb25cIixcImFyZ3NcIjpcIjExNTQzNjgyMTgwNjU1MlwifSJ9"
  },
  {
    "id": 9418,
    "name": "Bueil",
    "state_id": 26,
    "postal_code": "27730",
    "state_name": "Eure",
    "query": "https://www.facebook.com/events/search?q=Classics&sde=Abq6hpNmijm8kReC4KYmmDP0NuT4IxNliFRnd3vuRZUj8uh4BsVIK3dVq186DripYNQbuwiy5LR0V3y0W_iqLV_W&filters=eyJycF9ldmVudHNfbG9jYXRpb246MCI6IntcIm5hbWVcIjpcImZpbHRlcl9ldmVudHNfbG9jYXRpb25cIixcImFyZ3NcIjpcIjEwNzA5OTQ5MjY1NTcxOFwifSJ9"
  },
  {
    "id": 9419,
    "name": "Burey",
    "state_id": 26,
    "postal_code": "27190",
    "state_name": "Eure",
    "query": "https://www.facebook.com/events/search?q=Classics&sde=Abq6hpNmijm8kReC4KYmmDP0NuT4IxNliFRnd3vuRZUj8uh4BsVIK3dVq186DripYNQbuwiy5LR0V3y0W_iqLV_W&filters=eyJycF9ldmVudHNfbG9jYXRpb246MCI6IntcIm5hbWVcIjpcImZpbHRlcl9ldmVudHNfbG9jYXRpb25cIixcImFyZ3NcIjpcIjExMzMwMTg0ODY4NDg4OFwifSJ9"
  },
  {
    "id": 9420,
    "name": "Caillouet-Orgeville",
    "state_id": 26,
    "postal_code": "27120",
    "state_name": "Eure",
    "query": "https://www.facebook.com/events/search?q=Classics&sde=Abq6hpNmijm8kReC4KYmmDP0NuT4IxNliFRnd3vuRZUj8uh4BsVIK3dVq186DripYNQbuwiy5LR0V3y0W_iqLV_W&filters=eyJycF9ldmVudHNfbG9jYXRpb246MCI6IntcIm5hbWVcIjpcImZpbHRlcl9ldmVudHNfbG9jYXRpb25cIixcImFyZ3NcIjpcIjExNTM1MjA2NTE0NDE4NFwifSJ9"
  },
  {
    "id": 9421,
    "name": "Cailly-sur-Eure",
    "state_id": 26,
    "postal_code": "27490",
    "state_name": "Eure",
    "query": "https://www.facebook.com/events/search?q=Classics&sde=Abq6hpNmijm8kReC4KYmmDP0NuT4IxNliFRnd3vuRZUj8uh4BsVIK3dVq186DripYNQbuwiy5LR0V3y0W_iqLV_W&filters=eyJycF9ldmVudHNfbG9jYXRpb246MCI6IntcIm5hbWVcIjpcImZpbHRlcl9ldmVudHNfbG9jYXRpb25cIixcImFyZ3NcIjpcIjEwNzgyMzg4OTI0NzA3NlwifSJ9"
  },
  {
    "id": 9422,
    "name": "Calleville",
    "state_id": 26,
    "postal_code": "27800",
    "state_name": "Eure",
    "query": "https://www.facebook.com/events/search?q=Classics&sde=Abq6hpNmijm8kReC4KYmmDP0NuT4IxNliFRnd3vuRZUj8uh4BsVIK3dVq186DripYNQbuwiy5LR0V3y0W_iqLV_W&filters=eyJycF9ldmVudHNfbG9jYXRpb246MCI6IntcIm5hbWVcIjpcImZpbHRlcl9ldmVudHNfbG9jYXRpb25cIixcImFyZ3NcIjpcIjExMTY2NjY4MjE5NDcwNlwifSJ9"
  },
  {
    "id": 9423,
    "name": "Campigny",
    "state_id": 26,
    "postal_code": "27500",
    "state_name": "Eure",
    "query": "https://www.facebook.com/events/search?q=Classics&sde=Abq6hpNmijm8kReC4KYmmDP0NuT4IxNliFRnd3vuRZUj8uh4BsVIK3dVq186DripYNQbuwiy5LR0V3y0W_iqLV_W&filters=eyJycF9ldmVudHNfbG9jYXRpb246MCI6IntcIm5hbWVcIjpcImZpbHRlcl9ldmVudHNfbG9jYXRpb25cIixcImFyZ3NcIjpcIjEwNDMwNjUyOTYwODkzOVwifSJ9"
  },
  {
    "id": 9424,
    "name": "Canappeville",
    "state_id": 26,
    "postal_code": "27400",
    "state_name": "Eure",
    "query": "https://www.facebook.com/events/search?q=Classics&sde=Abq6hpNmijm8kReC4KYmmDP0NuT4IxNliFRnd3vuRZUj8uh4BsVIK3dVq186DripYNQbuwiy5LR0V3y0W_iqLV_W&filters=eyJycF9ldmVudHNfbG9jYXRpb246MCI6IntcIm5hbWVcIjpcImZpbHRlcl9ldmVudHNfbG9jYXRpb25cIixcImFyZ3NcIjpcIjEwOTAxNTMyMjQ2NDk3MVwifSJ9"
  },
  {
    "id": 9425,
    "name": "Caorches-Saint-Nicolas",
    "state_id": 26,
    "postal_code": "27300",
    "state_name": "Eure",
    "query": ""
  },
  {
    "id": 9426,
    "name": "Capelle-les-Grands",
    "state_id": 26,
    "postal_code": "27270",
    "state_name": "Eure",
    "query": "https://www.facebook.com/events/search?q=Classics&sde=Abq6hpNmijm8kReC4KYmmDP0NuT4IxNliFRnd3vuRZUj8uh4BsVIK3dVq186DripYNQbuwiy5LR0V3y0W_iqLV_W&filters=eyJycF9ldmVudHNfbG9jYXRpb246MCI6IntcIm5hbWVcIjpcImZpbHRlcl9ldmVudHNfbG9jYXRpb25cIixcImFyZ3NcIjpcIjExNjg5OTczNDk4NjkyM1wifSJ9"
  },
  {
    "id": 9427,
    "name": "Caugé",
    "state_id": 26,
    "postal_code": "27180",
    "state_name": "Eure",
    "query": "https://www.facebook.com/events/search?q=Classics&sde=Abq6hpNmijm8kReC4KYmmDP0NuT4IxNliFRnd3vuRZUj8uh4BsVIK3dVq186DripYNQbuwiy5LR0V3y0W_iqLV_W&filters=eyJycF9ldmVudHNfbG9jYXRpb246MCI6IntcIm5hbWVcIjpcImZpbHRlcl9ldmVudHNfbG9jYXRpb25cIixcImFyZ3NcIjpcIjExNjQ2NjczODM2NzUzOVwifSJ9"
  },
  {
    "id": 9428,
    "name": "Caumont",
    "state_id": 26,
    "postal_code": "27310",
    "state_name": "Eure",
    "query": "https://www.facebook.com/events/search?q=Classics&sde=Abq6hpNmijm8kReC4KYmmDP0NuT4IxNliFRnd3vuRZUj8uh4BsVIK3dVq186DripYNQbuwiy5LR0V3y0W_iqLV_W&filters=eyJycF9ldmVudHNfbG9jYXRpb246MCI6IntcIm5hbWVcIjpcImZpbHRlcl9ldmVudHNfbG9jYXRpb25cIixcImFyZ3NcIjpcIjEwNDk4NDM5Mjg3MjYxMFwifSJ9"
  },
  {
    "id": 9429,
    "name": "Cauverville-en-Roumois",
    "state_id": 26,
    "postal_code": "27350",
    "state_name": "Eure",
    "query": ""
  },
  {
    "id": 9430,
    "name": "Cesseville",
    "state_id": 26,
    "postal_code": "27110",
    "state_name": "Eure",
    "query": "https://www.facebook.com/events/search?q=Classics&sde=Abq6hpNmijm8kReC4KYmmDP0NuT4IxNliFRnd3vuRZUj8uh4BsVIK3dVq186DripYNQbuwiy5LR0V3y0W_iqLV_W&filters=eyJycF9ldmVudHNfbG9jYXRpb246MCI6IntcIm5hbWVcIjpcImZpbHRlcl9ldmVudHNfbG9jYXRpb25cIixcImFyZ3NcIjpcIjExNTM5ODg4NTE0NDM2NlwifSJ9"
  },
  {
    "id": 9431,
    "name": "Chaignes",
    "state_id": 26,
    "postal_code": "27120",
    "state_name": "Eure",
    "query": "https://www.facebook.com/events/search/?q=Classics&sde=Abq6hpNmijm8kReC4KYmmDP0NuT4IxNliFRnd3vuRZUj8uh4BsVIK3dVq186DripYNQbuwiy5LR0V3y0W_iqLV_W&filters=eyJycF9ldmVudHNfbG9jYXRpb246MCI6IntcIm5hbWVcIjpcImZpbHRlcl9ldmVudHNfbG9jYXRpb25cIixcImFyZ3NcIjpcIjExMTU5MDc0MjE5NDk1NlwifSJ9"
  },
  {
    "id": 9432,
    "name": "Chaise-Dieu-du-Theil",
    "state_id": 26,
    "postal_code": "27580",
    "state_name": "Eure",
    "query": ""
  },
  {
    "id": 9433,
    "name": "Chamblac",
    "state_id": 26,
    "postal_code": "27270",
    "state_name": "Eure",
    "query": "https://www.facebook.com/events/search?q=Classics&sde=Abq6hpNmijm8kReC4KYmmDP0NuT4IxNliFRnd3vuRZUj8uh4BsVIK3dVq186DripYNQbuwiy5LR0V3y0W_iqLV_W&filters=eyJycF9ldmVudHNfbG9jYXRpb246MCI6IntcIm5hbWVcIjpcImZpbHRlcl9ldmVudHNfbG9jYXRpb25cIixcImFyZ3NcIjpcIjEwNzM4Mzc5NTk2NDY3NFwifSJ9"
  },
  {
    "id": 9434,
    "name": "Chambord",
    "state_id": 26,
    "postal_code": "27250",
    "state_name": "Eure",
    "query": "https://www.facebook.com/events/search?q=Classics&sde=Abq6hpNmijm8kReC4KYmmDP0NuT4IxNliFRnd3vuRZUj8uh4BsVIK3dVq186DripYNQbuwiy5LR0V3y0W_iqLV_W&filters=eyJycF9ldmVudHNfbG9jYXRpb246MCI6IntcIm5hbWVcIjpcImZpbHRlcl9ldmVudHNfbG9jYXRpb25cIixcImFyZ3NcIjpcIjEwOTgwNzIwOTA0MzAzOFwifSJ9"
  },
  {
    "id": 9435,
    "name": "Chambray",
    "state_id": 26,
    "postal_code": "27120",
    "state_name": "Eure",
    "query": "https://www.facebook.com/events/search?q=Classics&sde=Abq6hpNmijm8kReC4KYmmDP0NuT4IxNliFRnd3vuRZUj8uh4BsVIK3dVq186DripYNQbuwiy5LR0V3y0W_iqLV_W&filters=eyJycF9ldmVudHNfbG9jYXRpb246MCI6IntcIm5hbWVcIjpcImZpbHRlcl9ldmVudHNfbG9jYXRpb25cIixcImFyZ3NcIjpcIjExMTE2NjYzNTU3OTg4OFwifSJ9"
  },
  {
    "id": 9436,
    "name": "Champ-Dolent",
    "state_id": 26,
    "postal_code": "27190",
    "state_name": "Eure",
    "query": "https://www.facebook.com/events/search?q=Classics&sde=Abq6hpNmijm8kReC4KYmmDP0NuT4IxNliFRnd3vuRZUj8uh4BsVIK3dVq186DripYNQbuwiy5LR0V3y0W_iqLV_W&filters=eyJycF9ldmVudHNfbG9jYXRpb246MCI6IntcIm5hbWVcIjpcImZpbHRlcl9ldmVudHNfbG9jYXRpb25cIixcImFyZ3NcIjpcIjEwODA4NjQ0OTIyNTY4MFwifSJ9"
  },
  {
    "id": 9437,
    "name": "Champenard",
    "state_id": 26,
    "postal_code": "27600",
    "state_name": "Eure",
    "query": "https://www.facebook.com/events/search?q=Classics&sde=Abq6hpNmijm8kReC4KYmmDP0NuT4IxNliFRnd3vuRZUj8uh4BsVIK3dVq186DripYNQbuwiy5LR0V3y0W_iqLV_W&filters=eyJycF9ldmVudHNfbG9jYXRpb246MCI6IntcIm5hbWVcIjpcImZpbHRlcl9ldmVudHNfbG9jYXRpb25cIixcImFyZ3NcIjpcIjExMTkzODE1MjE2MzIzOVwifSJ9"
  },
  {
    "id": 9438,
    "name": "Champigny-la-Futelaye",
    "state_id": 26,
    "postal_code": "27220",
    "state_name": "Eure",
    "query": "https://www.facebook.com/events/search?q=Classics&sde=Abq6hpNmijm8kReC4KYmmDP0NuT4IxNliFRnd3vuRZUj8uh4BsVIK3dVq186DripYNQbuwiy5LR0V3y0W_iqLV_W&filters=eyJycF9ldmVudHNfbG9jYXRpb246MCI6IntcIm5hbWVcIjpcImZpbHRlcl9ldmVudHNfbG9jYXRpb25cIixcImFyZ3NcIjpcIjEwMzMzNTM3NjM3NDkyNVwifSJ9"
  },
  {
    "id": 9439,
    "name": "La Chapelle-Bayvel",
    "state_id": 26,
    "postal_code": "27260",
    "state_name": "Eure",
    "query": "https://www.facebook.com/events/search?q=Classics&sde=Abq6hpNmijm8kReC4KYmmDP0NuT4IxNliFRnd3vuRZUj8uh4BsVIK3dVq186DripYNQbuwiy5LR0V3y0W_iqLV_W&filters=eyJycF9ldmVudHNfbG9jYXRpb246MCI6IntcIm5hbWVcIjpcImZpbHRlcl9ldmVudHNfbG9jYXRpb25cIixcImFyZ3NcIjpcIjExMzAxNDkzNTM5MTkxOFwifSJ9"
  },
  {
    "id": 9440,
    "name": "La Chapelle-du-Bois-des-Faulx",
    "state_id": 26,
    "postal_code": "27930",
    "state_name": "Eure",
    "query": "https://www.facebook.com/events/search?q=Classics&sde=Abq6hpNmijm8kReC4KYmmDP0NuT4IxNliFRnd3vuRZUj8uh4BsVIK3dVq186DripYNQbuwiy5LR0V3y0W_iqLV_W&filters=eyJycF9ldmVudHNfbG9jYXRpb246MCI6IntcIm5hbWVcIjpcImZpbHRlcl9ldmVudHNfbG9jYXRpb25cIixcImFyZ3NcIjpcIjExMTUzOTAwNTUzNDU3N1wifSJ9"
  },
  {
    "id": 9441,
    "name": "La Chapelle-Gauthier",
    "state_id": 26,
    "postal_code": "27270",
    "state_name": "Eure",
    "query": "https://www.facebook.com/events/search?q=Classics&sde=Abq6hpNmijm8kReC4KYmmDP0NuT4IxNliFRnd3vuRZUj8uh4BsVIK3dVq186DripYNQbuwiy5LR0V3y0W_iqLV_W&filters=eyJycF9ldmVudHNfbG9jYXRpb246MCI6IntcIm5hbWVcIjpcImZpbHRlcl9ldmVudHNfbG9jYXRpb25cIixcImFyZ3NcIjpcIjExMzczMjQ1MTk3NTE1OFwifSJ9"
  },
  {
    "id": 9442,
    "name": "La Chapelle-Hareng",
    "state_id": 26,
    "postal_code": "27230",
    "state_name": "Eure",
    "query": ""
  },
  {
    "id": 9443,
    "name": "Charleval",
    "state_id": 26,
    "postal_code": "27380",
    "state_name": "Eure",
    "query": "https://www.facebook.com/events/search?q=Classics&sde=Abq6hpNmijm8kReC4KYmmDP0NuT4IxNliFRnd3vuRZUj8uh4BsVIK3dVq186DripYNQbuwiy5LR0V3y0W_iqLV_W&filters=eyJycF9ldmVudHNfbG9jYXRpb246MCI6IntcIm5hbWVcIjpcImZpbHRlcl9ldmVudHNfbG9jYXRpb25cIixcImFyZ3NcIjpcIjExMzI1NjM0ODY5MTczOFwifSJ9"
  },
  {
    "id": 9444,
    "name": "Château-sur-Epte",
    "state_id": 26,
    "postal_code": "27420",
    "state_name": "Eure",
    "query": "https://www.facebook.com/events/search?q=Classics&sde=Abq6hpNmijm8kReC4KYmmDP0NuT4IxNliFRnd3vuRZUj8uh4BsVIK3dVq186DripYNQbuwiy5LR0V3y0W_iqLV_W&filters=eyJycF9ldmVudHNfbG9jYXRpb246MCI6IntcIm5hbWVcIjpcImZpbHRlcl9ldmVudHNfbG9jYXRpb25cIixcImFyZ3NcIjpcIjExNjE0MTExMTczNTA2MFwifSJ9"
  },
  {
    "id": 9445,
    "name": "Chauvincourt-Provemont",
    "state_id": 26,
    "postal_code": "27150",
    "state_name": "Eure",
    "query": ""
  },
  {
    "id": 9446,
    "name": "Chavigny-Bailleul",
    "state_id": 26,
    "postal_code": "27220",
    "state_name": "Eure",
    "query": "https://www.facebook.com/events/search?q=Classics&sde=Abq6hpNmijm8kReC4KYmmDP0NuT4IxNliFRnd3vuRZUj8uh4BsVIK3dVq186DripYNQbuwiy5LR0V3y0W_iqLV_W&filters=eyJycF9ldmVudHNfbG9jYXRpb246MCI6IntcIm5hbWVcIjpcImZpbHRlcl9ldmVudHNfbG9jYXRpb25cIixcImFyZ3NcIjpcIjExMjM2MjM5NTQ1NTEyOFwifSJ9"
  },
  {
    "id": 9447,
    "name": "Chennebrun",
    "state_id": 26,
    "postal_code": "27820",
    "state_name": "Eure",
    "query": ""
  },
  {
    "id": 9448,
    "name": "Chéronvilliers",
    "state_id": 26,
    "postal_code": "27250",
    "state_name": "Eure",
    "query": "https://www.facebook.com/events/search?q=Classics&sde=Abq6hpNmijm8kReC4KYmmDP0NuT4IxNliFRnd3vuRZUj8uh4BsVIK3dVq186DripYNQbuwiy5LR0V3y0W_iqLV_W&filters=eyJycF9ldmVudHNfbG9jYXRpb246MCI6IntcIm5hbWVcIjpcImZpbHRlcl9ldmVudHNfbG9jYXRpb25cIixcImFyZ3NcIjpcIjEwODM5NTQzOTE4NDY1N1wifSJ9"
  },
  {
    "id": 9449,
    "name": "Marbois",
    "state_id": 26,
    "postal_code": "27160",
    "state_name": "Eure",
    "query": ""
  },
  {
    "id": 9450,
    "name": "Cierrey",
    "state_id": 26,
    "postal_code": "27930",
    "state_name": "Eure",
    "query": "https://www.facebook.com/events/search?q=Classics&sde=Abq6hpNmijm8kReC4KYmmDP0NuT4IxNliFRnd3vuRZUj8uh4BsVIK3dVq186DripYNQbuwiy5LR0V3y0W_iqLV_W&filters=eyJycF9ldmVudHNfbG9jYXRpb246MCI6IntcIm5hbWVcIjpcImZpbHRlcl9ldmVudHNfbG9jYXRpb25cIixcImFyZ3NcIjpcIjExMTc1NTg2NTUxOTczMVwifSJ9"
  },
  {
    "id": 9451,
    "name": "Claville",
    "state_id": 26,
    "postal_code": "27180",
    "state_name": "Eure",
    "query": "https://www.facebook.com/events/search?q=Classics&sde=Abq6hpNmijm8kReC4KYmmDP0NuT4IxNliFRnd3vuRZUj8uh4BsVIK3dVq186DripYNQbuwiy5LR0V3y0W_iqLV_W&filters=eyJycF9ldmVudHNfbG9jYXRpb246MCI6IntcIm5hbWVcIjpcImZpbHRlcl9ldmVudHNfbG9jYXRpb25cIixcImFyZ3NcIjpcIjEwMzMyOTYwMzA0MTc0N1wifSJ9"
  },
  {
    "id": 9452,
    "name": "Collandres-Quincarnon",
    "state_id": 26,
    "postal_code": "27190",
    "state_name": "Eure",
    "query": ""
  },
  {
    "id": 9453,
    "name": "Colletot",
    "state_id": 26,
    "postal_code": "27500",
    "state_name": "Eure",
    "query": ""
  },
  {
    "id": 9454,
    "name": "Combon",
    "state_id": 26,
    "postal_code": "27170",
    "state_name": "Eure",
    "query": "https://www.facebook.com/events/search?q=Classics&sde=Abq6hpNmijm8kReC4KYmmDP0NuT4IxNliFRnd3vuRZUj8uh4BsVIK3dVq186DripYNQbuwiy5LR0V3y0W_iqLV_W&filters=eyJycF9ldmVudHNfbG9jYXRpb246MCI6IntcIm5hbWVcIjpcImZpbHRlcl9ldmVudHNfbG9jYXRpb25cIixcImFyZ3NcIjpcIjExMTkxNTUxMjE2NDE1MFwifSJ9"
  },
  {
    "id": 9455,
    "name": "Conches-en-Ouche",
    "state_id": 26,
    "postal_code": "27190",
    "state_name": "Eure",
    "query": "https://www.facebook.com/events/search?q=Classics&sde=Abq6hpNmijm8kReC4KYmmDP0NuT4IxNliFRnd3vuRZUj8uh4BsVIK3dVq186DripYNQbuwiy5LR0V3y0W_iqLV_W&filters=eyJycF9ldmVudHNfbG9jYXRpb246MCI6IntcIm5hbWVcIjpcImZpbHRlcl9ldmVudHNfbG9jYXRpb25cIixcImFyZ3NcIjpcIjEwOTYwNjAxMjQwMzk3MlwifSJ9"
  },
  {
    "id": 9456,
    "name": "Condé-sur-Risle",
    "state_id": 26,
    "postal_code": "27290",
    "state_name": "Eure",
    "query": "https://www.facebook.com/events/search?q=Classics&sde=Abq6hpNmijm8kReC4KYmmDP0NuT4IxNliFRnd3vuRZUj8uh4BsVIK3dVq186DripYNQbuwiy5LR0V3y0W_iqLV_W&filters=eyJycF9ldmVudHNfbG9jYXRpb246MCI6IntcIm5hbWVcIjpcImZpbHRlcl9ldmVudHNfbG9jYXRpb25cIixcImFyZ3NcIjpcIjExMTY0NDgzODg1NzczN1wifSJ9"
  },
  {
    "id": 9457,
    "name": "Connelles",
    "state_id": 26,
    "postal_code": "27430",
    "state_name": "Eure",
    "query": "https://www.facebook.com/events/search?q=Classics&sde=Abq6hpNmijm8kReC4KYmmDP0NuT4IxNliFRnd3vuRZUj8uh4BsVIK3dVq186DripYNQbuwiy5LR0V3y0W_iqLV_W&filters=eyJycF9ldmVudHNfbG9jYXRpb246MCI6IntcIm5hbWVcIjpcImZpbHRlcl9ldmVudHNfbG9jYXRpb25cIixcImFyZ3NcIjpcIjEwNzA0MjY5OTMzNjQ5NFwifSJ9"
  },
  {
    "id": 9458,
    "name": "Conteville",
    "state_id": 26,
    "postal_code": "27210",
    "state_name": "Eure",
    "query": "https://www.facebook.com/events/search?q=Classics&sde=Abq6hpNmijm8kReC4KYmmDP0NuT4IxNliFRnd3vuRZUj8uh4BsVIK3dVq186DripYNQbuwiy5LR0V3y0W_iqLV_W&filters=eyJycF9ldmVudHNfbG9jYXRpb246MCI6IntcIm5hbWVcIjpcImZpbHRlcl9ldmVudHNfbG9jYXRpb25cIixcImFyZ3NcIjpcIjExMzY0Nzg4NTMxNTkyNVwifSJ9"
  },
  {
    "id": 9459,
    "name": "Cormeilles",
    "state_id": 26,
    "postal_code": "27260",
    "state_name": "Eure",
    "query": "https://www.facebook.com/events/search?q=Classics&sde=Abq6hpNmijm8kReC4KYmmDP0NuT4IxNliFRnd3vuRZUj8uh4BsVIK3dVq186DripYNQbuwiy5LR0V3y0W_iqLV_W&filters=eyJycF9ldmVudHNfbG9jYXRpb246MCI6IntcIm5hbWVcIjpcImZpbHRlcl9ldmVudHNfbG9jYXRpb25cIixcImFyZ3NcIjpcIjEwODg2MzEzMjQ3NTE3NVwifSJ9"
  },
  {
    "id": 9460,
    "name": "Le Cormier",
    "state_id": 26,
    "postal_code": "27120",
    "state_name": "Eure",
    "query": "https://www.facebook.com/events/search?q=Classics&sde=Abq6hpNmijm8kReC4KYmmDP0NuT4IxNliFRnd3vuRZUj8uh4BsVIK3dVq186DripYNQbuwiy5LR0V3y0W_iqLV_W&filters=eyJycF9ldmVudHNfbG9jYXRpb246MCI6IntcIm5hbWVcIjpcImZpbHRlcl9ldmVudHNfbG9jYXRpb25cIixcImFyZ3NcIjpcIjEwNDgzMTU2Mjg4NzYxMlwifSJ9"
  },
  {
    "id": 9461,
    "name": "Corneville-la-Fouquetière",
    "state_id": 26,
    "postal_code": "27300",
    "state_name": "Eure",
    "query": ""
  },
  {
    "id": 9462,
    "name": "Corneville-sur-Risle",
    "state_id": 26,
    "postal_code": "27500",
    "state_name": "Eure",
    "query": "https://www.facebook.com/events/search?q=Classics&sde=Abq6hpNmijm8kReC4KYmmDP0NuT4IxNliFRnd3vuRZUj8uh4BsVIK3dVq186DripYNQbuwiy5LR0V3y0W_iqLV_W&filters=eyJycF9ldmVudHNfbG9jYXRpb246MCI6IntcIm5hbWVcIjpcImZpbHRlcl9ldmVudHNfbG9jYXRpb25cIixcImFyZ3NcIjpcIjExNTQ4OTU0NTEzMzIzOFwifSJ9"
  },
  {
    "id": 9463,
    "name": "Coudray",
    "state_id": 26,
    "postal_code": "27150",
    "state_name": "Eure",
    "query": "https://www.facebook.com/events/search?q=Classics&sde=Abq6hpNmijm8kReC4KYmmDP0NuT4IxNliFRnd3vuRZUj8uh4BsVIK3dVq186DripYNQbuwiy5LR0V3y0W_iqLV_W&filters=eyJycF9ldmVudHNfbG9jYXRpb246MCI6IntcIm5hbWVcIjpcImZpbHRlcl9ldmVudHNfbG9jYXRpb25cIixcImFyZ3NcIjpcIjExMTM4MTAxNTU1MDQzMlwifSJ9"
  },
  {
    "id": 9464,
    "name": "Coudres",
    "state_id": 26,
    "postal_code": "27220",
    "state_name": "Eure",
    "query": "https://www.facebook.com/events/search?q=Classics&sde=Abq6hpNmijm8kReC4KYmmDP0NuT4IxNliFRnd3vuRZUj8uh4BsVIK3dVq186DripYNQbuwiy5LR0V3y0W_iqLV_W&filters=eyJycF9ldmVudHNfbG9jYXRpb246MCI6IntcIm5hbWVcIjpcImZpbHRlcl9ldmVudHNfbG9jYXRpb25cIixcImFyZ3NcIjpcIjEwOTI2Njk0NTc3MzQwMVwifSJ9"
  },
  {
    "id": 9465,
    "name": "Courbépine",
    "state_id": 26,
    "postal_code": "27300",
    "state_name": "Eure",
    "query": "https://www.facebook.com/events/search?q=Classics&sde=Abq6hpNmijm8kReC4KYmmDP0NuT4IxNliFRnd3vuRZUj8uh4BsVIK3dVq186DripYNQbuwiy5LR0V3y0W_iqLV_W&filters=eyJycF9ldmVudHNfbG9jYXRpb246MCI6IntcIm5hbWVcIjpcImZpbHRlcl9ldmVudHNfbG9jYXRpb25cIixcImFyZ3NcIjpcIjExMjE1NDM4NTQ3NTM2OFwifSJ9"
  },
  {
    "id": 9466,
    "name": "Courcelles-sur-Seine",
    "state_id": 26,
    "postal_code": "27940",
    "state_name": "Eure",
    "query": "https://www.facebook.com/events/search?q=Classics&sde=Abq6hpNmijm8kReC4KYmmDP0NuT4IxNliFRnd3vuRZUj8uh4BsVIK3dVq186DripYNQbuwiy5LR0V3y0W_iqLV_W&filters=eyJycF9ldmVudHNfbG9jYXRpb246MCI6IntcIm5hbWVcIjpcImZpbHRlcl9ldmVudHNfbG9jYXRpb25cIixcImFyZ3NcIjpcIjEwOTA0NTM5OTEzMDE3OFwifSJ9"
  },
  {
    "id": 9467,
    "name": "Courdemanche",
    "state_id": 26,
    "postal_code": "27320",
    "state_name": "Eure",
    "query": "https://www.facebook.com/events/search?q=Classics&sde=Abq6hpNmijm8kReC4KYmmDP0NuT4IxNliFRnd3vuRZUj8uh4BsVIK3dVq186DripYNQbuwiy5LR0V3y0W_iqLV_W&filters=eyJycF9ldmVudHNfbG9jYXRpb246MCI6IntcIm5hbWVcIjpcImZpbHRlcl9ldmVudHNfbG9jYXRpb25cIixcImFyZ3NcIjpcIjEwNDY4OTgwOTU3MDMzOVwifSJ9"
  },
  {
    "id": 9468,
    "name": "Courteilles",
    "state_id": 26,
    "postal_code": "27130",
    "state_name": "Eure",
    "query": ""
  },
  {
    "id": 9469,
    "name": "La Couture-Boussey",
    "state_id": 26,
    "postal_code": "27750",
    "state_name": "Eure",
    "query": "https://www.facebook.com/events/search?q=Classics&sde=Abq6hpNmijm8kReC4KYmmDP0NuT4IxNliFRnd3vuRZUj8uh4BsVIK3dVq186DripYNQbuwiy5LR0V3y0W_iqLV_W&filters=eyJycF9ldmVudHNfbG9jYXRpb246MCI6IntcIm5hbWVcIjpcImZpbHRlcl9ldmVudHNfbG9jYXRpb25cIixcImFyZ3NcIjpcIjEwNjk5MDM4MjY3NDcxNlwifSJ9"
  },
  {
    "id": 9470,
    "name": "Crasville",
    "state_id": 26,
    "postal_code": "27400",
    "state_name": "Eure",
    "query": "https://www.facebook.com/events/search?q=Classics&sde=Abq6hpNmijm8kReC4KYmmDP0NuT4IxNliFRnd3vuRZUj8uh4BsVIK3dVq186DripYNQbuwiy5LR0V3y0W_iqLV_W&filters=eyJycF9ldmVudHNfbG9jYXRpb246MCI6IntcIm5hbWVcIjpcImZpbHRlcl9ldmVudHNfbG9jYXRpb25cIixcImFyZ3NcIjpcIjExNDA1ODM0NTI3NDk0MVwifSJ9"
  },
  {
    "id": 9471,
    "name": "Crestot",
    "state_id": 26,
    "postal_code": "27110",
    "state_name": "Eure",
    "query": "https://www.facebook.com/events/search?q=Classics&sde=Abq6hpNmijm8kReC4KYmmDP0NuT4IxNliFRnd3vuRZUj8uh4BsVIK3dVq186DripYNQbuwiy5LR0V3y0W_iqLV_W&filters=eyJycF9ldmVudHNfbG9jYXRpb246MCI6IntcIm5hbWVcIjpcImZpbHRlcl9ldmVudHNfbG9jYXRpb25cIixcImFyZ3NcIjpcIjEwOTA2MzczOTEyNjQ5MVwifSJ9"
  },
  {
    "id": 9472,
    "name": "Criquebeuf-la-Campagne",
    "state_id": 26,
    "postal_code": "27110",
    "state_name": "Eure",
    "query": "https://www.facebook.com/events/search?q=Classics&sde=Abq6hpNmijm8kReC4KYmmDP0NuT4IxNliFRnd3vuRZUj8uh4BsVIK3dVq186DripYNQbuwiy5LR0V3y0W_iqLV_W&filters=eyJycF9ldmVudHNfbG9jYXRpb246MCI6IntcIm5hbWVcIjpcImZpbHRlcl9ldmVudHNfbG9jYXRpb25cIixcImFyZ3NcIjpcIjExMjc1ODU1NTQwOTcyMlwifSJ9"
  },
  {
    "id": 9473,
    "name": "Criquebeuf-sur-Seine",
    "state_id": 26,
    "postal_code": "27340",
    "state_name": "Eure",
    "query": "https://www.facebook.com/events/search?q=Classics&sde=Abq6hpNmijm8kReC4KYmmDP0NuT4IxNliFRnd3vuRZUj8uh4BsVIK3dVq186DripYNQbuwiy5LR0V3y0W_iqLV_W&filters=eyJycF9ldmVudHNfbG9jYXRpb246MCI6IntcIm5hbWVcIjpcImZpbHRlcl9ldmVudHNfbG9jYXRpb25cIixcImFyZ3NcIjpcIjExNjYyNTc3ODM1MTY4N1wifSJ9"
  },
  {
    "id": 9474,
    "name": "La Croisille",
    "state_id": 26,
    "postal_code": "27190",
    "state_name": "Eure",
    "query": "https://www.facebook.com/events/search?q=Classics&sde=Abq6hpNmijm8kReC4KYmmDP0NuT4IxNliFRnd3vuRZUj8uh4BsVIK3dVq186DripYNQbuwiy5LR0V3y0W_iqLV_W&filters=eyJycF9ldmVudHNfbG9jYXRpb246MCI6IntcIm5hbWVcIjpcImZpbHRlcl9ldmVudHNfbG9jYXRpb25cIixcImFyZ3NcIjpcIjEwNzMzNjg5OTMwMjk1MVwifSJ9"
  },
  {
    "id": 9475,
    "name": "Croisy-sur-Eure",
    "state_id": 26,
    "postal_code": "27120",
    "state_name": "Eure",
    "query": ""
  },
  {
    "id": 9476,
    "name": "Clef Vallée d'Eure",
    "state_id": 26,
    "postal_code": "27490",
    "state_name": "Eure",
    "query": ""
  },
  {
    "id": 9477,
    "name": "Crosville-la-Vieille",
    "state_id": 26,
    "postal_code": "27110",
    "state_name": "Eure",
    "query": "https://www.facebook.com/events/search?q=Classics&sde=Abq6hpNmijm8kReC4KYmmDP0NuT4IxNliFRnd3vuRZUj8uh4BsVIK3dVq186DripYNQbuwiy5LR0V3y0W_iqLV_W&filters=eyJycF9ldmVudHNfbG9jYXRpb246MCI6IntcIm5hbWVcIjpcImZpbHRlcl9ldmVudHNfbG9jYXRpb25cIixcImFyZ3NcIjpcIjExNTk4ODYwMTc0NzAyMlwifSJ9"
  },
  {
    "id": 9478,
    "name": "Croth",
    "state_id": 26,
    "postal_code": "27530",
    "state_name": "Eure",
    "query": "https://www.facebook.com/events/search?q=Classics&sde=Abq6hpNmijm8kReC4KYmmDP0NuT4IxNliFRnd3vuRZUj8uh4BsVIK3dVq186DripYNQbuwiy5LR0V3y0W_iqLV_W&filters=eyJycF9ldmVudHNfbG9jYXRpb246MCI6IntcIm5hbWVcIjpcImZpbHRlcl9ldmVudHNfbG9jYXRpb25cIixcImFyZ3NcIjpcIjExMTI3NTY2MjIyNjg4MlwifSJ9"
  },
  {
    "id": 9479,
    "name": "Cuverville",
    "state_id": 26,
    "postal_code": "27700",
    "state_name": "Eure",
    "query": "https://www.facebook.com/events/search?q=Classics&sde=Abq6hpNmijm8kReC4KYmmDP0NuT4IxNliFRnd3vuRZUj8uh4BsVIK3dVq186DripYNQbuwiy5LR0V3y0W_iqLV_W&filters=eyJycF9ldmVudHNfbG9jYXRpb246MCI6IntcIm5hbWVcIjpcImZpbHRlcl9ldmVudHNfbG9jYXRpb25cIixcImFyZ3NcIjpcIjEwOTAyMTQ4NTc4NzQ3OFwifSJ9"
  },
  {
    "id": 9480,
    "name": "Les Damps",
    "state_id": 26,
    "postal_code": "27340",
    "state_name": "Eure",
    "query": "https://www.facebook.com/events/search?q=Classics&sde=Abq6hpNmijm8kReC4KYmmDP0NuT4IxNliFRnd3vuRZUj8uh4BsVIK3dVq186DripYNQbuwiy5LR0V3y0W_iqLV_W&filters=eyJycF9ldmVudHNfbG9jYXRpb246MCI6IntcIm5hbWVcIjpcImZpbHRlcl9ldmVudHNfbG9jYXRpb25cIixcImFyZ3NcIjpcIjExMTk4ODkxMjE2MTc3M1wifSJ9"
  },
  {
    "id": 9481,
    "name": "Mesnils-sur-Iton",
    "state_id": 26,
    "postal_code": "27160",
    "state_name": "Eure",
    "query": ""
  },
  {
    "id": 9482,
    "name": "Dangu",
    "state_id": 26,
    "postal_code": "27720",
    "state_name": "Eure",
    "query": "https://www.facebook.com/events/search?q=Classics&sde=Abq6hpNmijm8kReC4KYmmDP0NuT4IxNliFRnd3vuRZUj8uh4BsVIK3dVq186DripYNQbuwiy5LR0V3y0W_iqLV_W&filters=eyJycF9ldmVudHNfbG9jYXRpb246MCI6IntcIm5hbWVcIjpcImZpbHRlcl9ldmVudHNfbG9jYXRpb25cIixcImFyZ3NcIjpcIjEwNjYxMzc1MjcwNjY2NVwifSJ9"
  },
  {
    "id": 9483,
    "name": "Dardez",
    "state_id": 26,
    "postal_code": "27930",
    "state_name": "Eure",
    "query": ""
  },
  {
    "id": 9484,
    "name": "Daubeuf-la-Campagne",
    "state_id": 26,
    "postal_code": "27110",
    "state_name": "Eure",
    "query": ""
  },
  {
    "id": 9485,
    "name": "Daubeuf-près-Vatteville",
    "state_id": 26,
    "postal_code": "27430",
    "state_name": "Eure",
    "query": "https://www.facebook.com/events/search?q=Classics&sde=Abq6hpNmijm8kReC4KYmmDP0NuT4IxNliFRnd3vuRZUj8uh4BsVIK3dVq186DripYNQbuwiy5LR0V3y0W_iqLV_W&filters=eyJycF9ldmVudHNfbG9jYXRpb246MCI6IntcIm5hbWVcIjpcImZpbHRlcl9ldmVudHNfbG9jYXRpb25cIixcImFyZ3NcIjpcIjExMjUyMzEzODc2NTU2OVwifSJ9"
  },
  {
    "id": 9486,
    "name": "Douains",
    "state_id": 26,
    "postal_code": "27120",
    "state_name": "Eure",
    "query": "https://www.facebook.com/events/search?q=Classics&sde=Abq6hpNmijm8kReC4KYmmDP0NuT4IxNliFRnd3vuRZUj8uh4BsVIK3dVq186DripYNQbuwiy5LR0V3y0W_iqLV_W&filters=eyJycF9ldmVudHNfbG9jYXRpb246MCI6IntcIm5hbWVcIjpcImZpbHRlcl9ldmVudHNfbG9jYXRpb25cIixcImFyZ3NcIjpcIjExMTIyMzY0NTU3MzkxOVwifSJ9"
  },
  {
    "id": 9487,
    "name": "Doudeauville-en-Vexin",
    "state_id": 26,
    "postal_code": "27150",
    "state_name": "Eure",
    "query": ""
  },
  {
    "id": 9488,
    "name": "Douville-sur-Andelle",
    "state_id": 26,
    "postal_code": "27380",
    "state_name": "Eure",
    "query": "https://www.facebook.com/events/search?q=Classics&sde=Abq6hpNmijm8kReC4KYmmDP0NuT4IxNliFRnd3vuRZUj8uh4BsVIK3dVq186DripYNQbuwiy5LR0V3y0W_iqLV_W&filters=eyJycF9ldmVudHNfbG9jYXRpb246MCI6IntcIm5hbWVcIjpcImZpbHRlcl9ldmVudHNfbG9jYXRpb25cIixcImFyZ3NcIjpcIjExMTg3MzQ5ODgzNzk3OVwifSJ9"
  },
  {
    "id": 9489,
    "name": "Droisy",
    "state_id": 26,
    "postal_code": "27320",
    "state_name": "Eure",
    "query": "https://www.facebook.com/events/search?q=Classics&sde=Abq6hpNmijm8kReC4KYmmDP0NuT4IxNliFRnd3vuRZUj8uh4BsVIK3dVq186DripYNQbuwiy5LR0V3y0W_iqLV_W&filters=eyJycF9ldmVudHNfbG9jYXRpb246MCI6IntcIm5hbWVcIjpcImZpbHRlcl9ldmVudHNfbG9jYXRpb25cIixcImFyZ3NcIjpcIjEwMDI0Njk0NjY4MzYyNVwifSJ9"
  },
  {
    "id": 9490,
    "name": "Drucourt",
    "state_id": 26,
    "postal_code": "27230",
    "state_name": "Eure",
    "query": "https://www.facebook.com/events/search?q=Classics&sde=Abq6hpNmijm8kReC4KYmmDP0NuT4IxNliFRnd3vuRZUj8uh4BsVIK3dVq186DripYNQbuwiy5LR0V3y0W_iqLV_W&filters=eyJycF9ldmVudHNfbG9jYXRpb246MCI6IntcIm5hbWVcIjpcImZpbHRlcl9ldmVudHNfbG9jYXRpb25cIixcImFyZ3NcIjpcIjEwOTU1MzY0MjQwOTgyMVwifSJ9"
  },
  {
    "id": 9491,
    "name": "Duranville",
    "state_id": 26,
    "postal_code": "27230",
    "state_name": "Eure",
    "query": "https://www.facebook.com/events/search?q=Classics&sde=Abq6hpNmijm8kReC4KYmmDP0NuT4IxNliFRnd3vuRZUj8uh4BsVIK3dVq186DripYNQbuwiy5LR0V3y0W_iqLV_W&filters=eyJycF9ldmVudHNfbG9jYXRpb246MCI6IntcIm5hbWVcIjpcImZpbHRlcl9ldmVudHNfbG9jYXRpb25cIixcImFyZ3NcIjpcIjExMjQ5MjI4ODc2Mzg0OVwifSJ9"
  },
  {
    "id": 9492,
    "name": "Écaquelon",
    "state_id": 26,
    "postal_code": "27290",
    "state_name": "Eure",
    "query": "https://www.facebook.com/events/search?q=Classics&sde=Abq6hpNmijm8kReC4KYmmDP0NuT4IxNliFRnd3vuRZUj8uh4BsVIK3dVq186DripYNQbuwiy5LR0V3y0W_iqLV_W&filters=eyJycF9ldmVudHNfbG9jYXRpb246MCI6IntcIm5hbWVcIjpcImZpbHRlcl9ldmVudHNfbG9jYXRpb25cIixcImFyZ3NcIjpcIjExMzA4ODk2ODcxNjY2MFwifSJ9"
  },
  {
    "id": 9493,
    "name": "Écardenville-la-Campagne",
    "state_id": 26,
    "postal_code": "27170",
    "state_name": "Eure",
    "query": "https://www.facebook.com/events/search?q=Classics&sde=Abq6hpNmijm8kReC4KYmmDP0NuT4IxNliFRnd3vuRZUj8uh4BsVIK3dVq186DripYNQbuwiy5LR0V3y0W_iqLV_W&filters=eyJycF9ldmVudHNfbG9jYXRpb246MCI6IntcIm5hbWVcIjpcImZpbHRlcl9ldmVudHNfbG9jYXRpb25cIixcImFyZ3NcIjpcIjExMTMyNzk2MjIyMTA2MVwifSJ9"
  },
  {
    "id": 9494,
    "name": "Écauville",
    "state_id": 26,
    "postal_code": "27110",
    "state_name": "Eure",
    "query": ""
  },
  {
    "id": 9495,
    "name": "Vexin-sur-Epte",
    "state_id": 26,
    "postal_code": "27420",
    "state_name": "Eure",
    "query": ""
  },
  {
    "id": 9496,
    "name": "Écouis",
    "state_id": 26,
    "postal_code": "27440",
    "state_name": "Eure",
    "query": "https://www.facebook.com/events/search?q=Classics&sde=Abq6hpNmijm8kReC4KYmmDP0NuT4IxNliFRnd3vuRZUj8uh4BsVIK3dVq186DripYNQbuwiy5LR0V3y0W_iqLV_W&filters=eyJycF9ldmVudHNfbG9jYXRpb246MCI6IntcIm5hbWVcIjpcImZpbHRlcl9ldmVudHNfbG9jYXRpb25cIixcImFyZ3NcIjpcIjExNjIxMTk2NTA1NzgxNFwifSJ9"
  },
  {
    "id": 9497,
    "name": "Ecquetot",
    "state_id": 26,
    "postal_code": "27110",
    "state_name": "Eure",
    "query": "https://www.facebook.com/events/search?q=Classics&sde=Abq6hpNmijm8kReC4KYmmDP0NuT4IxNliFRnd3vuRZUj8uh4BsVIK3dVq186DripYNQbuwiy5LR0V3y0W_iqLV_W&filters=eyJycF9ldmVudHNfbG9jYXRpb246MCI6IntcIm5hbWVcIjpcImZpbHRlcl9ldmVudHNfbG9jYXRpb25cIixcImFyZ3NcIjpcIjExMTYyNDMyMjE5MzAyNlwifSJ9"
  },
  {
    "id": 9498,
    "name": "Émalleville",
    "state_id": 26,
    "postal_code": "27930",
    "state_name": "Eure",
    "query": "https://www.facebook.com/events/search?q=Classics&sde=Abq6hpNmijm8kReC4KYmmDP0NuT4IxNliFRnd3vuRZUj8uh4BsVIK3dVq186DripYNQbuwiy5LR0V3y0W_iqLV_W&filters=eyJycF9ldmVudHNfbG9jYXRpb246MCI6IntcIm5hbWVcIjpcImZpbHRlcl9ldmVudHNfbG9jYXRpb25cIixcImFyZ3NcIjpcIjEwNzU0NDQ5MjYwODY4MVwifSJ9"
  },
  {
    "id": 9499,
    "name": "Émanville",
    "state_id": 26,
    "postal_code": "27190",
    "state_name": "Eure",
    "query": "https://www.facebook.com/events/search/?q=Classics&sde=Abq6hpNmijm8kReC4KYmmDP0NuT4IxNliFRnd3vuRZUj8uh4BsVIK3dVq186DripYNQbuwiy5LR0V3y0W_iqLV_W&filters=eyJycF9ldmVudHNfbG9jYXRpb246MCI6IntcIm5hbWVcIjpcImZpbHRlcl9ldmVudHNfbG9jYXRpb25cIixcImFyZ3NcIjpcIjEwNDczNTY1OTU2NDQ2NVwifSJ9"
  },
  {
    "id": 9500,
    "name": "Épaignes",
    "state_id": 26,
    "postal_code": "27260",
    "state_name": "Eure",
    "query": "https://www.facebook.com/events/search?q=Classics&sde=Abq6hpNmijm8kReC4KYmmDP0NuT4IxNliFRnd3vuRZUj8uh4BsVIK3dVq186DripYNQbuwiy5LR0V3y0W_iqLV_W&filters=eyJycF9ldmVudHNfbG9jYXRpb246MCI6IntcIm5hbWVcIjpcImZpbHRlcl9ldmVudHNfbG9jYXRpb25cIixcImFyZ3NcIjpcIjExNjE2Mjc2MTczMTAwN1wifSJ9"
  },
  {
    "id": 9501,
    "name": "Épégard",
    "state_id": 26,
    "postal_code": "27110",
    "state_name": "Eure",
    "query": "https://www.facebook.com/events/search?q=Classics&sde=Abq6hpNmijm8kReC4KYmmDP0NuT4IxNliFRnd3vuRZUj8uh4BsVIK3dVq186DripYNQbuwiy5LR0V3y0W_iqLV_W&filters=eyJycF9ldmVudHNfbG9jYXRpb246MCI6IntcIm5hbWVcIjpcImZpbHRlcl9ldmVudHNfbG9jYXRpb25cIixcImFyZ3NcIjpcIjExMTEzMzE1MjI0MjYwN1wifSJ9"
  },
  {
    "id": 9502,
    "name": "Épieds",
    "state_id": 26,
    "postal_code": "27730",
    "state_name": "Eure",
    "query": "https://www.facebook.com/events/search?q=Classics&sde=Abq6hpNmijm8kReC4KYmmDP0NuT4IxNliFRnd3vuRZUj8uh4BsVIK3dVq186DripYNQbuwiy5LR0V3y0W_iqLV_W&filters=eyJycF9ldmVudHNfbG9jYXRpb246MCI6IntcIm5hbWVcIjpcImZpbHRlcl9ldmVudHNfbG9jYXRpb25cIixcImFyZ3NcIjpcIjExMzQ1NDY5MjAwMTg5NVwifSJ9"
  },
  {
    "id": 9503,
    "name": "Épreville-en-Lieuvin",
    "state_id": 26,
    "postal_code": "27560",
    "state_name": "Eure",
    "query": "https://www.facebook.com/events/search?q=Classics&sde=Abq6hpNmijm8kReC4KYmmDP0NuT4IxNliFRnd3vuRZUj8uh4BsVIK3dVq186DripYNQbuwiy5LR0V3y0W_iqLV_W&filters=eyJycF9ldmVudHNfbG9jYXRpb246MCI6IntcIm5hbWVcIjpcImZpbHRlcl9ldmVudHNfbG9jYXRpb25cIixcImFyZ3NcIjpcIjEwOTI0NDE0MjQ0MjI2MVwifSJ9"
  },
  {
    "id": 9504,
    "name": "Épreville-près-le-Neubourg",
    "state_id": 26,
    "postal_code": "27110",
    "state_name": "Eure",
    "query": ""
  },
  {
    "id": 9505,
    "name": "Étrépagny",
    "state_id": 26,
    "postal_code": "27150",
    "state_name": "Eure",
    "query": "https://www.facebook.com/events/search?q=Classics&sde=Abq6hpNmijm8kReC4KYmmDP0NuT4IxNliFRnd3vuRZUj8uh4BsVIK3dVq186DripYNQbuwiy5LR0V3y0W_iqLV_W&filters=eyJycF9ldmVudHNfbG9jYXRpb246MCI6IntcIm5hbWVcIjpcImZpbHRlcl9ldmVudHNfbG9jYXRpb25cIixcImFyZ3NcIjpcIjExMzE2MzgzMjA0MzMzMVwifSJ9"
  },
  {
    "id": 9506,
    "name": "Étréville",
    "state_id": 26,
    "postal_code": "27350",
    "state_name": "Eure",
    "query": "https://www.facebook.com/events/search?q=Classics&sde=Abq6hpNmijm8kReC4KYmmDP0NuT4IxNliFRnd3vuRZUj8uh4BsVIK3dVq186DripYNQbuwiy5LR0V3y0W_iqLV_W&filters=eyJycF9ldmVudHNfbG9jYXRpb246MCI6IntcIm5hbWVcIjpcImZpbHRlcl9ldmVudHNfbG9jYXRpb25cIixcImFyZ3NcIjpcIjExMTYyNjczMjE5ODE2OVwifSJ9"
  },
  {
    "id": 9507,
    "name": "Éturqueraye",
    "state_id": 26,
    "postal_code": "27350",
    "state_name": "Eure",
    "query": "https://www.facebook.com/events/search?q=Classics&sde=Abq6hpNmijm8kReC4KYmmDP0NuT4IxNliFRnd3vuRZUj8uh4BsVIK3dVq186DripYNQbuwiy5LR0V3y0W_iqLV_W&filters=eyJycF9ldmVudHNfbG9jYXRpb246MCI6IntcIm5hbWVcIjpcImZpbHRlcl9ldmVudHNfbG9jYXRpb25cIixcImFyZ3NcIjpcIjExMTMyNDA2ODg4OTU0NVwifSJ9"
  },
  {
    "id": 9508,
    "name": "Évreux",
    "state_id": 26,
    "postal_code": "27000",
    "state_name": "Eure",
    "query": "https://www.facebook.com/events/search?q=Gardening&sde=Abq6hpNmijm8kReC4KYmmDP0NuT4IxNliFRnd3vuRZUj8uh4BsVIK3dVq186DripYNQbuwiy5LR0V3y0W_iqLV_W&filters=eyJycF9ldmVudHNfbG9jYXRpb246MCI6IntcIm5hbWVcIjpcImZpbHRlcl9ldmVudHNfbG9jYXRpb25cIixcImFyZ3NcIjpcIjExMzY2NjA4MTk3Njk4MlwifSJ9"
  },
  {
    "id": 9509,
    "name": "Ézy-sur-Eure",
    "state_id": 26,
    "postal_code": "27530",
    "state_name": "Eure",
    "query": "https://www.facebook.com/events/search?q=Classics&sde=Abq6hpNmijm8kReC4KYmmDP0NuT4IxNliFRnd3vuRZUj8uh4BsVIK3dVq186DripYNQbuwiy5LR0V3y0W_iqLV_W&filters=eyJycF9ldmVudHNfbG9jYXRpb246MCI6IntcIm5hbWVcIjpcImZpbHRlcl9ldmVudHNfbG9jYXRpb25cIixcImFyZ3NcIjpcIjExMTI5NTI1ODkwMDQ0OVwifSJ9"
  },
  {
    "id": 9510,
    "name": "Fains",
    "state_id": 26,
    "postal_code": "27120",
    "state_name": "Eure",
    "query": "https://www.facebook.com/events/search?q=Classics&sde=Abq6hpNmijm8kReC4KYmmDP0NuT4IxNliFRnd3vuRZUj8uh4BsVIK3dVq186DripYNQbuwiy5LR0V3y0W_iqLV_W&filters=eyJycF9ldmVudHNfbG9jYXRpb246MCI6IntcIm5hbWVcIjpcImZpbHRlcl9ldmVudHNfbG9jYXRpb25cIixcImFyZ3NcIjpcIjEwOTgyODY4OTA0MTU0M1wifSJ9"
  },
  {
    "id": 9511,
    "name": "Farceaux",
    "state_id": 26,
    "postal_code": "27150",
    "state_name": "Eure",
    "query": "https://www.facebook.com/events/search?q=Classics&sde=Abq6hpNmijm8kReC4KYmmDP0NuT4IxNliFRnd3vuRZUj8uh4BsVIK3dVq186DripYNQbuwiy5LR0V3y0W_iqLV_W&filters=eyJycF9ldmVudHNfbG9jYXRpb246MCI6IntcIm5hbWVcIjpcImZpbHRlcl9ldmVudHNfbG9jYXRpb25cIixcImFyZ3NcIjpcIjEwMzM0OTAxNjM3MzQzOVwifSJ9"
  },
  {
    "id": 9512,
    "name": "Fatouville-Grestain",
    "state_id": 26,
    "postal_code": "27210",
    "state_name": "Eure",
    "query": "https://www.facebook.com/events/search?q=Classics&sde=Abq6hpNmijm8kReC4KYmmDP0NuT4IxNliFRnd3vuRZUj8uh4BsVIK3dVq186DripYNQbuwiy5LR0V3y0W_iqLV_W&filters=eyJycF9ldmVudHNfbG9jYXRpb246MCI6IntcIm5hbWVcIjpcImZpbHRlcl9ldmVudHNfbG9jYXRpb25cIixcImFyZ3NcIjpcIjEwOTQ4ODI3OTA4MTcwMFwifSJ9"
  },
  {
    "id": 9513,
    "name": "Fauville",
    "state_id": 26,
    "postal_code": "27930",
    "state_name": "Eure",
    "query": "https://www.facebook.com/events/search?q=Classics&sde=Abq6hpNmijm8kReC4KYmmDP0NuT4IxNliFRnd3vuRZUj8uh4BsVIK3dVq186DripYNQbuwiy5LR0V3y0W_iqLV_W&filters=eyJycF9ldmVudHNfbG9jYXRpb246MCI6IntcIm5hbWVcIjpcImZpbHRlcl9ldmVudHNfbG9jYXRpb25cIixcImFyZ3NcIjpcIjEwOTU4ODEzNTczODE3OVwifSJ9"
  },
  {
    "id": 9514,
    "name": "Faverolles-la-Campagne",
    "state_id": 26,
    "postal_code": "27190",
    "state_name": "Eure",
    "query": ""
  },
  {
    "id": 9515,
    "name": "Le Favril",
    "state_id": 26,
    "postal_code": "27230",
    "state_name": "Eure",
    "query": "https://www.facebook.com/events/search?q=Classics&sde=Abq6hpNmijm8kReC4KYmmDP0NuT4IxNliFRnd3vuRZUj8uh4BsVIK3dVq186DripYNQbuwiy5LR0V3y0W_iqLV_W&filters=eyJycF9ldmVudHNfbG9jYXRpb246MCI6IntcIm5hbWVcIjpcImZpbHRlcl9ldmVudHNfbG9jYXRpb25cIixcImFyZ3NcIjpcIjExMDk3MzE4MjI2MDkyMlwifSJ9"
  },
  {
    "id": 9516,
    "name": "Ferrières-Haut-Clocher",
    "state_id": 26,
    "postal_code": "27190",
    "state_name": "Eure",
    "query": "https://www.facebook.com/events/search?q=Classics&sde=Abq6hpNmijm8kReC4KYmmDP0NuT4IxNliFRnd3vuRZUj8uh4BsVIK3dVq186DripYNQbuwiy5LR0V3y0W_iqLV_W&filters=eyJycF9ldmVudHNfbG9jYXRpb246MCI6IntcIm5hbWVcIjpcImZpbHRlcl9ldmVudHNfbG9jYXRpb25cIixcImFyZ3NcIjpcIjExMzI5OTI0ODY5NTUzMVwifSJ9"
  },
  {
    "id": 9517,
    "name": "Ferrières-Saint-Hilaire",
    "state_id": 26,
    "postal_code": "27270",
    "state_name": "Eure",
    "query": "https://www.facebook.com/events/search?q=Classics&sde=Abq6hpNmijm8kReC4KYmmDP0NuT4IxNliFRnd3vuRZUj8uh4BsVIK3dVq186DripYNQbuwiy5LR0V3y0W_iqLV_W&filters=eyJycF9ldmVudHNfbG9jYXRpb246MCI6IntcIm5hbWVcIjpcImZpbHRlcl9ldmVudHNfbG9jYXRpb25cIixcImFyZ3NcIjpcIjEwMjgwMzc4MzA4OTQ0MFwifSJ9"
  },
  {
    "id": 9518,
    "name": "La Ferrière-sur-Risle",
    "state_id": 26,
    "postal_code": "27760",
    "state_name": "Eure",
    "query": ""
  },
  {
    "id": 9519,
    "name": "Feuguerolles",
    "state_id": 26,
    "postal_code": "27110",
    "state_name": "Eure",
    "query": "https://www.facebook.com/events/search?q=Classics&sde=Abq6hpNmijm8kReC4KYmmDP0NuT4IxNliFRnd3vuRZUj8uh4BsVIK3dVq186DripYNQbuwiy5LR0V3y0W_iqLV_W&filters=eyJycF9ldmVudHNfbG9jYXRpb246MCI6IntcIm5hbWVcIjpcImZpbHRlcl9ldmVudHNfbG9jYXRpb25cIixcImFyZ3NcIjpcIjEwNDgxODgyMjg4NjU1MVwifSJ9"
  },
  {
    "id": 9520,
    "name": "Le Fidelaire",
    "state_id": 26,
    "postal_code": "27190",
    "state_name": "Eure",
    "query": "https://www.facebook.com/events/search?q=Classics&sde=Abq6hpNmijm8kReC4KYmmDP0NuT4IxNliFRnd3vuRZUj8uh4BsVIK3dVq186DripYNQbuwiy5LR0V3y0W_iqLV_W&filters=eyJycF9ldmVudHNfbG9jYXRpb246MCI6IntcIm5hbWVcIjpcImZpbHRlcl9ldmVudHNfbG9jYXRpb25cIixcImFyZ3NcIjpcIjExMzI4ODY1ODY5ODMxM1wifSJ9"
  },
  {
    "id": 9521,
    "name": "Fiquefleur-Équainville",
    "state_id": 26,
    "postal_code": "27210",
    "state_name": "Eure",
    "query": "https://www.facebook.com/events/search?q=Classics&sde=Abq6hpNmijm8kReC4KYmmDP0NuT4IxNliFRnd3vuRZUj8uh4BsVIK3dVq186DripYNQbuwiy5LR0V3y0W_iqLV_W&filters=eyJycF9ldmVudHNfbG9jYXRpb246MCI6IntcIm5hbWVcIjpcImZpbHRlcl9ldmVudHNfbG9jYXRpb25cIixcImFyZ3NcIjpcIjExMzM1MTA2NTM1MDc0MlwifSJ9"
  },
  {
    "id": 9522,
    "name": "Fleury-la-Forêt",
    "state_id": 26,
    "postal_code": "27480",
    "state_name": "Eure",
    "query": "https://www.facebook.com/events/search?q=Classics&sde=Abq6hpNmijm8kReC4KYmmDP0NuT4IxNliFRnd3vuRZUj8uh4BsVIK3dVq186DripYNQbuwiy5LR0V3y0W_iqLV_W&filters=eyJycF9ldmVudHNfbG9jYXRpb246MCI6IntcIm5hbWVcIjpcImZpbHRlcl9ldmVudHNfbG9jYXRpb25cIixcImFyZ3NcIjpcIjExMjkwNTM0NTM5NDI4OFwifSJ9"
  },
  {
    "id": 9523,
    "name": "Fleury-sur-Andelle",
    "state_id": 26,
    "postal_code": "27380",
    "state_name": "Eure",
    "query": "https://www.facebook.com/events/search?q=Classics&sde=Abq6hpNmijm8kReC4KYmmDP0NuT4IxNliFRnd3vuRZUj8uh4BsVIK3dVq186DripYNQbuwiy5LR0V3y0W_iqLV_W&filters=eyJycF9ldmVudHNfbG9jYXRpb246MCI6IntcIm5hbWVcIjpcImZpbHRlcl9ldmVudHNfbG9jYXRpb25cIixcImFyZ3NcIjpcIjEwNjY1NDUyOTM2NjgwNFwifSJ9"
  },
  {
    "id": 9524,
    "name": "Flipou",
    "state_id": 26,
    "postal_code": "27380",
    "state_name": "Eure",
    "query": "https://www.facebook.com/events/search?q=Classics&sde=Abq6hpNmijm8kReC4KYmmDP0NuT4IxNliFRnd3vuRZUj8uh4BsVIK3dVq186DripYNQbuwiy5LR0V3y0W_iqLV_W&filters=eyJycF9ldmVudHNfbG9jYXRpb246MCI6IntcIm5hbWVcIjpcImZpbHRlcl9ldmVudHNfbG9jYXRpb25cIixcImFyZ3NcIjpcIjExMTM4NTI0ODg4OTkyN1wifSJ9"
  },
  {
    "id": 9525,
    "name": "Folleville",
    "state_id": 26,
    "postal_code": "27230",
    "state_name": "Eure",
    "query": "https://www.facebook.com/events/search?q=Classics&sde=Abq6hpNmijm8kReC4KYmmDP0NuT4IxNliFRnd3vuRZUj8uh4BsVIK3dVq186DripYNQbuwiy5LR0V3y0W_iqLV_W&filters=eyJycF9ldmVudHNfbG9jYXRpb246MCI6IntcIm5hbWVcIjpcImZpbHRlcl9ldmVudHNfbG9jYXRpb25cIixcImFyZ3NcIjpcIjExMDE5NzI1OTAwMDA0NVwifSJ9"
  },
  {
    "id": 9526,
    "name": "Fontaine-Bellenger",
    "state_id": 26,
    "postal_code": "27600",
    "state_name": "Eure",
    "query": "https://www.facebook.com/events/search?q=Classics&sde=Abq6hpNmijm8kReC4KYmmDP0NuT4IxNliFRnd3vuRZUj8uh4BsVIK3dVq186DripYNQbuwiy5LR0V3y0W_iqLV_W&filters=eyJycF9ldmVudHNfbG9jYXRpb246MCI6IntcIm5hbWVcIjpcImZpbHRlcl9ldmVudHNfbG9jYXRpb25cIixcImFyZ3NcIjpcIjExMjc2NTE5MjA3NTYzMVwifSJ9"
  },
  {
    "id": 9527,
    "name": "Fontaine-l'Abbé",
    "state_id": 26,
    "postal_code": "27470",
    "state_name": "Eure",
    "query": "https://www.facebook.com/events/search?q=Classics&sde=Abq6hpNmijm8kReC4KYmmDP0NuT4IxNliFRnd3vuRZUj8uh4BsVIK3dVq186DripYNQbuwiy5LR0V3y0W_iqLV_W&filters=eyJycF9ldmVudHNfbG9jYXRpb246MCI6IntcIm5hbWVcIjpcImZpbHRlcl9ldmVudHNfbG9jYXRpb25cIixcImFyZ3NcIjpcIjEwNzM3Mjg4OTI5ODM5MVwifSJ9"
  },
  {
    "id": 9528,
    "name": "Fontaine-la-Louvet",
    "state_id": 26,
    "postal_code": "27230",
    "state_name": "Eure",
    "query": "https://www.facebook.com/events/search?q=Classics&sde=Abq6hpNmijm8kReC4KYmmDP0NuT4IxNliFRnd3vuRZUj8uh4BsVIK3dVq186DripYNQbuwiy5LR0V3y0W_iqLV_W&filters=eyJycF9ldmVudHNfbG9jYXRpb246MCI6IntcIm5hbWVcIjpcImZpbHRlcl9ldmVudHNfbG9jYXRpb25cIixcImFyZ3NcIjpcIjExMDk2ODE5ODkyNTk3MFwifSJ9"
  },
  {
    "id": 9529,
    "name": "Fontaine-sous-Jouy",
    "state_id": 26,
    "postal_code": "27120",
    "state_name": "Eure",
    "query": "https://www.facebook.com/events/search?q=Classics&sde=Abq6hpNmijm8kReC4KYmmDP0NuT4IxNliFRnd3vuRZUj8uh4BsVIK3dVq186DripYNQbuwiy5LR0V3y0W_iqLV_W&filters=eyJycF9ldmVudHNfbG9jYXRpb246MCI6IntcIm5hbWVcIjpcImZpbHRlcl9ldmVudHNfbG9jYXRpb25cIixcImFyZ3NcIjpcIjExNTg3NTYzNTA5MTQ4N1wifSJ9"
  },
  {
    "id": 9530,
    "name": "La Forêt-du-Parc",
    "state_id": 26,
    "postal_code": "27220",
    "state_name": "Eure",
    "query": ""
  },
  {
    "id": 9531,
    "name": "Fort-Moville",
    "state_id": 26,
    "postal_code": "27210",
    "state_name": "Eure",
    "query": "https://www.facebook.com/events/search?q=Classics&sde=Abq6hpNmijm8kReC4KYmmDP0NuT4IxNliFRnd3vuRZUj8uh4BsVIK3dVq186DripYNQbuwiy5LR0V3y0W_iqLV_W&filters=eyJycF9ldmVudHNfbG9jYXRpb246MCI6IntcIm5hbWVcIjpcImZpbHRlcl9ldmVudHNfbG9jYXRpb25cIixcImFyZ3NcIjpcIjExMTg2Mzg3ODgzODY0M1wifSJ9"
  },
  {
    "id": 9532,
    "name": "Foucrainville",
    "state_id": 26,
    "postal_code": "27220",
    "state_name": "Eure",
    "query": "https://www.facebook.com/events/search?q=Classics&sde=Abq6hpNmijm8kReC4KYmmDP0NuT4IxNliFRnd3vuRZUj8uh4BsVIK3dVq186DripYNQbuwiy5LR0V3y0W_iqLV_W&filters=eyJycF9ldmVudHNfbG9jYXRpb246MCI6IntcIm5hbWVcIjpcImZpbHRlcl9ldmVudHNfbG9jYXRpb25cIixcImFyZ3NcIjpcIjEwMzM2OTYyMzAzNzUwNlwifSJ9"
  },
  {
    "id": 9533,
    "name": "Foulbec",
    "state_id": 26,
    "postal_code": "27210",
    "state_name": "Eure",
    "query": "https://www.facebook.com/events/search?q=Classics&sde=Abq6hpNmijm8kReC4KYmmDP0NuT4IxNliFRnd3vuRZUj8uh4BsVIK3dVq186DripYNQbuwiy5LR0V3y0W_iqLV_W&filters=eyJycF9ldmVudHNfbG9jYXRpb246MCI6IntcIm5hbWVcIjpcImZpbHRlcl9ldmVudHNfbG9jYXRpb25cIixcImFyZ3NcIjpcIjEwNjk2Nzg2MjY3NjM3OFwifSJ9"
  },
  {
    "id": 9534,
    "name": "Fouqueville",
    "state_id": 26,
    "postal_code": "27370",
    "state_name": "Eure",
    "query": "https://www.facebook.com/events/search?q=Classics&sde=Abq6hpNmijm8kReC4KYmmDP0NuT4IxNliFRnd3vuRZUj8uh4BsVIK3dVq186DripYNQbuwiy5LR0V3y0W_iqLV_W&filters=eyJycF9ldmVudHNfbG9jYXRpb246MCI6IntcIm5hbWVcIjpcImZpbHRlcl9ldmVudHNfbG9jYXRpb25cIixcImFyZ3NcIjpcIjEwOTA0NjMzMjQ2MTQ4NVwifSJ9"
  },
  {
    "id": 9535,
    "name": "Le Perrey",
    "state_id": 26,
    "postal_code": "27500",
    "state_name": "Eure",
    "query": ""
  },
  {
    "id": 9536,
    "name": "Franqueville",
    "state_id": 26,
    "postal_code": "27800",
    "state_name": "Eure",
    "query": "https://www.facebook.com/events/search?q=Classics&sde=Abq6hpNmijm8kReC4KYmmDP0NuT4IxNliFRnd3vuRZUj8uh4BsVIK3dVq186DripYNQbuwiy5LR0V3y0W_iqLV_W&filters=eyJycF9ldmVudHNfbG9jYXRpb246MCI6IntcIm5hbWVcIjpcImZpbHRlcl9ldmVudHNfbG9jYXRpb25cIixcImFyZ3NcIjpcIjEwODkxNjYxMjQ2OTg5M1wifSJ9"
  },
  {
    "id": 9537,
    "name": "Freneuse-sur-Risle",
    "state_id": 26,
    "postal_code": "27290",
    "state_name": "Eure",
    "query": "https://www.facebook.com/events/search?q=Classics&sde=Abq6hpNmijm8kReC4KYmmDP0NuT4IxNliFRnd3vuRZUj8uh4BsVIK3dVq186DripYNQbuwiy5LR0V3y0W_iqLV_W&filters=eyJycF9ldmVudHNfbG9jYXRpb246MCI6IntcIm5hbWVcIjpcImZpbHRlcl9ldmVudHNfbG9jYXRpb25cIixcImFyZ3NcIjpcIjExNjU5MTQxNTAyMTQ3N1wifSJ9"
  },
  {
    "id": 9538,
    "name": "Fresne-Cauverville",
    "state_id": 26,
    "postal_code": "27260",
    "state_name": "Eure",
    "query": "https://www.facebook.com/events/search?q=Classics&sde=Abq6hpNmijm8kReC4KYmmDP0NuT4IxNliFRnd3vuRZUj8uh4BsVIK3dVq186DripYNQbuwiy5LR0V3y0W_iqLV_W&filters=eyJycF9ldmVudHNfbG9jYXRpb246MCI6IntcIm5hbWVcIjpcImZpbHRlcl9ldmVudHNfbG9jYXRpb25cIixcImFyZ3NcIjpcIjEwOTAyNzMyNTc5NjM5N1wifSJ9"
  },
  {
    "id": 9539,
    "name": "Fresney",
    "state_id": 26,
    "postal_code": "27220",
    "state_name": "Eure",
    "query": "https://www.facebook.com/events/search?q=Classics&sde=Abq6hpNmijm8kReC4KYmmDP0NuT4IxNliFRnd3vuRZUj8uh4BsVIK3dVq186DripYNQbuwiy5LR0V3y0W_iqLV_W&filters=eyJycF9ldmVudHNfbG9jYXRpb246MCI6IntcIm5hbWVcIjpcImZpbHRlcl9ldmVudHNfbG9jYXRpb25cIixcImFyZ3NcIjpcIjExNjA1ODM1NTA3NjkwMVwifSJ9"
  },
  {
    "id": 9540,
    "name": "Gadencourt",
    "state_id": 26,
    "postal_code": "27120",
    "state_name": "Eure",
    "query": ""
  },
  {
    "id": 9541,
    "name": "Gaillon",
    "state_id": 26,
    "postal_code": "27600",
    "state_name": "Eure",
    "query": "https://www.facebook.com/events/search?q=Classics&sde=Abq6hpNmijm8kReC4KYmmDP0NuT4IxNliFRnd3vuRZUj8uh4BsVIK3dVq186DripYNQbuwiy5LR0V3y0W_iqLV_W&filters=eyJycF9ldmVudHNfbG9jYXRpb246MCI6IntcIm5hbWVcIjpcImZpbHRlcl9ldmVudHNfbG9jYXRpb25cIixcImFyZ3NcIjpcIjEwMzk4NjU4NjMwMzA5OVwifSJ9"
  },
  {
    "id": 9542,
    "name": "Gamaches-en-Vexin",
    "state_id": 26,
    "postal_code": "27150",
    "state_name": "Eure",
    "query": ""
  },
  {
    "id": 9543,
    "name": "La Baronnie",
    "state_id": 26,
    "postal_code": "27220",
    "state_name": "Eure",
    "query": ""
  },
  {
    "id": 9544,
    "name": "Garennes-sur-Eure",
    "state_id": 26,
    "postal_code": "27780",
    "state_name": "Eure",
    "query": "https://www.facebook.com/events/search?q=Classics&sde=Abq6hpNmijm8kReC4KYmmDP0NuT4IxNliFRnd3vuRZUj8uh4BsVIK3dVq186DripYNQbuwiy5LR0V3y0W_iqLV_W&filters=eyJycF9ldmVudHNfbG9jYXRpb246MCI6IntcIm5hbWVcIjpcImZpbHRlcl9ldmVudHNfbG9jYXRpb25cIixcImFyZ3NcIjpcIjExNTgyNjU5NTEwMDA4MlwifSJ9"
  },
  {
    "id": 9545,
    "name": "Gasny",
    "state_id": 26,
    "postal_code": "27620",
    "state_name": "Eure",
    "query": "https://www.facebook.com/events/search?q=Classics&sde=Abq6hpNmijm8kReC4KYmmDP0NuT4IxNliFRnd3vuRZUj8uh4BsVIK3dVq186DripYNQbuwiy5LR0V3y0W_iqLV_W&filters=eyJycF9ldmVudHNfbG9jYXRpb246MCI6IntcIm5hbWVcIjpcImZpbHRlcl9ldmVudHNfbG9jYXRpb25cIixcImFyZ3NcIjpcIjEwNzIwMjg2NTk4NDkxMlwifSJ9"
  },
  {
    "id": 9546,
    "name": "Gauciel",
    "state_id": 26,
    "postal_code": "27930",
    "state_name": "Eure",
    "query": "https://www.facebook.com/events/search?q=Classics&sde=Abq6hpNmijm8kReC4KYmmDP0NuT4IxNliFRnd3vuRZUj8uh4BsVIK3dVq186DripYNQbuwiy5LR0V3y0W_iqLV_W&filters=eyJycF9ldmVudHNfbG9jYXRpb246MCI6IntcIm5hbWVcIjpcImZpbHRlcl9ldmVudHNfbG9jYXRpb25cIixcImFyZ3NcIjpcIjEwOTQwNDMxOTA5MTQ5MFwifSJ9"
  },
  {
    "id": 9547,
    "name": "Gaudreville-la-Rivière",
    "state_id": 26,
    "postal_code": "27190",
    "state_name": "Eure",
    "query": ""
  },
  {
    "id": 9548,
    "name": "Gauville-la-Campagne",
    "state_id": 26,
    "postal_code": "27930",
    "state_name": "Eure",
    "query": "https://www.facebook.com/events/search?q=Classics&sde=Abq6hpNmijm8kReC4KYmmDP0NuT4IxNliFRnd3vuRZUj8uh4BsVIK3dVq186DripYNQbuwiy5LR0V3y0W_iqLV_W&filters=eyJycF9ldmVudHNfbG9jYXRpb246MCI6IntcIm5hbWVcIjpcImZpbHRlcl9ldmVudHNfbG9jYXRpb25cIixcImFyZ3NcIjpcIjExMTQyMjYxODg3ODcxM1wifSJ9"
  },
  {
    "id": 9549,
    "name": "Gisors",
    "state_id": 26,
    "postal_code": "27140",
    "state_name": "Eure",
    "query": "https://www.facebook.com/events/search?q=Classics&sde=Abq6hpNmijm8kReC4KYmmDP0NuT4IxNliFRnd3vuRZUj8uh4BsVIK3dVq186DripYNQbuwiy5LR0V3y0W_iqLV_W&filters=eyJycF9ldmVudHNfbG9jYXRpb246MCI6IntcIm5hbWVcIjpcImZpbHRlcl9ldmVudHNfbG9jYXRpb25cIixcImFyZ3NcIjpcIjExNDgxMzE1NTE5NzE5M1wifSJ9"
  },
  {
    "id": 9550,
    "name": "Giverny",
    "state_id": 26,
    "postal_code": "27620",
    "state_name": "Eure",
    "query": "https://www.facebook.com/events/search?q=Classics&sde=Abq6hpNmijm8kReC4KYmmDP0NuT4IxNliFRnd3vuRZUj8uh4BsVIK3dVq186DripYNQbuwiy5LR0V3y0W_iqLV_W&filters=eyJycF9ldmVudHNfbG9jYXRpb246MCI6IntcIm5hbWVcIjpcImZpbHRlcl9ldmVudHNfbG9jYXRpb25cIixcImFyZ3NcIjpcIjEwNDA5ODYzMjk2MDUzMlwifSJ9"
  },
  {
    "id": 9551,
    "name": "Giverville",
    "state_id": 26,
    "postal_code": "27560",
    "state_name": "Eure",
    "query": "https://www.facebook.com/events/search?q=Classics&sde=Abq6hpNmijm8kReC4KYmmDP0NuT4IxNliFRnd3vuRZUj8uh4BsVIK3dVq186DripYNQbuwiy5LR0V3y0W_iqLV_W&filters=eyJycF9ldmVudHNfbG9jYXRpb246MCI6IntcIm5hbWVcIjpcImZpbHRlcl9ldmVudHNfbG9jYXRpb25cIixcImFyZ3NcIjpcIjExMTUxMzg3NTUzNTc1NlwifSJ9"
  },
  {
    "id": 9552,
    "name": "Glisolles",
    "state_id": 26,
    "postal_code": "27190",
    "state_name": "Eure",
    "query": "https://www.facebook.com/events/search?q=Classics&sde=Abq6hpNmijm8kReC4KYmmDP0NuT4IxNliFRnd3vuRZUj8uh4BsVIK3dVq186DripYNQbuwiy5LR0V3y0W_iqLV_W&filters=eyJycF9ldmVudHNfbG9jYXRpb246MCI6IntcIm5hbWVcIjpcImZpbHRlcl9ldmVudHNfbG9jYXRpb25cIixcImFyZ3NcIjpcIjEwOTAyNDU3NTc5NzQ0OFwifSJ9"
  },
  {
    "id": 9553,
    "name": "Glos-sur-Risle",
    "state_id": 26,
    "postal_code": "27290",
    "state_name": "Eure",
    "query": "https://www.facebook.com/events/search?q=Classics&sde=Abq6hpNmijm8kReC4KYmmDP0NuT4IxNliFRnd3vuRZUj8uh4BsVIK3dVq186DripYNQbuwiy5LR0V3y0W_iqLV_W&filters=eyJycF9ldmVudHNfbG9jYXRpb246MCI6IntcIm5hbWVcIjpcImZpbHRlcl9ldmVudHNfbG9jYXRpb25cIixcImFyZ3NcIjpcIjExMTkzNzY0NTQ5NzEyNFwifSJ9"
  },
  {
    "id": 9554,
    "name": "La Goulafrière",
    "state_id": 26,
    "postal_code": "27390",
    "state_name": "Eure",
    "query": ""
  },
  {
    "id": 9555,
    "name": "Goupil-Othon",
    "state_id": 26,
    "postal_code": "27170",
    "state_name": "Eure",
    "query": ""
  },
  {
    "id": 9556,
    "name": "Gournay-le-Guérin",
    "state_id": 26,
    "postal_code": "27580",
    "state_name": "Eure",
    "query": ""
  },
  {
    "id": 9557,
    "name": "Val d'Orger",
    "state_id": 26,
    "postal_code": "27380",
    "state_name": "Eure",
    "query": ""
  },
  {
    "id": 9558,
    "name": "Grand-Camp",
    "state_id": 26,
    "postal_code": "27270",
    "state_name": "Eure",
    "query": "https://www.facebook.com/events/search?q=Classics&sde=Abq6hpNmijm8kReC4KYmmDP0NuT4IxNliFRnd3vuRZUj8uh4BsVIK3dVq186DripYNQbuwiy5LR0V3y0W_iqLV_W&filters=eyJycF9ldmVudHNfbG9jYXRpb246MCI6IntcIm5hbWVcIjpcImZpbHRlcl9ldmVudHNfbG9jYXRpb25cIixcImFyZ3NcIjpcIjExMzAzNzcwNTM3OTk3OFwifSJ9"
  },
  {
    "id": 9559,
    "name": "Graveron-Sémerville",
    "state_id": 26,
    "postal_code": "27110",
    "state_name": "Eure",
    "query": "https://www.facebook.com/events/search?q=Classics&sde=Abq6hpNmijm8kReC4KYmmDP0NuT4IxNliFRnd3vuRZUj8uh4BsVIK3dVq186DripYNQbuwiy5LR0V3y0W_iqLV_W&filters=eyJycF9ldmVudHNfbG9jYXRpb246MCI6IntcIm5hbWVcIjpcImZpbHRlcl9ldmVudHNfbG9jYXRpb25cIixcImFyZ3NcIjpcIjEwNzI3OTEwMjY0NDc3NVwifSJ9"
  },
  {
    "id": 9560,
    "name": "Gravigny",
    "state_id": 26,
    "postal_code": "27930",
    "state_name": "Eure",
    "query": "https://www.facebook.com/events/search?q=Classics&sde=Abq6hpNmijm8kReC4KYmmDP0NuT4IxNliFRnd3vuRZUj8uh4BsVIK3dVq186DripYNQbuwiy5LR0V3y0W_iqLV_W&filters=eyJycF9ldmVudHNfbG9jYXRpb246MCI6IntcIm5hbWVcIjpcImZpbHRlcl9ldmVudHNfbG9jYXRpb25cIixcImFyZ3NcIjpcIjEwNzE4MTc2MjY1MzgwMVwifSJ9"
  },
  {
    "id": 9561,
    "name": "Grosley-sur-Risle",
    "state_id": 26,
    "postal_code": "27170",
    "state_name": "Eure",
    "query": "https://www.facebook.com/events/search?q=Classics&sde=Abq6hpNmijm8kReC4KYmmDP0NuT4IxNliFRnd3vuRZUj8uh4BsVIK3dVq186DripYNQbuwiy5LR0V3y0W_iqLV_W&filters=eyJycF9ldmVudHNfbG9jYXRpb246MCI6IntcIm5hbWVcIjpcImZpbHRlcl9ldmVudHNfbG9jYXRpb25cIixcImFyZ3NcIjpcIjEwOTAyNTk2OTEyOTg0NFwifSJ9"
  },
  {
    "id": 9562,
    "name": "Grossœuvre",
    "state_id": 26,
    "postal_code": "27220",
    "state_name": "Eure",
    "query": ""
  },
  {
    "id": 9563,
    "name": "Le Bosc du Theil",
    "state_id": 26,
    "postal_code": "27370",
    "state_name": "Eure",
    "query": ""
  },
  {
    "id": 9564,
    "name": "Guerny",
    "state_id": 26,
    "postal_code": "27720",
    "state_name": "Eure",
    "query": ""
  },
  {
    "id": 9565,
    "name": "Guichainville",
    "state_id": 26,
    "postal_code": "27930",
    "state_name": "Eure",
    "query": ""
  },
  {
    "id": 9566,
    "name": "Guiseniers",
    "state_id": 26,
    "postal_code": "27700",
    "state_name": "Eure",
    "query": "https://www.facebook.com/events/search/?q=Classics&sde=Abq6hpNmijm8kReC4KYmmDP0NuT4IxNliFRnd3vuRZUj8uh4BsVIK3dVq186DripYNQbuwiy5LR0V3y0W_iqLV_W&filters=eyJycF9ldmVudHNfbG9jYXRpb246MCI6IntcIm5hbWVcIjpcImZpbHRlcl9ldmVudHNfbG9jYXRpb25cIixcImFyZ3NcIjpcIjEwODg1NTAwNTgxNTExOVwifSJ9"
  },
  {
    "id": 9567,
    "name": "L'Habit",
    "state_id": 26,
    "postal_code": "27220",
    "state_name": "Eure",
    "query": "https://www.facebook.com/events/search?q=Classics&sde=Abq6hpNmijm8kReC4KYmmDP0NuT4IxNliFRnd3vuRZUj8uh4BsVIK3dVq186DripYNQbuwiy5LR0V3y0W_iqLV_W&filters=eyJycF9ldmVudHNfbG9jYXRpb246MCI6IntcIm5hbWVcIjpcImZpbHRlcl9ldmVudHNfbG9jYXRpb25cIixcImFyZ3NcIjpcIjEwNzAwMTcwOTM0MDc0NlwifSJ9"
  },
  {
    "id": 9568,
    "name": "Hacqueville",
    "state_id": 26,
    "postal_code": "27150",
    "state_name": "Eure",
    "query": "https://www.facebook.com/events/search?q=Classics&sde=Abq6hpNmijm8kReC4KYmmDP0NuT4IxNliFRnd3vuRZUj8uh4BsVIK3dVq186DripYNQbuwiy5LR0V3y0W_iqLV_W&filters=eyJycF9ldmVudHNfbG9jYXRpb246MCI6IntcIm5hbWVcIjpcImZpbHRlcl9ldmVudHNfbG9jYXRpb25cIixcImFyZ3NcIjpcIjEwNzIxODM4OTMxNzY3MVwifSJ9"
  },
  {
    "id": 9569,
    "name": "Harcourt",
    "state_id": 26,
    "postal_code": "27800",
    "state_name": "Eure",
    "query": "https://www.facebook.com/events/search?q=Classics&sde=Abq6hpNmijm8kReC4KYmmDP0NuT4IxNliFRnd3vuRZUj8uh4BsVIK3dVq186DripYNQbuwiy5LR0V3y0W_iqLV_W&filters=eyJycF9ldmVudHNfbG9jYXRpb246MCI6IntcIm5hbWVcIjpcImZpbHRlcl9ldmVudHNfbG9jYXRpb25cIixcImFyZ3NcIjpcIjExNTcyODkxODQzOTg5M1wifSJ9"
  },
  {
    "id": 9570,
    "name": "Hardencourt-Cocherel",
    "state_id": 26,
    "postal_code": "27120",
    "state_name": "Eure",
    "query": ""
  },
  {
    "id": 9571,
    "name": "La Harengère",
    "state_id": 26,
    "postal_code": "27370",
    "state_name": "Eure",
    "query": "https://www.facebook.com/events/search?q=Classics&sde=Abq6hpNmijm8kReC4KYmmDP0NuT4IxNliFRnd3vuRZUj8uh4BsVIK3dVq186DripYNQbuwiy5LR0V3y0W_iqLV_W&filters=eyJycF9ldmVudHNfbG9jYXRpb246MCI6IntcIm5hbWVcIjpcImZpbHRlcl9ldmVudHNfbG9jYXRpb25cIixcImFyZ3NcIjpcIjExNTk1MDkwODQxNTkwOVwifSJ9"
  },
  {
    "id": 9572,
    "name": "Harquency",
    "state_id": 26,
    "postal_code": "27700",
    "state_name": "Eure",
    "query": "https://www.facebook.com/events/search?q=Classics&sde=Abq6hpNmijm8kReC4KYmmDP0NuT4IxNliFRnd3vuRZUj8uh4BsVIK3dVq186DripYNQbuwiy5LR0V3y0W_iqLV_W&filters=eyJycF9ldmVudHNfbG9jYXRpb246MCI6IntcIm5hbWVcIjpcImZpbHRlcl9ldmVudHNfbG9jYXRpb25cIixcImFyZ3NcIjpcIjExMjkyNTU3ODcyNjUzN1wifSJ9"
  },
  {
    "id": 9573,
    "name": "Hauville",
    "state_id": 26,
    "postal_code": "27350",
    "state_name": "Eure",
    "query": "https://www.facebook.com/events/search?q=Classics&sde=Abq6hpNmijm8kReC4KYmmDP0NuT4IxNliFRnd3vuRZUj8uh4BsVIK3dVq186DripYNQbuwiy5LR0V3y0W_iqLV_W&filters=eyJycF9ldmVudHNfbG9jYXRpb246MCI6IntcIm5hbWVcIjpcImZpbHRlcl9ldmVudHNfbG9jYXRpb25cIixcImFyZ3NcIjpcIjExNDE5MjY4NTI1ODI5N1wifSJ9"
  },
  {
    "id": 9574,
    "name": "La Haye-Aubrée",
    "state_id": 26,
    "postal_code": "27350",
    "state_name": "Eure",
    "query": "https://www.facebook.com/events/search?q=Classics&sde=Abq6hpNmijm8kReC4KYmmDP0NuT4IxNliFRnd3vuRZUj8uh4BsVIK3dVq186DripYNQbuwiy5LR0V3y0W_iqLV_W&filters=eyJycF9ldmVudHNfbG9jYXRpb246MCI6IntcIm5hbWVcIjpcImZpbHRlcl9ldmVudHNfbG9jYXRpb25cIixcImFyZ3NcIjpcIjExMTc0MTQ5ODg1MzM1NlwifSJ9"
  },
  {
    "id": 9575,
    "name": "La Haye-de-Calleville",
    "state_id": 26,
    "postal_code": "27800",
    "state_name": "Eure",
    "query": ""
  },
  {
    "id": 9576,
    "name": "La Haye-de-Routot",
    "state_id": 26,
    "postal_code": "27350",
    "state_name": "Eure",
    "query": ""
  },
  {
    "id": 9577,
    "name": "La Haye-du-Theil",
    "state_id": 26,
    "postal_code": "27370",
    "state_name": "Eure",
    "query": "https://www.facebook.com/events/search?q=Classics&sde=Abq6hpNmijm8kReC4KYmmDP0NuT4IxNliFRnd3vuRZUj8uh4BsVIK3dVq186DripYNQbuwiy5LR0V3y0W_iqLV_W&filters=eyJycF9ldmVudHNfbG9jYXRpb246MCI6IntcIm5hbWVcIjpcImZpbHRlcl9ldmVudHNfbG9jYXRpb25cIixcImFyZ3NcIjpcIjEwMzM0MjYwNjM3NDA2MlwifSJ9"
  },
  {
    "id": 9578,
    "name": "La Haye-le-Comte",
    "state_id": 26,
    "postal_code": "27400",
    "state_name": "Eure",
    "query": ""
  },
  {
    "id": 9579,
    "name": "La Haye-Malherbe",
    "state_id": 26,
    "postal_code": "27400",
    "state_name": "Eure",
    "query": "https://www.facebook.com/events/search?q=Classics&sde=Abq6hpNmijm8kReC4KYmmDP0NuT4IxNliFRnd3vuRZUj8uh4BsVIK3dVq186DripYNQbuwiy5LR0V3y0W_iqLV_W&filters=eyJycF9ldmVudHNfbG9jYXRpb246MCI6IntcIm5hbWVcIjpcImZpbHRlcl9ldmVudHNfbG9jYXRpb25cIixcImFyZ3NcIjpcIjEwNzIyNDU2OTMxNjAwMFwifSJ9"
  },
  {
    "id": 9580,
    "name": "La Haye-Saint-Sylvestre",
    "state_id": 26,
    "postal_code": "27330",
    "state_name": "Eure",
    "query": "https://www.facebook.com/events/search?q=Classics&sde=Abq6hpNmijm8kReC4KYmmDP0NuT4IxNliFRnd3vuRZUj8uh4BsVIK3dVq186DripYNQbuwiy5LR0V3y0W_iqLV_W&filters=eyJycF9ldmVudHNfbG9jYXRpb246MCI6IntcIm5hbWVcIjpcImZpbHRlcl9ldmVudHNfbG9jYXRpb25cIixcImFyZ3NcIjpcIjExMjcxOTkwMjA4MDk3NFwifSJ9"
  },
  {
    "id": 9581,
    "name": "Hébécourt",
    "state_id": 26,
    "postal_code": "27150",
    "state_name": "Eure",
    "query": "https://www.facebook.com/events/search?q=Classics&sde=Abq6hpNmijm8kReC4KYmmDP0NuT4IxNliFRnd3vuRZUj8uh4BsVIK3dVq186DripYNQbuwiy5LR0V3y0W_iqLV_W&filters=eyJycF9ldmVudHNfbG9jYXRpb246MCI6IntcIm5hbWVcIjpcImZpbHRlcl9ldmVudHNfbG9jYXRpb25cIixcImFyZ3NcIjpcIjExMjk4NjU2ODcxNzI0NlwifSJ9"
  },
  {
    "id": 9582,
    "name": "Hecmanville",
    "state_id": 26,
    "postal_code": "27800",
    "state_name": "Eure",
    "query": ""
  },
  {
    "id": 9583,
    "name": "Hécourt",
    "state_id": 26,
    "postal_code": "27120",
    "state_name": "Eure",
    "query": ""
  },
  {
    "id": 9584,
    "name": "Hectomare",
    "state_id": 26,
    "postal_code": "27110",
    "state_name": "Eure",
    "query": "https://www.facebook.com/events/search?q=Classics&sde=Abq6hpNmijm8kReC4KYmmDP0NuT4IxNliFRnd3vuRZUj8uh4BsVIK3dVq186DripYNQbuwiy5LR0V3y0W_iqLV_W&filters=eyJycF9ldmVudHNfbG9jYXRpb246MCI6IntcIm5hbWVcIjpcImZpbHRlcl9ldmVudHNfbG9jYXRpb25cIixcImFyZ3NcIjpcIjEwOTUyMDMwNTc0NjI2OFwifSJ9"
  },
  {
    "id": 9585,
    "name": "Hennezis",
    "state_id": 26,
    "postal_code": "27700",
    "state_name": "Eure",
    "query": "https://www.facebook.com/events/search?q=Classics&sde=Abq6hpNmijm8kReC4KYmmDP0NuT4IxNliFRnd3vuRZUj8uh4BsVIK3dVq186DripYNQbuwiy5LR0V3y0W_iqLV_W&filters=eyJycF9ldmVudHNfbG9jYXRpb246MCI6IntcIm5hbWVcIjpcImZpbHRlcl9ldmVudHNfbG9jYXRpb25cIixcImFyZ3NcIjpcIjExNTg4NjEwODQyNjU5MVwifSJ9"
  },
  {
    "id": 9586,
    "name": "Herqueville",
    "state_id": 26,
    "postal_code": "27430",
    "state_name": "Eure",
    "query": ""
  },
  {
    "id": 9587,
    "name": "Heubécourt-Haricourt",
    "state_id": 26,
    "postal_code": "27630",
    "state_name": "Eure",
    "query": ""
  },
  {
    "id": 9588,
    "name": "Heudebouville",
    "state_id": 26,
    "postal_code": "27400",
    "state_name": "Eure",
    "query": "https://www.facebook.com/events/search?q=Classics&sde=Abq6hpNmijm8kReC4KYmmDP0NuT4IxNliFRnd3vuRZUj8uh4BsVIK3dVq186DripYNQbuwiy5LR0V3y0W_iqLV_W&filters=eyJycF9ldmVudHNfbG9jYXRpb246MCI6IntcIm5hbWVcIjpcImZpbHRlcl9ldmVudHNfbG9jYXRpb25cIixcImFyZ3NcIjpcIjEwMzMzNTY2MzA0MTU3NlwifSJ9"
  },
  {
    "id": 9589,
    "name": "Heudicourt",
    "state_id": 26,
    "postal_code": "27860",
    "state_name": "Eure",
    "query": "https://www.facebook.com/events/search?q=Classics&sde=Abq6hpNmijm8kReC4KYmmDP0NuT4IxNliFRnd3vuRZUj8uh4BsVIK3dVq186DripYNQbuwiy5LR0V3y0W_iqLV_W&filters=eyJycF9ldmVudHNfbG9jYXRpb246MCI6IntcIm5hbWVcIjpcImZpbHRlcl9ldmVudHNfbG9jYXRpb25cIixcImFyZ3NcIjpcIjEwOTU3ODg1OTA2Njc0MlwifSJ9"
  },
  {
    "id": 9590,
    "name": "Heudreville-en-Lieuvin",
    "state_id": 26,
    "postal_code": "27230",
    "state_name": "Eure",
    "query": ""
  },
  {
    "id": 9591,
    "name": "Heudreville-sur-Eure",
    "state_id": 26,
    "postal_code": "27400",
    "state_name": "Eure",
    "query": "https://www.facebook.com/events/search?q=Classics&sde=Abq6hpNmijm8kReC4KYmmDP0NuT4IxNliFRnd3vuRZUj8uh4BsVIK3dVq186DripYNQbuwiy5LR0V3y0W_iqLV_W&filters=eyJycF9ldmVudHNfbG9jYXRpb246MCI6IntcIm5hbWVcIjpcImZpbHRlcl9ldmVudHNfbG9jYXRpb25cIixcImFyZ3NcIjpcIjEwNzE3OTk2OTMyMDQxNFwifSJ9"
  },
  {
    "id": 9592,
    "name": "La Heunière",
    "state_id": 26,
    "postal_code": "27950",
    "state_name": "Eure",
    "query": "https://www.facebook.com/events/search?q=Classics&sde=Abq6hpNmijm8kReC4KYmmDP0NuT4IxNliFRnd3vuRZUj8uh4BsVIK3dVq186DripYNQbuwiy5LR0V3y0W_iqLV_W&filters=eyJycF9ldmVudHNfbG9jYXRpb246MCI6IntcIm5hbWVcIjpcImZpbHRlcl9ldmVudHNfbG9jYXRpb25cIixcImFyZ3NcIjpcIjExMDk1MjU1NTYwMTQ2OFwifSJ9"
  },
  {
    "id": 9593,
    "name": "Heuqueville",
    "state_id": 26,
    "postal_code": "27700",
    "state_name": "Eure",
    "query": "https://www.facebook.com/events/search?q=Classics&sde=Abq6hpNmijm8kReC4KYmmDP0NuT4IxNliFRnd3vuRZUj8uh4BsVIK3dVq186DripYNQbuwiy5LR0V3y0W_iqLV_W&filters=eyJycF9ldmVudHNfbG9jYXRpb246MCI6IntcIm5hbWVcIjpcImZpbHRlcl9ldmVudHNfbG9jYXRpb25cIixcImFyZ3NcIjpcIjExMzY0Mzg3ODY0OTc4MlwifSJ9"
  },
  {
    "id": 9594,
    "name": "Les Hogues",
    "state_id": 26,
    "postal_code": "27910",
    "state_name": "Eure",
    "query": "https://www.facebook.com/events/search?q=Classics&sde=Abq6hpNmijm8kReC4KYmmDP0NuT4IxNliFRnd3vuRZUj8uh4BsVIK3dVq186DripYNQbuwiy5LR0V3y0W_iqLV_W&filters=eyJycF9ldmVudHNfbG9jYXRpb246MCI6IntcIm5hbWVcIjpcImZpbHRlcl9ldmVudHNfbG9jYXRpb25cIixcImFyZ3NcIjpcIjExMzI2MzI4MjAzNDIyMFwifSJ9"
  },
  {
    "id": 9595,
    "name": "Hondouville",
    "state_id": 26,
    "postal_code": "27400",
    "state_name": "Eure",
    "query": "https://www.facebook.com/events/search?q=Classics&sde=Abq6hpNmijm8kReC4KYmmDP0NuT4IxNliFRnd3vuRZUj8uh4BsVIK3dVq186DripYNQbuwiy5LR0V3y0W_iqLV_W&filters=eyJycF9ldmVudHNfbG9jYXRpb246MCI6IntcIm5hbWVcIjpcImZpbHRlcl9ldmVudHNfbG9jYXRpb25cIixcImFyZ3NcIjpcIjEwOTU4Nzg2NTczODI4M1wifSJ9"
  },
  {
    "id": 9596,
    "name": "Honguemare-Guenouville",
    "state_id": 26,
    "postal_code": "27310",
    "state_name": "Eure",
    "query": "https://www.facebook.com/events/search?q=Classics&sde=Abq6hpNmijm8kReC4KYmmDP0NuT4IxNliFRnd3vuRZUj8uh4BsVIK3dVq186DripYNQbuwiy5LR0V3y0W_iqLV_W&filters=eyJycF9ldmVudHNfbG9jYXRpb246MCI6IntcIm5hbWVcIjpcImZpbHRlcl9ldmVudHNfbG9jYXRpb25cIixcImFyZ3NcIjpcIjEwOTE0MzkxNTc4NDg3NFwifSJ9"
  },
  {
    "id": 9597,
    "name": "L'Hosmes",
    "state_id": 26,
    "postal_code": "27570",
    "state_name": "Eure",
    "query": ""
  },
  {
    "id": 9598,
    "name": "Houetteville",
    "state_id": 26,
    "postal_code": "27400",
    "state_name": "Eure",
    "query": "https://www.facebook.com/events/search?q=Classics&sde=Abq6hpNmijm8kReC4KYmmDP0NuT4IxNliFRnd3vuRZUj8uh4BsVIK3dVq186DripYNQbuwiy5LR0V3y0W_iqLV_W&filters=eyJycF9ldmVudHNfbG9jYXRpb246MCI6IntcIm5hbWVcIjpcImZpbHRlcl9ldmVudHNfbG9jYXRpb25cIixcImFyZ3NcIjpcIjExMjc2OTAwNTQwODczM1wifSJ9"
  },
  {
    "id": 9599,
    "name": "Houlbec-Cocherel",
    "state_id": 26,
    "postal_code": "27120",
    "state_name": "Eure",
    "query": "https://www.facebook.com/events/search?q=Classics&sde=Abq6hpNmijm8kReC4KYmmDP0NuT4IxNliFRnd3vuRZUj8uh4BsVIK3dVq186DripYNQbuwiy5LR0V3y0W_iqLV_W&filters=eyJycF9ldmVudHNfbG9jYXRpb246MCI6IntcIm5hbWVcIjpcImZpbHRlcl9ldmVudHNfbG9jYXRpb25cIixcImFyZ3NcIjpcIjExMzA2MTg4ODcxMjQ1MlwifSJ9"
  },
  {
    "id": 9600,
    "name": "La Houssaye",
    "state_id": 26,
    "postal_code": "27410",
    "state_name": "Eure",
    "query": "https://www.facebook.com/events/search?q=Classics&sde=Abq6hpNmijm8kReC4KYmmDP0NuT4IxNliFRnd3vuRZUj8uh4BsVIK3dVq186DripYNQbuwiy5LR0V3y0W_iqLV_W&filters=eyJycF9ldmVudHNfbG9jYXRpb246MCI6IntcIm5hbWVcIjpcImZpbHRlcl9ldmVudHNfbG9jYXRpb25cIixcImFyZ3NcIjpcIjExMTk5ODM0NTQ4MzMzM1wifSJ9"
  },
  {
    "id": 9601,
    "name": "Houville-en-Vexin",
    "state_id": 26,
    "postal_code": "27440",
    "state_name": "Eure",
    "query": ""
  },
  {
    "id": 9602,
    "name": "Huest",
    "state_id": 26,
    "postal_code": "27930",
    "state_name": "Eure",
    "query": "https://www.facebook.com/events/search?q=Classics&sde=Abq6hpNmijm8kReC4KYmmDP0NuT4IxNliFRnd3vuRZUj8uh4BsVIK3dVq186DripYNQbuwiy5LR0V3y0W_iqLV_W&filters=eyJycF9ldmVudHNfbG9jYXRpb246MCI6IntcIm5hbWVcIjpcImZpbHRlcl9ldmVudHNfbG9jYXRpb25cIixcImFyZ3NcIjpcIjExMTc3OTk2MjE3NzY4MVwifSJ9"
  },
  {
    "id": 9603,
    "name": "Igoville",
    "state_id": 26,
    "postal_code": "27460",
    "state_name": "Eure",
    "query": "https://www.facebook.com/events/search?q=Classics&sde=Abq6hpNmijm8kReC4KYmmDP0NuT4IxNliFRnd3vuRZUj8uh4BsVIK3dVq186DripYNQbuwiy5LR0V3y0W_iqLV_W&filters=eyJycF9ldmVudHNfbG9jYXRpb246MCI6IntcIm5hbWVcIjpcImZpbHRlcl9ldmVudHNfbG9jYXRpb25cIixcImFyZ3NcIjpcIjExMTExODMzNTU3NzU2MVwifSJ9"
  },
  {
    "id": 9604,
    "name": "Illeville-sur-Montfort",
    "state_id": 26,
    "postal_code": "27290",
    "state_name": "Eure",
    "query": "https://www.facebook.com/events/search?q=Classics&sde=Abq6hpNmijm8kReC4KYmmDP0NuT4IxNliFRnd3vuRZUj8uh4BsVIK3dVq186DripYNQbuwiy5LR0V3y0W_iqLV_W&filters=eyJycF9ldmVudHNfbG9jYXRpb246MCI6IntcIm5hbWVcIjpcImZpbHRlcl9ldmVudHNfbG9jYXRpb25cIixcImFyZ3NcIjpcIjExNjEwNDU2MTczNDkzOFwifSJ9"
  },
  {
    "id": 9605,
    "name": "Illiers-l'Évêque",
    "state_id": 26,
    "postal_code": "27770",
    "state_name": "Eure",
    "query": "https://www.facebook.com/events/search?q=Classics&sde=Abq6hpNmijm8kReC4KYmmDP0NuT4IxNliFRnd3vuRZUj8uh4BsVIK3dVq186DripYNQbuwiy5LR0V3y0W_iqLV_W&filters=eyJycF9ldmVudHNfbG9jYXRpb246MCI6IntcIm5hbWVcIjpcImZpbHRlcl9ldmVudHNfbG9jYXRpb25cIixcImFyZ3NcIjpcIjExMjU4NzE5ODc1OTY5NVwifSJ9"
  },
  {
    "id": 9606,
    "name": "Incarville",
    "state_id": 26,
    "postal_code": "27400",
    "state_name": "Eure",
    "query": "https://www.facebook.com/events/search?q=Classics&sde=Abq6hpNmijm8kReC4KYmmDP0NuT4IxNliFRnd3vuRZUj8uh4BsVIK3dVq186DripYNQbuwiy5LR0V3y0W_iqLV_W&filters=eyJycF9ldmVudHNfbG9jYXRpb246MCI6IntcIm5hbWVcIjpcImZpbHRlcl9ldmVudHNfbG9jYXRpb25cIixcImFyZ3NcIjpcIjExMTI3MTUxMjIzNTU0MlwifSJ9"
  },
  {
    "id": 9607,
    "name": "Irreville",
    "state_id": 26,
    "postal_code": "27930",
    "state_name": "Eure",
    "query": "https://www.facebook.com/events/search?q=Classics&sde=Abq6hpNmijm8kReC4KYmmDP0NuT4IxNliFRnd3vuRZUj8uh4BsVIK3dVq186DripYNQbuwiy5LR0V3y0W_iqLV_W&filters=eyJycF9ldmVudHNfbG9jYXRpb246MCI6IntcIm5hbWVcIjpcImZpbHRlcl9ldmVudHNfbG9jYXRpb25cIixcImFyZ3NcIjpcIjExMTI2NDg1NTU2MDMwMFwifSJ9"
  },
  {
    "id": 9608,
    "name": "Iville",
    "state_id": 26,
    "postal_code": "27110",
    "state_name": "Eure",
    "query": ""
  },
  {
    "id": 9609,
    "name": "Ivry-la-Bataille",
    "state_id": 26,
    "postal_code": "27540",
    "state_name": "Eure",
    "query": "https://www.facebook.com/events/search?q=Classics&sde=Abq6hpNmijm8kReC4KYmmDP0NuT4IxNliFRnd3vuRZUj8uh4BsVIK3dVq186DripYNQbuwiy5LR0V3y0W_iqLV_W&filters=eyJycF9ldmVudHNfbG9jYXRpb246MCI6IntcIm5hbWVcIjpcImZpbHRlcl9ldmVudHNfbG9jYXRpb25cIixcImFyZ3NcIjpcIjExNjcyOTcwMTY3MTI0N1wifSJ9"
  },
  {
    "id": 9610,
    "name": "Jouy-sur-Eure",
    "state_id": 26,
    "postal_code": "27120",
    "state_name": "Eure",
    "query": "https://www.facebook.com/events/search?q=Classics&sde=Abq6hpNmijm8kReC4KYmmDP0NuT4IxNliFRnd3vuRZUj8uh4BsVIK3dVq186DripYNQbuwiy5LR0V3y0W_iqLV_W&filters=eyJycF9ldmVudHNfbG9jYXRpb246MCI6IntcIm5hbWVcIjpcImZpbHRlcl9ldmVudHNfbG9jYXRpb25cIixcImFyZ3NcIjpcIjEwOTUwNDE3MjQxNDEyMlwifSJ9"
  },
  {
    "id": 9611,
    "name": "Juignettes",
    "state_id": 26,
    "postal_code": "27250",
    "state_name": "Eure",
    "query": "https://www.facebook.com/events/search?q=Classics&sde=Abq6hpNmijm8kReC4KYmmDP0NuT4IxNliFRnd3vuRZUj8uh4BsVIK3dVq186DripYNQbuwiy5LR0V3y0W_iqLV_W&filters=eyJycF9ldmVudHNfbG9jYXRpb246MCI6IntcIm5hbWVcIjpcImZpbHRlcl9ldmVudHNfbG9jYXRpb25cIixcImFyZ3NcIjpcIjExMTE1NjI1MjI0NzM5MVwifSJ9"
  },
  {
    "id": 9612,
    "name": "Jumelles",
    "state_id": 26,
    "postal_code": "27220",
    "state_name": "Eure",
    "query": "https://www.facebook.com/events/search?q=Classics&sde=Abq6hpNmijm8kReC4KYmmDP0NuT4IxNliFRnd3vuRZUj8uh4BsVIK3dVq186DripYNQbuwiy5LR0V3y0W_iqLV_W&filters=eyJycF9ldmVudHNfbG9jYXRpb246MCI6IntcIm5hbWVcIjpcImZpbHRlcl9ldmVudHNfbG9jYXRpb25cIixcImFyZ3NcIjpcIjExMDA4MjUyNTY3NjMwNVwifSJ9"
  },
  {
    "id": 9613,
    "name": "La Lande-Saint-Léger",
    "state_id": 26,
    "postal_code": "27210",
    "state_name": "Eure",
    "query": ""
  },
  {
    "id": 9614,
    "name": "Le Landin",
    "state_id": 26,
    "postal_code": "27350",
    "state_name": "Eure",
    "query": ""
  },
  {
    "id": 9615,
    "name": "Launay",
    "state_id": 26,
    "postal_code": "27470",
    "state_name": "Eure",
    "query": "https://www.facebook.com/events/search?q=Classics&sde=Abq6hpNmijm8kReC4KYmmDP0NuT4IxNliFRnd3vuRZUj8uh4BsVIK3dVq186DripYNQbuwiy5LR0V3y0W_iqLV_W&filters=eyJycF9ldmVudHNfbG9jYXRpb246MCI6IntcIm5hbWVcIjpcImZpbHRlcl9ldmVudHNfbG9jYXRpb25cIixcImFyZ3NcIjpcIjEwOTQ4ODczMjQwODc3MFwifSJ9"
  },
  {
    "id": 9616,
    "name": "Léry",
    "state_id": 26,
    "postal_code": "27690",
    "state_name": "Eure",
    "query": "https://www.facebook.com/events/search?q=Classics&sde=Abq6hpNmijm8kReC4KYmmDP0NuT4IxNliFRnd3vuRZUj8uh4BsVIK3dVq186DripYNQbuwiy5LR0V3y0W_iqLV_W&filters=eyJycF9ldmVudHNfbG9jYXRpb246MCI6IntcIm5hbWVcIjpcImZpbHRlcl9ldmVudHNfbG9jYXRpb25cIixcImFyZ3NcIjpcIjExMDY4Nzg1NTYyNDkxMFwifSJ9"
  },
  {
    "id": 9617,
    "name": "Letteguives",
    "state_id": 26,
    "postal_code": "27910",
    "state_name": "Eure",
    "query": "https://www.facebook.com/events/search?q=Classics&sde=Abq6hpNmijm8kReC4KYmmDP0NuT4IxNliFRnd3vuRZUj8uh4BsVIK3dVq186DripYNQbuwiy5LR0V3y0W_iqLV_W&filters=eyJycF9ldmVudHNfbG9jYXRpb246MCI6IntcIm5hbWVcIjpcImZpbHRlcl9ldmVudHNfbG9jYXRpb25cIixcImFyZ3NcIjpcIjEwODkyNzc3NTgwODAxN1wifSJ9"
  },
  {
    "id": 9618,
    "name": "Lieurey",
    "state_id": 26,
    "postal_code": "27560",
    "state_name": "Eure",
    "query": "https://www.facebook.com/events/search?q=Classics&sde=Abq6hpNmijm8kReC4KYmmDP0NuT4IxNliFRnd3vuRZUj8uh4BsVIK3dVq186DripYNQbuwiy5LR0V3y0W_iqLV_W&filters=eyJycF9ldmVudHNfbG9jYXRpb246MCI6IntcIm5hbWVcIjpcImZpbHRlcl9ldmVudHNfbG9jYXRpb25cIixcImFyZ3NcIjpcIjEwNzIwMjE0MjY1MTQxMVwifSJ9"
  },
  {
    "id": 9619,
    "name": "Lignerolles",
    "state_id": 26,
    "postal_code": "27220",
    "state_name": "Eure",
    "query": "https://www.facebook.com/events/search?q=Classics&sde=Abq6hpNmijm8kReC4KYmmDP0NuT4IxNliFRnd3vuRZUj8uh4BsVIK3dVq186DripYNQbuwiy5LR0V3y0W_iqLV_W&filters=eyJycF9ldmVudHNfbG9jYXRpb246MCI6IntcIm5hbWVcIjpcImZpbHRlcl9ldmVudHNfbG9jYXRpb25cIixcImFyZ3NcIjpcIjEwNDkyNzA3OTU0MzgyMVwifSJ9"
  },
  {
    "id": 9620,
    "name": "Lilly",
    "state_id": 26,
    "postal_code": "27480",
    "state_name": "Eure",
    "query": "https://www.facebook.com/events/search?q=Classics&sde=Abq6hpNmijm8kReC4KYmmDP0NuT4IxNliFRnd3vuRZUj8uh4BsVIK3dVq186DripYNQbuwiy5LR0V3y0W_iqLV_W&filters=eyJycF9ldmVudHNfbG9jYXRpb246MCI6IntcIm5hbWVcIjpcImZpbHRlcl9ldmVudHNfbG9jYXRpb25cIixcImFyZ3NcIjpcIjEwNDkxMDczMjg3ODY4M1wifSJ9"
  },
  {
    "id": 9621,
    "name": "Lisors",
    "state_id": 26,
    "postal_code": "27440",
    "state_name": "Eure",
    "query": "https://www.facebook.com/events/search?q=Classics&sde=Abq6hpNmijm8kReC4KYmmDP0NuT4IxNliFRnd3vuRZUj8uh4BsVIK3dVq186DripYNQbuwiy5LR0V3y0W_iqLV_W&filters=eyJycF9ldmVudHNfbG9jYXRpb246MCI6IntcIm5hbWVcIjpcImZpbHRlcl9ldmVudHNfbG9jYXRpb25cIixcImFyZ3NcIjpcIjEwNDE1MzQyNjI4NzgzNVwifSJ9"
  },
  {
    "id": 9622,
    "name": "Livet-sur-Authou",
    "state_id": 26,
    "postal_code": "27800",
    "state_name": "Eure",
    "query": ""
  },
  {
    "id": 9623,
    "name": "Longchamps",
    "state_id": 26,
    "postal_code": "27150",
    "state_name": "Eure",
    "query": "https://www.facebook.com/events/search?q=Classics&sde=Abq6hpNmijm8kReC4KYmmDP0NuT4IxNliFRnd3vuRZUj8uh4BsVIK3dVq186DripYNQbuwiy5LR0V3y0W_iqLV_W&filters=eyJycF9ldmVudHNfbG9jYXRpb246MCI6IntcIm5hbWVcIjpcImZpbHRlcl9ldmVudHNfbG9jYXRpb25cIixcImFyZ3NcIjpcIjExMTIzODkwODkwNTg3MFwifSJ9"
  },
  {
    "id": 9624,
    "name": "Lorleau",
    "state_id": 26,
    "postal_code": "27480",
    "state_name": "Eure",
    "query": "https://www.facebook.com/events/search?q=Classics&sde=Abq6hpNmijm8kReC4KYmmDP0NuT4IxNliFRnd3vuRZUj8uh4BsVIK3dVq186DripYNQbuwiy5LR0V3y0W_iqLV_W&filters=eyJycF9ldmVudHNfbG9jYXRpb246MCI6IntcIm5hbWVcIjpcImZpbHRlcl9ldmVudHNfbG9jYXRpb25cIixcImFyZ3NcIjpcIjEwMzExOTgwOTcyNzc2NlwifSJ9"
  },
  {
    "id": 9625,
    "name": "Louversey",
    "state_id": 26,
    "postal_code": "27190",
    "state_name": "Eure",
    "query": "https://www.facebook.com/events/search?q=Classics&sde=Abq6hpNmijm8kReC4KYmmDP0NuT4IxNliFRnd3vuRZUj8uh4BsVIK3dVq186DripYNQbuwiy5LR0V3y0W_iqLV_W&filters=eyJycF9ldmVudHNfbG9jYXRpb246MCI6IntcIm5hbWVcIjpcImZpbHRlcl9ldmVudHNfbG9jYXRpb25cIixcImFyZ3NcIjpcIjEwNTcyNzk3OTQ2MTI5MlwifSJ9"
  },
  {
    "id": 9626,
    "name": "Louviers",
    "state_id": 26,
    "postal_code": "27400",
    "state_name": "Eure",
    "query": "https://www.facebook.com/events/search?q=Classics&sde=Abq6hpNmijm8kReC4KYmmDP0NuT4IxNliFRnd3vuRZUj8uh4BsVIK3dVq186DripYNQbuwiy5LR0V3y0W_iqLV_W&filters=eyJycF9ldmVudHNfbG9jYXRpb246MCI6IntcIm5hbWVcIjpcImZpbHRlcl9ldmVudHNfbG9jYXRpb25cIixcImFyZ3NcIjpcIjExMjUxNzE1MjA5NzAwNFwifSJ9"
  },
  {
    "id": 9627,
    "name": "Louye",
    "state_id": 26,
    "postal_code": "27650",
    "state_name": "Eure",
    "query": ""
  },
  {
    "id": 9628,
    "name": "Lyons-la-Forêt",
    "state_id": 26,
    "postal_code": "27480",
    "state_name": "Eure",
    "query": "https://www.facebook.com/events/search?q=Classics&sde=Abq6hpNmijm8kReC4KYmmDP0NuT4IxNliFRnd3vuRZUj8uh4BsVIK3dVq186DripYNQbuwiy5LR0V3y0W_iqLV_W&filters=eyJycF9ldmVudHNfbG9jYXRpb246MCI6IntcIm5hbWVcIjpcImZpbHRlcl9ldmVudHNfbG9jYXRpb25cIixcImFyZ3NcIjpcIjEwNDA1MzczNjI5NzE4NFwifSJ9"
  },
  {
    "id": 9629,
    "name": "La Madeleine-de-Nonancourt",
    "state_id": 26,
    "postal_code": "27320",
    "state_name": "Eure",
    "query": "https://www.facebook.com/events/search?q=Classics&sde=Abq6hpNmijm8kReC4KYmmDP0NuT4IxNliFRnd3vuRZUj8uh4BsVIK3dVq186DripYNQbuwiy5LR0V3y0W_iqLV_W&filters=eyJycF9ldmVudHNfbG9jYXRpb246MCI6IntcIm5hbWVcIjpcImZpbHRlcl9ldmVudHNfbG9jYXRpb25cIixcImFyZ3NcIjpcIjExMjAxMjA3MjE1NjE5NlwifSJ9"
  },
  {
    "id": 9630,
    "name": "Mainneville",
    "state_id": 26,
    "postal_code": "27150",
    "state_name": "Eure",
    "query": "https://www.facebook.com/events/search?q=Classics&sde=Abq6hpNmijm8kReC4KYmmDP0NuT4IxNliFRnd3vuRZUj8uh4BsVIK3dVq186DripYNQbuwiy5LR0V3y0W_iqLV_W&filters=eyJycF9ldmVudHNfbG9jYXRpb246MCI6IntcIm5hbWVcIjpcImZpbHRlcl9ldmVudHNfbG9jYXRpb25cIixcImFyZ3NcIjpcIjEwNzMwNTIyOTMwNTkxOFwifSJ9"
  },
  {
    "id": 9631,
    "name": "Malleville-sur-le-Bec",
    "state_id": 26,
    "postal_code": "27800",
    "state_name": "Eure",
    "query": "https://www.facebook.com/events/search?q=Classics&sde=Abq6hpNmijm8kReC4KYmmDP0NuT4IxNliFRnd3vuRZUj8uh4BsVIK3dVq186DripYNQbuwiy5LR0V3y0W_iqLV_W&filters=eyJycF9ldmVudHNfbG9jYXRpb246MCI6IntcIm5hbWVcIjpcImZpbHRlcl9ldmVudHNfbG9jYXRpb25cIixcImFyZ3NcIjpcIjExNzExMzI2ODMwMjM4MFwifSJ9"
  },
  {
    "id": 9632,
    "name": "Malouy",
    "state_id": 26,
    "postal_code": "27300",
    "state_name": "Eure",
    "query": ""
  },
  {
    "id": 9633,
    "name": "Mandeville",
    "state_id": 26,
    "postal_code": "27370",
    "state_name": "Eure",
    "query": "https://www.facebook.com/events/search/?q=Classics&sde=Abq6hpNmijm8kReC4KYmmDP0NuT4IxNliFRnd3vuRZUj8uh4BsVIK3dVq186DripYNQbuwiy5LR0V3y0W_iqLV_W&filters=eyJycF9ldmVudHNfbG9jYXRpb246MCI6IntcIm5hbWVcIjpcImZpbHRlcl9ldmVudHNfbG9jYXRpb25cIixcImFyZ3NcIjpcIjEwNzQxMTk5MjYyNzE1NlwifSJ9"
  },
  {
    "id": 9634,
    "name": "Mandres",
    "state_id": 26,
    "postal_code": "27130",
    "state_name": "Eure",
    "query": "https://www.facebook.com/events/search?q=Classics&sde=Abq6hpNmijm8kReC4KYmmDP0NuT4IxNliFRnd3vuRZUj8uh4BsVIK3dVq186DripYNQbuwiy5LR0V3y0W_iqLV_W&filters=eyJycF9ldmVudHNfbG9jYXRpb246MCI6IntcIm5hbWVcIjpcImZpbHRlcl9ldmVudHNfbG9jYXRpb25cIixcImFyZ3NcIjpcIjExMDU3MTk2MjMwMzAxNFwifSJ9"
  },
  {
    "id": 9635,
    "name": "Manneville-la-Raoult",
    "state_id": 26,
    "postal_code": "27210",
    "state_name": "Eure",
    "query": "https://www.facebook.com/events/search?q=Classics&sde=Abq6hpNmijm8kReC4KYmmDP0NuT4IxNliFRnd3vuRZUj8uh4BsVIK3dVq186DripYNQbuwiy5LR0V3y0W_iqLV_W&filters=eyJycF9ldmVudHNfbG9jYXRpb246MCI6IntcIm5hbWVcIjpcImZpbHRlcl9ldmVudHNfbG9jYXRpb25cIixcImFyZ3NcIjpcIjExMTU5MDc1NTUzNTU0OFwifSJ9"
  },
  {
    "id": 9636,
    "name": "Manneville-sur-Risle",
    "state_id": 26,
    "postal_code": "27500",
    "state_name": "Eure",
    "query": "https://www.facebook.com/events/search?q=Classics&sde=Abq6hpNmijm8kReC4KYmmDP0NuT4IxNliFRnd3vuRZUj8uh4BsVIK3dVq186DripYNQbuwiy5LR0V3y0W_iqLV_W&filters=eyJycF9ldmVudHNfbG9jYXRpb246MCI6IntcIm5hbWVcIjpcImZpbHRlcl9ldmVudHNfbG9jYXRpb25cIixcImFyZ3NcIjpcIjExMTEyODEwNTU3NzA4NVwifSJ9"
  },
  {
    "id": 9637,
    "name": "Le Manoir",
    "state_id": 26,
    "postal_code": "27460",
    "state_name": "Eure",
    "query": "https://www.facebook.com/events/search?q=Classics&sde=Abq6hpNmijm8kReC4KYmmDP0NuT4IxNliFRnd3vuRZUj8uh4BsVIK3dVq186DripYNQbuwiy5LR0V3y0W_iqLV_W&filters=eyJycF9ldmVudHNfbG9jYXRpb246MCI6IntcIm5hbWVcIjpcImZpbHRlcl9ldmVudHNfbG9jYXRpb25cIixcImFyZ3NcIjpcIjEwNDk2NDIzMjg3MjIwNVwifSJ9"
  },
  {
    "id": 9638,
    "name": "Marais-Vernier",
    "state_id": 26,
    "postal_code": "27680",
    "state_name": "Eure",
    "query": "https://www.facebook.com/events/search?q=Classics&sde=Abq6hpNmijm8kReC4KYmmDP0NuT4IxNliFRnd3vuRZUj8uh4BsVIK3dVq186DripYNQbuwiy5LR0V3y0W_iqLV_W&filters=eyJycF9ldmVudHNfbG9jYXRpb246MCI6IntcIm5hbWVcIjpcImZpbHRlcl9ldmVudHNfbG9jYXRpb25cIixcImFyZ3NcIjpcIjExNjEzMzcxMTczMjczOFwifSJ9"
  },
  {
    "id": 9639,
    "name": "Marbeuf",
    "state_id": 26,
    "postal_code": "27110",
    "state_name": "Eure",
    "query": "https://www.facebook.com/events/search?q=Classics&sde=Abq6hpNmijm8kReC4KYmmDP0NuT4IxNliFRnd3vuRZUj8uh4BsVIK3dVq186DripYNQbuwiy5LR0V3y0W_iqLV_W&filters=eyJycF9ldmVudHNfbG9jYXRpb246MCI6IntcIm5hbWVcIjpcImZpbHRlcl9ldmVudHNfbG9jYXRpb25cIixcImFyZ3NcIjpcIjExMzE2Nzc1NTM2NzUzM1wifSJ9"
  },
  {
    "id": 9640,
    "name": "Marcilly-la-Campagne",
    "state_id": 26,
    "postal_code": "27320",
    "state_name": "Eure",
    "query": "https://www.facebook.com/events/search?q=Classics&sde=Abq6hpNmijm8kReC4KYmmDP0NuT4IxNliFRnd3vuRZUj8uh4BsVIK3dVq186DripYNQbuwiy5LR0V3y0W_iqLV_W&filters=eyJycF9ldmVudHNfbG9jYXRpb246MCI6IntcIm5hbWVcIjpcImZpbHRlcl9ldmVudHNfbG9jYXRpb25cIixcImFyZ3NcIjpcIjExMDkzOTk4NTU5NTM4NFwifSJ9"
  },
  {
    "id": 9641,
    "name": "Marcilly-sur-Eure",
    "state_id": 26,
    "postal_code": "27810",
    "state_name": "Eure",
    "query": "https://www.facebook.com/events/search?q=Classics&sde=Abq6hpNmijm8kReC4KYmmDP0NuT4IxNliFRnd3vuRZUj8uh4BsVIK3dVq186DripYNQbuwiy5LR0V3y0W_iqLV_W&filters=eyJycF9ldmVudHNfbG9jYXRpb246MCI6IntcIm5hbWVcIjpcImZpbHRlcl9ldmVudHNfbG9jYXRpb25cIixcImFyZ3NcIjpcIjExMTU5MTkyODg2OTcyNVwifSJ9"
  },
  {
    "id": 9642,
    "name": "Martagny",
    "state_id": 26,
    "postal_code": "27150",
    "state_name": "Eure",
    "query": "https://www.facebook.com/events/search?q=Classics&sde=Abq6hpNmijm8kReC4KYmmDP0NuT4IxNliFRnd3vuRZUj8uh4BsVIK3dVq186DripYNQbuwiy5LR0V3y0W_iqLV_W&filters=eyJycF9ldmVudHNfbG9jYXRpb246MCI6IntcIm5hbWVcIjpcImZpbHRlcl9ldmVudHNfbG9jYXRpb25cIixcImFyZ3NcIjpcIjExMjE1NDU3ODc5OTc2OFwifSJ9"
  },
  {
    "id": 9643,
    "name": "Martainville",
    "state_id": 26,
    "postal_code": "27210",
    "state_name": "Eure",
    "query": "https://www.facebook.com/events/search?q=Classics&sde=Abq6hpNmijm8kReC4KYmmDP0NuT4IxNliFRnd3vuRZUj8uh4BsVIK3dVq186DripYNQbuwiy5LR0V3y0W_iqLV_W&filters=eyJycF9ldmVudHNfbG9jYXRpb246MCI6IntcIm5hbWVcIjpcImZpbHRlcl9ldmVudHNfbG9jYXRpb25cIixcImFyZ3NcIjpcIjEwOTM0OTgyOTA4OTM2OFwifSJ9"
  },
  {
    "id": 9644,
    "name": "Martot",
    "state_id": 26,
    "postal_code": "27340",
    "state_name": "Eure",
    "query": "https://www.facebook.com/events/search?q=Classics&sde=Abq6hpNmijm8kReC4KYmmDP0NuT4IxNliFRnd3vuRZUj8uh4BsVIK3dVq186DripYNQbuwiy5LR0V3y0W_iqLV_W&filters=eyJycF9ldmVudHNfbG9jYXRpb246MCI6IntcIm5hbWVcIjpcImZpbHRlcl9ldmVudHNfbG9jYXRpb25cIixcImFyZ3NcIjpcIjExMzEzNjA4NTM3OTYyMlwifSJ9"
  },
  {
    "id": 9645,
    "name": "Mélicourt",
    "state_id": 26,
    "postal_code": "27390",
    "state_name": "Eure",
    "query": "https://www.facebook.com/events/search?q=Classics&sde=Abq6hpNmijm8kReC4KYmmDP0NuT4IxNliFRnd3vuRZUj8uh4BsVIK3dVq186DripYNQbuwiy5LR0V3y0W_iqLV_W&filters=eyJycF9ldmVudHNfbG9jYXRpb246MCI6IntcIm5hbWVcIjpcImZpbHRlcl9ldmVudHNfbG9jYXRpb25cIixcImFyZ3NcIjpcIjEwNzg1NjM3NTkwMjM3OFwifSJ9"
  },
  {
    "id": 9646,
    "name": "Ménesqueville",
    "state_id": 26,
    "postal_code": "27850",
    "state_name": "Eure",
    "query": ""
  },
  {
    "id": 9647,
    "name": "Ménilles",
    "state_id": 26,
    "postal_code": "27120",
    "state_name": "Eure",
    "query": "https://www.facebook.com/events/search?q=Classics&sde=Abq6hpNmijm8kReC4KYmmDP0NuT4IxNliFRnd3vuRZUj8uh4BsVIK3dVq186DripYNQbuwiy5LR0V3y0W_iqLV_W&filters=eyJycF9ldmVudHNfbG9jYXRpb246MCI6IntcIm5hbWVcIjpcImZpbHRlcl9ldmVudHNfbG9jYXRpb25cIixcImFyZ3NcIjpcIjEwMzk4OTM1OTYzNzU5NVwifSJ9"
  },
  {
    "id": 9648,
    "name": "Menneval",
    "state_id": 26,
    "postal_code": "27300",
    "state_name": "Eure",
    "query": "https://www.facebook.com/events/search?q=Classics&sde=Abq6hpNmijm8kReC4KYmmDP0NuT4IxNliFRnd3vuRZUj8uh4BsVIK3dVq186DripYNQbuwiy5LR0V3y0W_iqLV_W&filters=eyJycF9ldmVudHNfbG9jYXRpb246MCI6IntcIm5hbWVcIjpcImZpbHRlcl9ldmVudHNfbG9jYXRpb25cIixcImFyZ3NcIjpcIjExMTA3Njg1MjI0OTIyN1wifSJ9"
  },
  {
    "id": 9649,
    "name": "Mercey",
    "state_id": 26,
    "postal_code": "27950",
    "state_name": "Eure",
    "query": ""
  },
  {
    "id": 9650,
    "name": "Merey",
    "state_id": 26,
    "postal_code": "27640",
    "state_name": "Eure",
    "query": "https://www.facebook.com/events/search?q=Classics&sde=Abq6hpNmijm8kReC4KYmmDP0NuT4IxNliFRnd3vuRZUj8uh4BsVIK3dVq186DripYNQbuwiy5LR0V3y0W_iqLV_W&filters=eyJycF9ldmVudHNfbG9jYXRpb246MCI6IntcIm5hbWVcIjpcImZpbHRlcl9ldmVudHNfbG9jYXRpb25cIixcImFyZ3NcIjpcIjExNTg3ODgyMTc1ODAyNFwifSJ9"
  },
  {
    "id": 9651,
    "name": "Le Mesnil-Fuguet",
    "state_id": 26,
    "postal_code": "27930",
    "state_name": "Eure",
    "query": ""
  },
  {
    "id": 9652,
    "name": "Le Mesnil-Jourdain",
    "state_id": 26,
    "postal_code": "27400",
    "state_name": "Eure",
    "query": ""
  },
  {
    "id": 9653,
    "name": "Mesnil-Rousset",
    "state_id": 26,
    "postal_code": "27390",
    "state_name": "Eure",
    "query": ""
  },
  {
    "id": 9654,
    "name": "Mesnil-sous-Vienne",
    "state_id": 26,
    "postal_code": "27150",
    "state_name": "Eure",
    "query": ""
  },
  {
    "id": 9655,
    "name": "Mesnil-sur-l'Estrée",
    "state_id": 26,
    "postal_code": "27650",
    "state_name": "Eure",
    "query": "https://www.facebook.com/events/search?q=Classics&sde=Abq6hpNmijm8kReC4KYmmDP0NuT4IxNliFRnd3vuRZUj8uh4BsVIK3dVq186DripYNQbuwiy5LR0V3y0W_iqLV_W&filters=eyJycF9ldmVudHNfbG9jYXRpb246MCI6IntcIm5hbWVcIjpcImZpbHRlcl9ldmVudHNfbG9jYXRpb25cIixcImFyZ3NcIjpcIjExNTU1MzEwMTc5MDE5M1wifSJ9"
  },
  {
    "id": 9656,
    "name": "Mesnil-Verclives",
    "state_id": 26,
    "postal_code": "27440",
    "state_name": "Eure",
    "query": "https://www.facebook.com/events/search?q=Classics&sde=Abq6hpNmijm8kReC4KYmmDP0NuT4IxNliFRnd3vuRZUj8uh4BsVIK3dVq186DripYNQbuwiy5LR0V3y0W_iqLV_W&filters=eyJycF9ldmVudHNfbG9jYXRpb246MCI6IntcIm5hbWVcIjpcImZpbHRlcl9ldmVudHNfbG9jYXRpb25cIixcImFyZ3NcIjpcIjExMTU2MTIyNTUzODE4MlwifSJ9"
  },
  {
    "id": 9657,
    "name": "Mézières-en-Vexin",
    "state_id": 26,
    "postal_code": "27510",
    "state_name": "Eure",
    "query": "https://www.facebook.com/events/search?q=Classics&sde=Abq6hpNmijm8kReC4KYmmDP0NuT4IxNliFRnd3vuRZUj8uh4BsVIK3dVq186DripYNQbuwiy5LR0V3y0W_iqLV_W&filters=eyJycF9ldmVudHNfbG9jYXRpb246MCI6IntcIm5hbWVcIjpcImZpbHRlcl9ldmVudHNfbG9jYXRpb25cIixcImFyZ3NcIjpcIjExMjg0ODc0NTM5NTE4N1wifSJ9"
  },
  {
    "id": 9658,
    "name": "Miserey",
    "state_id": 26,
    "postal_code": "27930",
    "state_name": "Eure",
    "query": "https://www.facebook.com/events/search?q=Classics&sde=Abq6hpNmijm8kReC4KYmmDP0NuT4IxNliFRnd3vuRZUj8uh4BsVIK3dVq186DripYNQbuwiy5LR0V3y0W_iqLV_W&filters=eyJycF9ldmVudHNfbG9jYXRpb246MCI6IntcIm5hbWVcIjpcImZpbHRlcl9ldmVudHNfbG9jYXRpb25cIixcImFyZ3NcIjpcIjExMTUxNjgyNTUzODAwN1wifSJ9"
  },
  {
    "id": 9659,
    "name": "Moisville",
    "state_id": 26,
    "postal_code": "27320",
    "state_name": "Eure",
    "query": ""
  },
  {
    "id": 9660,
    "name": "Terres de Bord",
    "state_id": 26,
    "postal_code": "27340",
    "state_name": "Eure",
    "query": ""
  },
  {
    "id": 9661,
    "name": "Montfort-sur-Risle",
    "state_id": 26,
    "postal_code": "27290",
    "state_name": "Eure",
    "query": "https://www.facebook.com/events/search?q=Classics&sde=Abq6hpNmijm8kReC4KYmmDP0NuT4IxNliFRnd3vuRZUj8uh4BsVIK3dVq186DripYNQbuwiy5LR0V3y0W_iqLV_W&filters=eyJycF9ldmVudHNfbG9jYXRpb246MCI6IntcIm5hbWVcIjpcImZpbHRlcl9ldmVudHNfbG9jYXRpb25cIixcImFyZ3NcIjpcIjExMzAyMjAzODcyMzUxMFwifSJ9"
  },
  {
    "id": 9662,
    "name": "Montreuil-l'Argillé",
    "state_id": 26,
    "postal_code": "27390",
    "state_name": "Eure",
    "query": "https://www.facebook.com/events/search?q=Classics&sde=Abq6hpNmijm8kReC4KYmmDP0NuT4IxNliFRnd3vuRZUj8uh4BsVIK3dVq186DripYNQbuwiy5LR0V3y0W_iqLV_W&filters=eyJycF9ldmVudHNfbG9jYXRpb246MCI6IntcIm5hbWVcIjpcImZpbHRlcl9ldmVudHNfbG9jYXRpb25cIixcImFyZ3NcIjpcIjEwNzQxMjQwMjYyNzM0NFwifSJ9"
  },
  {
    "id": 9663,
    "name": "Morainville-Jouveaux",
    "state_id": 26,
    "postal_code": "27260",
    "state_name": "Eure",
    "query": ""
  },
  {
    "id": 9664,
    "name": "Morgny",
    "state_id": 26,
    "postal_code": "27150",
    "state_name": "Eure",
    "query": "https://www.facebook.com/events/search?q=Classics&sde=Abq6hpNmijm8kReC4KYmmDP0NuT4IxNliFRnd3vuRZUj8uh4BsVIK3dVq186DripYNQbuwiy5LR0V3y0W_iqLV_W&filters=eyJycF9ldmVudHNfbG9jYXRpb246MCI6IntcIm5hbWVcIjpcImZpbHRlcl9ldmVudHNfbG9jYXRpb25cIixcImFyZ3NcIjpcIjExMDI5NTA0ODk4ODMzN1wifSJ9"
  },
  {
    "id": 9665,
    "name": "Morsan",
    "state_id": 26,
    "postal_code": "27800",
    "state_name": "Eure",
    "query": ""
  },
  {
    "id": 9666,
    "name": "Mouettes",
    "state_id": 26,
    "postal_code": "27220",
    "state_name": "Eure",
    "query": "https://www.facebook.com/events/search?q=Classics&sde=Abq6hpNmijm8kReC4KYmmDP0NuT4IxNliFRnd3vuRZUj8uh4BsVIK3dVq186DripYNQbuwiy5LR0V3y0W_iqLV_W&filters=eyJycF9ldmVudHNfbG9jYXRpb246MCI6IntcIm5hbWVcIjpcImZpbHRlcl9ldmVudHNfbG9jYXRpb25cIixcImFyZ3NcIjpcIjExMTMzMjc4MjIyMTM4N1wifSJ9"
  },
  {
    "id": 9667,
    "name": "Mouflaines",
    "state_id": 26,
    "postal_code": "27420",
    "state_name": "Eure",
    "query": ""
  },
  {
    "id": 9668,
    "name": "Mousseaux-Neuville",
    "state_id": 26,
    "postal_code": "27220",
    "state_name": "Eure",
    "query": "https://www.facebook.com/events/search?q=Classics&sde=Abq6hpNmijm8kReC4KYmmDP0NuT4IxNliFRnd3vuRZUj8uh4BsVIK3dVq186DripYNQbuwiy5LR0V3y0W_iqLV_W&filters=eyJycF9ldmVudHNfbG9jYXRpb246MCI6IntcIm5hbWVcIjpcImZpbHRlcl9ldmVudHNfbG9jYXRpb25cIixcImFyZ3NcIjpcIjExMTc2NjM5MjE4NTQwMFwifSJ9"
  },
  {
    "id": 9669,
    "name": "Muids",
    "state_id": 26,
    "postal_code": "27430",
    "state_name": "Eure",
    "query": "https://www.facebook.com/events/search?q=Classics&sde=Abq6hpNmijm8kReC4KYmmDP0NuT4IxNliFRnd3vuRZUj8uh4BsVIK3dVq186DripYNQbuwiy5LR0V3y0W_iqLV_W&filters=eyJycF9ldmVudHNfbG9jYXRpb246MCI6IntcIm5hbWVcIjpcImZpbHRlcl9ldmVudHNfbG9jYXRpb25cIixcImFyZ3NcIjpcIjExNTc5MjI0NTEwMzE4MVwifSJ9"
  },
  {
    "id": 9670,
    "name": "Muzy",
    "state_id": 26,
    "postal_code": "27650",
    "state_name": "Eure",
    "query": ""
  },
  {
    "id": 9671,
    "name": "Nagel-Séez-Mesnil",
    "state_id": 26,
    "postal_code": "27190",
    "state_name": "Eure",
    "query": "https://www.facebook.com/events/search?q=Classics&sde=Abq6hpNmijm8kReC4KYmmDP0NuT4IxNliFRnd3vuRZUj8uh4BsVIK3dVq186DripYNQbuwiy5LR0V3y0W_iqLV_W&filters=eyJycF9ldmVudHNfbG9jYXRpb246MCI6IntcIm5hbWVcIjpcImZpbHRlcl9ldmVudHNfbG9jYXRpb25cIixcImFyZ3NcIjpcIjExMTI3NjYxNTU2MTg0OFwifSJ9"
  },
  {
    "id": 9672,
    "name": "Nassandres sur Risle",
    "state_id": 26,
    "postal_code": "27170",
    "state_name": "Eure",
    "query": ""
  },
  {
    "id": 9673,
    "name": "Neaufles-Saint-Martin",
    "state_id": 26,
    "postal_code": "27830",
    "state_name": "Eure",
    "query": "https://www.facebook.com/events/search?q=Classics&sde=Abq6hpNmijm8kReC4KYmmDP0NuT4IxNliFRnd3vuRZUj8uh4BsVIK3dVq186DripYNQbuwiy5LR0V3y0W_iqLV_W&filters=eyJycF9ldmVudHNfbG9jYXRpb246MCI6IntcIm5hbWVcIjpcImZpbHRlcl9ldmVudHNfbG9jYXRpb25cIixcImFyZ3NcIjpcIjExNTc4MTU3MTc3MTM5NFwifSJ9"
  },
  {
    "id": 9674,
    "name": "Neaufles-Auvergny",
    "state_id": 26,
    "postal_code": "27250",
    "state_name": "Eure",
    "query": ""
  },
  {
    "id": 9675,
    "name": "Le Neubourg",
    "state_id": 26,
    "postal_code": "27110",
    "state_name": "Eure",
    "query": "https://www.facebook.com/events/search?q=Classics&sde=Abq6hpNmijm8kReC4KYmmDP0NuT4IxNliFRnd3vuRZUj8uh4BsVIK3dVq186DripYNQbuwiy5LR0V3y0W_iqLV_W&filters=eyJycF9ldmVudHNfbG9jYXRpb246MCI6IntcIm5hbWVcIjpcImZpbHRlcl9ldmVudHNfbG9jYXRpb25cIixcImFyZ3NcIjpcIjEwNzI3ODgxMjY0MzgxMVwifSJ9"
  },
  {
    "id": 9676,
    "name": "Neuilly",
    "state_id": 26,
    "postal_code": "27730",
    "state_name": "Eure",
    "query": "https://www.facebook.com/events/search?q=Classics&sde=Abq6hpNmijm8kReC4KYmmDP0NuT4IxNliFRnd3vuRZUj8uh4BsVIK3dVq186DripYNQbuwiy5LR0V3y0W_iqLV_W&filters=eyJycF9ldmVudHNfbG9jYXRpb246MCI6IntcIm5hbWVcIjpcImZpbHRlcl9ldmVudHNfbG9jYXRpb25cIixcImFyZ3NcIjpcIjExNDU1OTA4NTIyMzQ5OVwifSJ9"
  },
  {
    "id": 9677,
    "name": "La Neuve-Grange",
    "state_id": 26,
    "postal_code": "27150",
    "state_name": "Eure",
    "query": "https://www.facebook.com/events/search?q=Classics&sde=Abq6hpNmijm8kReC4KYmmDP0NuT4IxNliFRnd3vuRZUj8uh4BsVIK3dVq186DripYNQbuwiy5LR0V3y0W_iqLV_W&filters=eyJycF9ldmVudHNfbG9jYXRpb246MCI6IntcIm5hbWVcIjpcImZpbHRlcl9ldmVudHNfbG9jYXRpb25cIixcImFyZ3NcIjpcIjExNjE1NDE5NTA2MzYwNlwifSJ9"
  },
  {
    "id": 9678,
    "name": "La Neuve-Lyre",
    "state_id": 26,
    "postal_code": "27330",
    "state_name": "Eure",
    "query": "https://www.facebook.com/events/search?q=Classics&sde=Abq6hpNmijm8kReC4KYmmDP0NuT4IxNliFRnd3vuRZUj8uh4BsVIK3dVq186DripYNQbuwiy5LR0V3y0W_iqLV_W&filters=eyJycF9ldmVudHNfbG9jYXRpb246MCI6IntcIm5hbWVcIjpcImZpbHRlcl9ldmVudHNfbG9jYXRpb25cIixcImFyZ3NcIjpcIjExMTUyNzk5MjIwODAzMFwifSJ9"
  },
  {
    "id": 9679,
    "name": "La Neuville-du-Bosc",
    "state_id": 26,
    "postal_code": "27890",
    "state_name": "Eure",
    "query": "https://www.facebook.com/events/search?q=Classics&sde=Abq6hpNmijm8kReC4KYmmDP0NuT4IxNliFRnd3vuRZUj8uh4BsVIK3dVq186DripYNQbuwiy5LR0V3y0W_iqLV_W&filters=eyJycF9ldmVudHNfbG9jYXRpb246MCI6IntcIm5hbWVcIjpcImZpbHRlcl9ldmVudHNfbG9jYXRpb25cIixcImFyZ3NcIjpcIjExNTc1MjI1MTc2OTYwOVwifSJ9"
  },
  {
    "id": 9680,
    "name": "Neuville-sur-Authou",
    "state_id": 26,
    "postal_code": "27800",
    "state_name": "Eure",
    "query": ""
  },
  {
    "id": 9681,
    "name": "Noards",
    "state_id": 26,
    "postal_code": "27560",
    "state_name": "Eure",
    "query": ""
  },
  {
    "id": 9682,
    "name": "La Noë-Poulain",
    "state_id": 26,
    "postal_code": "27560",
    "state_name": "Eure",
    "query": ""
  },
  {
    "id": 9683,
    "name": "Nogent-le-Sec",
    "state_id": 26,
    "postal_code": "27190",
    "state_name": "Eure",
    "query": "https://www.facebook.com/events/search?q=Classics&sde=Abq6hpNmijm8kReC4KYmmDP0NuT4IxNliFRnd3vuRZUj8uh4BsVIK3dVq186DripYNQbuwiy5LR0V3y0W_iqLV_W&filters=eyJycF9ldmVudHNfbG9jYXRpb246MCI6IntcIm5hbWVcIjpcImZpbHRlcl9ldmVudHNfbG9jYXRpb25cIixcImFyZ3NcIjpcIjExMTQzNDUwNTU0NDI4MlwifSJ9"
  },
  {
    "id": 9684,
    "name": "Nojeon-en-Vexin",
    "state_id": 26,
    "postal_code": "27150",
    "state_name": "Eure",
    "query": ""
  },
  {
    "id": 9685,
    "name": "Nonancourt",
    "state_id": 26,
    "postal_code": "27320",
    "state_name": "Eure",
    "query": "https://www.facebook.com/events/search?q=Classics&sde=Abq6hpNmijm8kReC4KYmmDP0NuT4IxNliFRnd3vuRZUj8uh4BsVIK3dVq186DripYNQbuwiy5LR0V3y0W_iqLV_W&filters=eyJycF9ldmVudHNfbG9jYXRpb246MCI6IntcIm5hbWVcIjpcImZpbHRlcl9ldmVudHNfbG9jYXRpb25cIixcImFyZ3NcIjpcIjExMTAzOTUwODkxODg2NFwifSJ9"
  },
  {
    "id": 9686,
    "name": "Normanville",
    "state_id": 26,
    "postal_code": "27930",
    "state_name": "Eure",
    "query": "https://www.facebook.com/events/search?q=Classics&sde=Abq6hpNmijm8kReC4KYmmDP0NuT4IxNliFRnd3vuRZUj8uh4BsVIK3dVq186DripYNQbuwiy5LR0V3y0W_iqLV_W&filters=eyJycF9ldmVudHNfbG9jYXRpb246MCI6IntcIm5hbWVcIjpcImZpbHRlcl9ldmVudHNfbG9jYXRpb25cIixcImFyZ3NcIjpcIjEwOTk3Mzk0OTAyMTYxMlwifSJ9"
  },
  {
    "id": 9687,
    "name": "Notre-Dame-de-l'Isle",
    "state_id": 26,
    "postal_code": "27940",
    "state_name": "Eure",
    "query": "https://www.facebook.com/events/search?q=Classics&sde=Abq6hpNmijm8kReC4KYmmDP0NuT4IxNliFRnd3vuRZUj8uh4BsVIK3dVq186DripYNQbuwiy5LR0V3y0W_iqLV_W&filters=eyJycF9ldmVudHNfbG9jYXRpb246MCI6IntcIm5hbWVcIjpcImZpbHRlcl9ldmVudHNfbG9jYXRpb25cIixcImFyZ3NcIjpcIjExMTIzMjA2NTU3Mjc5OFwifSJ9"
  },
  {
    "id": 9688,
    "name": "Notre-Dame-d'Épine",
    "state_id": 26,
    "postal_code": "27800",
    "state_name": "Eure",
    "query": ""
  },
  {
    "id": 9689,
    "name": "Notre-Dame-du-Hamel",
    "state_id": 26,
    "postal_code": "27390",
    "state_name": "Eure",
    "query": "https://www.facebook.com/events/search?q=Classics&sde=Abq6hpNmijm8kReC4KYmmDP0NuT4IxNliFRnd3vuRZUj8uh4BsVIK3dVq186DripYNQbuwiy5LR0V3y0W_iqLV_W&filters=eyJycF9ldmVudHNfbG9jYXRpb246MCI6IntcIm5hbWVcIjpcImZpbHRlcl9ldmVudHNfbG9jYXRpb25cIixcImFyZ3NcIjpcIjExMzI1NjA0MjAzNDA3MFwifSJ9"
  },
  {
    "id": 9690,
    "name": "Le Noyer-en-Ouche",
    "state_id": 26,
    "postal_code": "27410",
    "state_name": "Eure",
    "query": "https://www.facebook.com/events/search?q=Classics&sde=Abq6hpNmijm8kReC4KYmmDP0NuT4IxNliFRnd3vuRZUj8uh4BsVIK3dVq186DripYNQbuwiy5LR0V3y0W_iqLV_W&filters=eyJycF9ldmVudHNfbG9jYXRpb246MCI6IntcIm5hbWVcIjpcImZpbHRlcl9ldmVudHNfbG9jYXRpb25cIixcImFyZ3NcIjpcIjExMzI5Nzg5ODY5NjU5M1wifSJ9"
  },
  {
    "id": 9691,
    "name": "Noyers",
    "state_id": 26,
    "postal_code": "27720",
    "state_name": "Eure",
    "query": "https://www.facebook.com/events/search?q=Classics&sde=Abq6hpNmijm8kReC4KYmmDP0NuT4IxNliFRnd3vuRZUj8uh4BsVIK3dVq186DripYNQbuwiy5LR0V3y0W_iqLV_W&filters=eyJycF9ldmVudHNfbG9jYXRpb246MCI6IntcIm5hbWVcIjpcImZpbHRlcl9ldmVudHNfbG9jYXRpb25cIixcImFyZ3NcIjpcIjExMjk0MTI0NTM5MDIwNVwifSJ9"
  },
  {
    "id": 9692,
    "name": "Ormes",
    "state_id": 26,
    "postal_code": "27190",
    "state_name": "Eure",
    "query": "https://www.facebook.com/events/search?q=Classics&sde=Abq6hpNmijm8kReC4KYmmDP0NuT4IxNliFRnd3vuRZUj8uh4BsVIK3dVq186DripYNQbuwiy5LR0V3y0W_iqLV_W&filters=eyJycF9ldmVudHNfbG9jYXRpb246MCI6IntcIm5hbWVcIjpcImZpbHRlcl9ldmVudHNfbG9jYXRpb25cIixcImFyZ3NcIjpcIjExMDU2NzcyMjMwMzU2MVwifSJ9"
  },
  {
    "id": 9693,
    "name": "Le Val-Doré",
    "state_id": 26,
    "postal_code": "27190",
    "state_name": "Eure",
    "query": ""
  },
  {
    "id": 9694,
    "name": "Pacy-sur-Eure",
    "state_id": 26,
    "postal_code": "27120",
    "state_name": "Eure",
    "query": "https://www.facebook.com/events/search?q=Classics&sde=Abq6hpNmijm8kReC4KYmmDP0NuT4IxNliFRnd3vuRZUj8uh4BsVIK3dVq186DripYNQbuwiy5LR0V3y0W_iqLV_W&filters=eyJycF9ldmVudHNfbG9jYXRpb246MCI6IntcIm5hbWVcIjpcImZpbHRlcl9ldmVudHNfbG9jYXRpb25cIixcImFyZ3NcIjpcIjExNjAwMjM3NTA3Nzk5MFwifSJ9"
  },
  {
    "id": 9695,
    "name": "Parville",
    "state_id": 26,
    "postal_code": "27180",
    "state_name": "Eure",
    "query": "https://www.facebook.com/events/search?q=Classics&sde=Abq6hpNmijm8kReC4KYmmDP0NuT4IxNliFRnd3vuRZUj8uh4BsVIK3dVq186DripYNQbuwiy5LR0V3y0W_iqLV_W&filters=eyJycF9ldmVudHNfbG9jYXRpb246MCI6IntcIm5hbWVcIjpcImZpbHRlcl9ldmVudHNfbG9jYXRpb25cIixcImFyZ3NcIjpcIjExNTQ3MzE3ODQ2NDY1M1wifSJ9"
  },
  {
    "id": 9696,
    "name": "Perriers-sur-Andelle",
    "state_id": 26,
    "postal_code": "27910",
    "state_name": "Eure",
    "query": "https://www.facebook.com/events/search?q=Classics&sde=Abq6hpNmijm8kReC4KYmmDP0NuT4IxNliFRnd3vuRZUj8uh4BsVIK3dVq186DripYNQbuwiy5LR0V3y0W_iqLV_W&filters=eyJycF9ldmVudHNfbG9jYXRpb246MCI6IntcIm5hbWVcIjpcImZpbHRlcl9ldmVudHNfbG9jYXRpb25cIixcImFyZ3NcIjpcIjEwNzQ1OTE1MjYyMzQ0MlwifSJ9"
  },
  {
    "id": 9697,
    "name": "Perruel",
    "state_id": 26,
    "postal_code": "27910",
    "state_name": "Eure",
    "query": "https://www.facebook.com/events/search?q=Classics&sde=Abq6hpNmijm8kReC4KYmmDP0NuT4IxNliFRnd3vuRZUj8uh4BsVIK3dVq186DripYNQbuwiy5LR0V3y0W_iqLV_W&filters=eyJycF9ldmVudHNfbG9jYXRpb246MCI6IntcIm5hbWVcIjpcImZpbHRlcl9ldmVudHNfbG9jYXRpb25cIixcImFyZ3NcIjpcIjExMTE0NTkzNTU3NTAzOVwifSJ9"
  },
  {
    "id": 9698,
    "name": "Piencourt",
    "state_id": 26,
    "postal_code": "27230",
    "state_name": "Eure",
    "query": "https://www.facebook.com/events/search?q=Classics&sde=Abq6hpNmijm8kReC4KYmmDP0NuT4IxNliFRnd3vuRZUj8uh4BsVIK3dVq186DripYNQbuwiy5LR0V3y0W_iqLV_W&filters=eyJycF9ldmVudHNfbG9jYXRpb246MCI6IntcIm5hbWVcIjpcImZpbHRlcl9ldmVudHNfbG9jYXRpb25cIixcImFyZ3NcIjpcIjExNTk2NjUxNTA4MTY4M1wifSJ9"
  },
  {
    "id": 9699,
    "name": "Pinterville",
    "state_id": 26,
    "postal_code": "27400",
    "state_name": "Eure",
    "query": "https://www.facebook.com/events/search?q=Classics&sde=Abq6hpNmijm8kReC4KYmmDP0NuT4IxNliFRnd3vuRZUj8uh4BsVIK3dVq186DripYNQbuwiy5LR0V3y0W_iqLV_W&filters=eyJycF9ldmVudHNfbG9jYXRpb246MCI6IntcIm5hbWVcIjpcImZpbHRlcl9ldmVudHNfbG9jYXRpb25cIixcImFyZ3NcIjpcIjEwOTEzMDAwOTEyMTU3OFwifSJ9"
  },
  {
    "id": 9700,
    "name": "Piseux",
    "state_id": 26,
    "postal_code": "27130",
    "state_name": "Eure",
    "query": "https://www.facebook.com/events/search?q=Classics&sde=Abq6hpNmijm8kReC4KYmmDP0NuT4IxNliFRnd3vuRZUj8uh4BsVIK3dVq186DripYNQbuwiy5LR0V3y0W_iqLV_W&filters=eyJycF9ldmVudHNfbG9jYXRpb246MCI6IntcIm5hbWVcIjpcImZpbHRlcl9ldmVudHNfbG9jYXRpb25cIixcImFyZ3NcIjpcIjExMTIxMjg3ODg5OTcwNFwifSJ9"
  },
  {
    "id": 9701,
    "name": "Pîtres",
    "state_id": 26,
    "postal_code": "27590",
    "state_name": "Eure",
    "query": "https://www.facebook.com/events/search?q=Classics&sde=Abq6hpNmijm8kReC4KYmmDP0NuT4IxNliFRnd3vuRZUj8uh4BsVIK3dVq186DripYNQbuwiy5LR0V3y0W_iqLV_W&filters=eyJycF9ldmVudHNfbG9jYXRpb246MCI6IntcIm5hbWVcIjpcImZpbHRlcl9ldmVudHNfbG9jYXRpb25cIixcImFyZ3NcIjpcIjEwODA0MTk4MjU2MTk5NVwifSJ9"
  },
  {
    "id": 9702,
    "name": "Les Places",
    "state_id": 26,
    "postal_code": "27230",
    "state_name": "Eure",
    "query": "https://www.facebook.com/events/search?q=Classics&sde=Abq6hpNmijm8kReC4KYmmDP0NuT4IxNliFRnd3vuRZUj8uh4BsVIK3dVq186DripYNQbuwiy5LR0V3y0W_iqLV_W&filters=eyJycF9ldmVudHNfbG9jYXRpb246MCI6IntcIm5hbWVcIjpcImZpbHRlcl9ldmVudHNfbG9jYXRpb25cIixcImFyZ3NcIjpcIjEwOTQ2NTM5MjQxMjgxNFwifSJ9"
  },
  {
    "id": 9703,
    "name": "Plainville",
    "state_id": 26,
    "postal_code": "27300",
    "state_name": "Eure",
    "query": ""
  },
  {
    "id": 9704,
    "name": "Le Planquay",
    "state_id": 26,
    "postal_code": "27230",
    "state_name": "Eure",
    "query": "https://www.facebook.com/events/search?q=Classics&sde=Abq6hpNmijm8kReC4KYmmDP0NuT4IxNliFRnd3vuRZUj8uh4BsVIK3dVq186DripYNQbuwiy5LR0V3y0W_iqLV_W&filters=eyJycF9ldmVudHNfbG9jYXRpb246MCI6IntcIm5hbWVcIjpcImZpbHRlcl9ldmVudHNfbG9jYXRpb25cIixcImFyZ3NcIjpcIjEwNjk1ODU0NjAxMTEzOVwifSJ9"
  },
  {
    "id": 9705,
    "name": "Plasnes",
    "state_id": 26,
    "postal_code": "27300",
    "state_name": "Eure",
    "query": ""
  },
  {
    "id": 9706,
    "name": "Le Plessis-Grohan",
    "state_id": 26,
    "postal_code": "27180",
    "state_name": "Eure",
    "query": "https://www.facebook.com/events/search/?q=Classics&sde=Abq6hpNmijm8kReC4KYmmDP0NuT4IxNliFRnd3vuRZUj8uh4BsVIK3dVq186DripYNQbuwiy5LR0V3y0W_iqLV_W&filters=eyJycF9ldmVudHNfbG9jYXRpb246MCI6IntcIm5hbWVcIjpcImZpbHRlcl9ldmVudHNfbG9jYXRpb25cIixcImFyZ3NcIjpcIjExMTQyOTY2ODg3NzkzOFwifSJ9"
  },
  {
    "id": 9707,
    "name": "Le Plessis-Hébert",
    "state_id": 26,
    "postal_code": "27120",
    "state_name": "Eure",
    "query": "https://www.facebook.com/events/search?q=Classics&sde=Abq6hpNmijm8kReC4KYmmDP0NuT4IxNliFRnd3vuRZUj8uh4BsVIK3dVq186DripYNQbuwiy5LR0V3y0W_iqLV_W&filters=eyJycF9ldmVudHNfbG9jYXRpb246MCI6IntcIm5hbWVcIjpcImZpbHRlcl9ldmVudHNfbG9jYXRpb25cIixcImFyZ3NcIjpcIjEwOTYyNTY3MjQwMjEyMVwifSJ9"
  },
  {
    "id": 9708,
    "name": "Le Plessis-Sainte-Opportune",
    "state_id": 26,
    "postal_code": "27170",
    "state_name": "Eure",
    "query": "https://www.facebook.com/events/search?q=Classics&sde=Abq6hpNmijm8kReC4KYmmDP0NuT4IxNliFRnd3vuRZUj8uh4BsVIK3dVq186DripYNQbuwiy5LR0V3y0W_iqLV_W&filters=eyJycF9ldmVudHNfbG9jYXRpb246MCI6IntcIm5hbWVcIjpcImZpbHRlcl9ldmVudHNfbG9jYXRpb25cIixcImFyZ3NcIjpcIjExMzExOTU4NTM4MTUyNlwifSJ9"
  },
  {
    "id": 9709,
    "name": "Pont-Audemer",
    "state_id": 26,
    "postal_code": "27500",
    "state_name": "Eure",
    "query": "https://www.facebook.com/events/search?q=Classics&sde=Abq6hpNmijm8kReC4KYmmDP0NuT4IxNliFRnd3vuRZUj8uh4BsVIK3dVq186DripYNQbuwiy5LR0V3y0W_iqLV_W&filters=eyJycF9ldmVudHNfbG9jYXRpb246MCI6IntcIm5hbWVcIjpcImZpbHRlcl9ldmVudHNfbG9jYXRpb25cIixcImFyZ3NcIjpcIjExMjc2NzYzNTQwNDgxMFwifSJ9"
  },
  {
    "id": 9710,
    "name": "Pont-Authou",
    "state_id": 26,
    "postal_code": "27290",
    "state_name": "Eure",
    "query": "https://www.facebook.com/events/search?q=Classics&sde=Abq6hpNmijm8kReC4KYmmDP0NuT4IxNliFRnd3vuRZUj8uh4BsVIK3dVq186DripYNQbuwiy5LR0V3y0W_iqLV_W&filters=eyJycF9ldmVudHNfbG9jYXRpb246MCI6IntcIm5hbWVcIjpcImZpbHRlcl9ldmVudHNfbG9jYXRpb25cIixcImFyZ3NcIjpcIjExNjA3NzQ1MTczNjkzNVwifSJ9"
  },
  {
    "id": 9711,
    "name": "Pont-de-l'Arche",
    "state_id": 26,
    "postal_code": "27340",
    "state_name": "Eure",
    "query": "https://www.facebook.com/events/search?q=Classics&sde=Abq6hpNmijm8kReC4KYmmDP0NuT4IxNliFRnd3vuRZUj8uh4BsVIK3dVq186DripYNQbuwiy5LR0V3y0W_iqLV_W&filters=eyJycF9ldmVudHNfbG9jYXRpb246MCI6IntcIm5hbWVcIjpcImZpbHRlcl9ldmVudHNfbG9jYXRpb25cIixcImFyZ3NcIjpcIjExNTQxNzQ5MTgwODE2MFwifSJ9"
  },
  {
    "id": 9712,
    "name": "Pont-Saint-Pierre",
    "state_id": 26,
    "postal_code": "27360",
    "state_name": "Eure",
    "query": "https://www.facebook.com/events/search?q=Classics&sde=Abq6hpNmijm8kReC4KYmmDP0NuT4IxNliFRnd3vuRZUj8uh4BsVIK3dVq186DripYNQbuwiy5LR0V3y0W_iqLV_W&filters=eyJycF9ldmVudHNfbG9jYXRpb246MCI6IntcIm5hbWVcIjpcImZpbHRlcl9ldmVudHNfbG9jYXRpb25cIixcImFyZ3NcIjpcIjEwNzMxNjk4MjYzOTMzNlwifSJ9"
  },
  {
    "id": 9713,
    "name": "Porte-de-Seine",
    "state_id": 26,
    "postal_code": "27100",
    "state_name": "Eure",
    "query": ""
  },
  {
    "id": 9714,
    "name": "Portes",
    "state_id": 26,
    "postal_code": "27190",
    "state_name": "Eure",
    "query": ""
  },
  {
    "id": 9715,
    "name": "Port-Mort",
    "state_id": 26,
    "postal_code": "27940",
    "state_name": "Eure",
    "query": "https://www.facebook.com/events/search?q=Classics&sde=Abq6hpNmijm8kReC4KYmmDP0NuT4IxNliFRnd3vuRZUj8uh4BsVIK3dVq186DripYNQbuwiy5LR0V3y0W_iqLV_W&filters=eyJycF9ldmVudHNfbG9jYXRpb246MCI6IntcIm5hbWVcIjpcImZpbHRlcl9ldmVudHNfbG9jYXRpb25cIixcImFyZ3NcIjpcIjExNzE2ODExODI5MzIyNVwifSJ9"
  },
  {
    "id": 9716,
    "name": "Poses",
    "state_id": 26,
    "postal_code": "27740",
    "state_name": "Eure",
    "query": "https://www.facebook.com/events/search?q=Classics&sde=Abq6hpNmijm8kReC4KYmmDP0NuT4IxNliFRnd3vuRZUj8uh4BsVIK3dVq186DripYNQbuwiy5LR0V3y0W_iqLV_W&filters=eyJycF9ldmVudHNfbG9jYXRpb246MCI6IntcIm5hbWVcIjpcImZpbHRlcl9ldmVudHNfbG9jYXRpb25cIixcImFyZ3NcIjpcIjExMTMwMDM0MjIzMzA5NVwifSJ9"
  },
  {
    "id": 9717,
    "name": "La Poterie-Mathieu",
    "state_id": 26,
    "postal_code": "27560",
    "state_name": "Eure",
    "query": ""
  },
  {
    "id": 9718,
    "name": "Les Préaux",
    "state_id": 26,
    "postal_code": "27500",
    "state_name": "Eure",
    "query": "https://www.facebook.com/events/search?q=Classics&sde=Abq6hpNmijm8kReC4KYmmDP0NuT4IxNliFRnd3vuRZUj8uh4BsVIK3dVq186DripYNQbuwiy5LR0V3y0W_iqLV_W&filters=eyJycF9ldmVudHNfbG9jYXRpb246MCI6IntcIm5hbWVcIjpcImZpbHRlcl9ldmVudHNfbG9jYXRpb25cIixcImFyZ3NcIjpcIjEwNTYyNTcyMjgwNDE2MVwifSJ9"
  },
  {
    "id": 9719,
    "name": "Pressagny-l'Orgueilleux",
    "state_id": 26,
    "postal_code": "27510",
    "state_name": "Eure",
    "query": ""
  },
  {
    "id": 9720,
    "name": "Prey",
    "state_id": 26,
    "postal_code": "27220",
    "state_name": "Eure",
    "query": ""
  },
  {
    "id": 9721,
    "name": "Puchay",
    "state_id": 26,
    "postal_code": "27150",
    "state_name": "Eure",
    "query": "https://www.facebook.com/events/search?q=Classics&sde=Abq6hpNmijm8kReC4KYmmDP0NuT4IxNliFRnd3vuRZUj8uh4BsVIK3dVq186DripYNQbuwiy5LR0V3y0W_iqLV_W&filters=eyJycF9ldmVudHNfbG9jYXRpb246MCI6IntcIm5hbWVcIjpcImZpbHRlcl9ldmVudHNfbG9jYXRpb25cIixcImFyZ3NcIjpcIjExMTM2Mjg0NTU1MjM5MFwifSJ9"
  },
  {
    "id": 9722,
    "name": "Pullay",
    "state_id": 26,
    "postal_code": "27130",
    "state_name": "Eure",
    "query": "https://www.facebook.com/events/search?q=Classics&sde=Abq6hpNmijm8kReC4KYmmDP0NuT4IxNliFRnd3vuRZUj8uh4BsVIK3dVq186DripYNQbuwiy5LR0V3y0W_iqLV_W&filters=eyJycF9ldmVudHNfbG9jYXRpb246MCI6IntcIm5hbWVcIjpcImZpbHRlcl9ldmVudHNfbG9jYXRpb25cIixcImFyZ3NcIjpcIjExMzM2MTIxMjAwODc4N1wifSJ9"
  },
  {
    "id": 9723,
    "name": "La Pyle",
    "state_id": 26,
    "postal_code": "27370",
    "state_name": "Eure",
    "query": ""
  },
  {
    "id": 9724,
    "name": "Quatremare",
    "state_id": 26,
    "postal_code": "27400",
    "state_name": "Eure",
    "query": "https://www.facebook.com/events/search?q=Classics&sde=Abq6hpNmijm8kReC4KYmmDP0NuT4IxNliFRnd3vuRZUj8uh4BsVIK3dVq186DripYNQbuwiy5LR0V3y0W_iqLV_W&filters=eyJycF9ldmVudHNfbG9jYXRpb246MCI6IntcIm5hbWVcIjpcImZpbHRlcl9ldmVudHNfbG9jYXRpb25cIixcImFyZ3NcIjpcIjEwODkyNjA2NTgwNjg3OFwifSJ9"
  },
  {
    "id": 9725,
    "name": "Quillebeuf-sur-Seine",
    "state_id": 26,
    "postal_code": "27680",
    "state_name": "Eure",
    "query": "https://www.facebook.com/events/search?q=Classics&sde=Abq6hpNmijm8kReC4KYmmDP0NuT4IxNliFRnd3vuRZUj8uh4BsVIK3dVq186DripYNQbuwiy5LR0V3y0W_iqLV_W&filters=eyJycF9ldmVudHNfbG9jYXRpb246MCI6IntcIm5hbWVcIjpcImZpbHRlcl9ldmVudHNfbG9jYXRpb25cIixcImFyZ3NcIjpcIjEwOTUwNDAzNTc0NjU4OFwifSJ9"
  },
  {
    "id": 9726,
    "name": "Quittebeuf",
    "state_id": 26,
    "postal_code": "27110",
    "state_name": "Eure",
    "query": "https://www.facebook.com/events/search?q=Classics&sde=Abq6hpNmijm8kReC4KYmmDP0NuT4IxNliFRnd3vuRZUj8uh4BsVIK3dVq186DripYNQbuwiy5LR0V3y0W_iqLV_W&filters=eyJycF9ldmVudHNfbG9jYXRpb246MCI6IntcIm5hbWVcIjpcImZpbHRlcl9ldmVudHNfbG9jYXRpb25cIixcImFyZ3NcIjpcIjExMjgyNzY0ODczNTM1OVwifSJ9"
  },
  {
    "id": 9727,
    "name": "Radepont",
    "state_id": 26,
    "postal_code": "27380",
    "state_name": "Eure",
    "query": "https://www.facebook.com/events/search?q=Classics&sde=Abq6hpNmijm8kReC4KYmmDP0NuT4IxNliFRnd3vuRZUj8uh4BsVIK3dVq186DripYNQbuwiy5LR0V3y0W_iqLV_W&filters=eyJycF9ldmVudHNfbG9jYXRpb246MCI6IntcIm5hbWVcIjpcImZpbHRlcl9ldmVudHNfbG9jYXRpb25cIixcImFyZ3NcIjpcIjEwNzM3OTAyMjYzMjU3MFwifSJ9"
  },
  {
    "id": 9728,
    "name": "Renneville",
    "state_id": 26,
    "postal_code": "27910",
    "state_name": "Eure",
    "query": ""
  },
  {
    "id": 9729,
    "name": "Reuilly",
    "state_id": 26,
    "postal_code": "27930",
    "state_name": "Eure",
    "query": "https://www.facebook.com/events/search?q=Classics&sde=Abq6hpNmijm8kReC4KYmmDP0NuT4IxNliFRnd3vuRZUj8uh4BsVIK3dVq186DripYNQbuwiy5LR0V3y0W_iqLV_W&filters=eyJycF9ldmVudHNfbG9jYXRpb246MCI6IntcIm5hbWVcIjpcImZpbHRlcl9ldmVudHNfbG9jYXRpb25cIixcImFyZ3NcIjpcIjEwNDM0NTM5NjI3MTY1NVwifSJ9"
  },
  {
    "id": 9730,
    "name": "Richeville",
    "state_id": 26,
    "postal_code": "27420",
    "state_name": "Eure",
    "query": ""
  },
  {
    "id": 9731,
    "name": "Romilly-la-Puthenaye",
    "state_id": 26,
    "postal_code": "27170",
    "state_name": "Eure",
    "query": "https://www.facebook.com/events/search?q=Classics&sde=Abq6hpNmijm8kReC4KYmmDP0NuT4IxNliFRnd3vuRZUj8uh4BsVIK3dVq186DripYNQbuwiy5LR0V3y0W_iqLV_W&filters=eyJycF9ldmVudHNfbG9jYXRpb246MCI6IntcIm5hbWVcIjpcImZpbHRlcl9ldmVudHNfbG9jYXRpb25cIixcImFyZ3NcIjpcIjExMjg1MjMxMjA2NzA2NFwifSJ9"
  },
  {
    "id": 9732,
    "name": "Romilly-sur-Andelle",
    "state_id": 26,
    "postal_code": "27610",
    "state_name": "Eure",
    "query": "https://www.facebook.com/events/search?q=Classics&sde=Abq6hpNmijm8kReC4KYmmDP0NuT4IxNliFRnd3vuRZUj8uh4BsVIK3dVq186DripYNQbuwiy5LR0V3y0W_iqLV_W&filters=eyJycF9ldmVudHNfbG9jYXRpb246MCI6IntcIm5hbWVcIjpcImZpbHRlcl9ldmVudHNfbG9jYXRpb25cIixcImFyZ3NcIjpcIjExMjE5MjU5NTQ3Mjc5NlwifSJ9"
  },
  {
    "id": 9733,
    "name": "La Roquette",
    "state_id": 26,
    "postal_code": "27700",
    "state_name": "Eure",
    "query": "https://www.facebook.com/events/search?q=Classics&sde=Abq6hpNmijm8kReC4KYmmDP0NuT4IxNliFRnd3vuRZUj8uh4BsVIK3dVq186DripYNQbuwiy5LR0V3y0W_iqLV_W&filters=eyJycF9ldmVudHNfbG9jYXRpb246MCI6IntcIm5hbWVcIjpcImZpbHRlcl9ldmVudHNfbG9jYXRpb25cIixcImFyZ3NcIjpcIjEwNDA0Nzc2Mjk2NjI2MFwifSJ9"
  },
  {
    "id": 9734,
    "name": "Rosay-sur-Lieure",
    "state_id": 26,
    "postal_code": "27790",
    "state_name": "Eure",
    "query": "https://www.facebook.com/events/search?q=Classics&sde=Abq6hpNmijm8kReC4KYmmDP0NuT4IxNliFRnd3vuRZUj8uh4BsVIK3dVq186DripYNQbuwiy5LR0V3y0W_iqLV_W&filters=eyJycF9ldmVudHNfbG9jYXRpb246MCI6IntcIm5hbWVcIjpcImZpbHRlcl9ldmVudHNfbG9jYXRpb25cIixcImFyZ3NcIjpcIjExNjEyMDI3ODM5OTkwOVwifSJ9"
  },
  {
    "id": 9735,
    "name": "Rougemontiers",
    "state_id": 26,
    "postal_code": "27350",
    "state_name": "Eure",
    "query": ""
  },
  {
    "id": 9736,
    "name": "Rouge-Perriers",
    "state_id": 26,
    "postal_code": "27110",
    "state_name": "Eure",
    "query": ""
  },
  {
    "id": 9737,
    "name": "Routot",
    "state_id": 26,
    "postal_code": "27350",
    "state_name": "Eure",
    "query": "https://www.facebook.com/events/search?q=Classics&sde=Abq6hpNmijm8kReC4KYmmDP0NuT4IxNliFRnd3vuRZUj8uh4BsVIK3dVq186DripYNQbuwiy5LR0V3y0W_iqLV_W&filters=eyJycF9ldmVudHNfbG9jYXRpb246MCI6IntcIm5hbWVcIjpcImZpbHRlcl9ldmVudHNfbG9jYXRpb25cIixcImFyZ3NcIjpcIjEwNzMzNDIzOTMwMzgyNVwifSJ9"
  },
  {
    "id": 9738,
    "name": "Rouvray",
    "state_id": 26,
    "postal_code": "27120",
    "state_name": "Eure",
    "query": "https://www.facebook.com/events/search?q=Classics&sde=Abq6hpNmijm8kReC4KYmmDP0NuT4IxNliFRnd3vuRZUj8uh4BsVIK3dVq186DripYNQbuwiy5LR0V3y0W_iqLV_W&filters=eyJycF9ldmVudHNfbG9jYXRpb246MCI6IntcIm5hbWVcIjpcImZpbHRlcl9ldmVudHNfbG9jYXRpb25cIixcImFyZ3NcIjpcIjExMjk2NTc5NTM4NTk2M1wifSJ9"
  },
  {
    "id": 9739,
    "name": "Rugles",
    "state_id": 26,
    "postal_code": "27250",
    "state_name": "Eure",
    "query": "https://www.facebook.com/events/search?q=Classics&sde=Abq6hpNmijm8kReC4KYmmDP0NuT4IxNliFRnd3vuRZUj8uh4BsVIK3dVq186DripYNQbuwiy5LR0V3y0W_iqLV_W&filters=eyJycF9ldmVudHNfbG9jYXRpb246MCI6IntcIm5hbWVcIjpcImZpbHRlcl9ldmVudHNfbG9jYXRpb25cIixcImFyZ3NcIjpcIjExMjg3MjU2NTM5ODI4MVwifSJ9"
  },
  {
    "id": 9740,
    "name": "Sacquenville",
    "state_id": 26,
    "postal_code": "27930",
    "state_name": "Eure",
    "query": "https://www.facebook.com/events/search?q=Classics&sde=Abq6hpNmijm8kReC4KYmmDP0NuT4IxNliFRnd3vuRZUj8uh4BsVIK3dVq186DripYNQbuwiy5LR0V3y0W_iqLV_W&filters=eyJycF9ldmVudHNfbG9jYXRpb246MCI6IntcIm5hbWVcIjpcImZpbHRlcl9ldmVudHNfbG9jYXRpb25cIixcImFyZ3NcIjpcIjExMDk5Nzg4MjI1Njk4NFwifSJ9"
  },
  {
    "id": 9741,
    "name": "Saint-Agnan-de-Cernières",
    "state_id": 26,
    "postal_code": "27390",
    "state_name": "Eure",
    "query": ""
  },
  {
    "id": 9742,
    "name": "Saint-André-de-l'Eure",
    "state_id": 26,
    "postal_code": "27220",
    "state_name": "Eure",
    "query": "https://www.facebook.com/events/search?q=Classics&sde=Abq6hpNmijm8kReC4KYmmDP0NuT4IxNliFRnd3vuRZUj8uh4BsVIK3dVq186DripYNQbuwiy5LR0V3y0W_iqLV_W&filters=eyJycF9ldmVudHNfbG9jYXRpb246MCI6IntcIm5hbWVcIjpcImZpbHRlcl9ldmVudHNfbG9jYXRpb25cIixcImFyZ3NcIjpcIjEwNTQzOTA1MjgyMzEyMlwifSJ9"
  },
  {
    "id": 9743,
    "name": "Saint-Antonin-de-Sommaire",
    "state_id": 26,
    "postal_code": "27250",
    "state_name": "Eure",
    "query": ""
  },
  {
    "id": 9744,
    "name": "Saint-Aubin-d'Écrosville",
    "state_id": 26,
    "postal_code": "27110",
    "state_name": "Eure",
    "query": "https://www.facebook.com/events/search?q=Classics&sde=Abq6hpNmijm8kReC4KYmmDP0NuT4IxNliFRnd3vuRZUj8uh4BsVIK3dVq186DripYNQbuwiy5LR0V3y0W_iqLV_W&filters=eyJycF9ldmVudHNfbG9jYXRpb246MCI6IntcIm5hbWVcIjpcImZpbHRlcl9ldmVudHNfbG9jYXRpb25cIixcImFyZ3NcIjpcIjEwODQ3NzQwNTg0MzgxM1wifSJ9"
  },
  {
    "id": 9745,
    "name": "Saint-Aubin-de-Scellon",
    "state_id": 26,
    "postal_code": "27230",
    "state_name": "Eure",
    "query": ""
  },
  {
    "id": 9746,
    "name": "Saint-Aubin-du-Thenney",
    "state_id": 26,
    "postal_code": "27270",
    "state_name": "Eure",
    "query": "https://www.facebook.com/events/search?q=Classics&sde=Abq6hpNmijm8kReC4KYmmDP0NuT4IxNliFRnd3vuRZUj8uh4BsVIK3dVq186DripYNQbuwiy5LR0V3y0W_iqLV_W&filters=eyJycF9ldmVudHNfbG9jYXRpb246MCI6IntcIm5hbWVcIjpcImZpbHRlcl9ldmVudHNfbG9jYXRpb25cIixcImFyZ3NcIjpcIjEwODA0ODUzMjU1NTk2NlwifSJ9"
  },
  {
    "id": 9747,
    "name": "Treis-Sants-en-Ouche",
    "state_id": 26,
    "postal_code": "27270",
    "state_name": "Eure",
    "query": ""
  },
  {
    "id": 9748,
    "name": "Saint-Aubin-sur-Gaillon",
    "state_id": 26,
    "postal_code": "27600",
    "state_name": "Eure",
    "query": "https://www.facebook.com/events/search?q=Classics&sde=Abq6hpNmijm8kReC4KYmmDP0NuT4IxNliFRnd3vuRZUj8uh4BsVIK3dVq186DripYNQbuwiy5LR0V3y0W_iqLV_W&filters=eyJycF9ldmVudHNfbG9jYXRpb246MCI6IntcIm5hbWVcIjpcImZpbHRlcl9ldmVudHNfbG9jYXRpb25cIixcImFyZ3NcIjpcIjExMzQzOTQ1MjAwMDExMVwifSJ9"
  },
  {
    "id": 9749,
    "name": "Saint-Aubin-sur-Quillebeuf",
    "state_id": 26,
    "postal_code": "27680",
    "state_name": "Eure",
    "query": "https://www.facebook.com/events/search?q=Classics&sde=Abq6hpNmijm8kReC4KYmmDP0NuT4IxNliFRnd3vuRZUj8uh4BsVIK3dVq186DripYNQbuwiy5LR0V3y0W_iqLV_W&filters=eyJycF9ldmVudHNfbG9jYXRpb246MCI6IntcIm5hbWVcIjpcImZpbHRlcl9ldmVudHNfbG9jYXRpb25cIixcImFyZ3NcIjpcIjEwNTYwMDc5NjE0MDY0NlwifSJ9"
  },
  {
    "id": 9750,
    "name": "Saint-Benoît-des-Ombres",
    "state_id": 26,
    "postal_code": "27450",
    "state_name": "Eure",
    "query": ""
  },
  {
    "id": 9751,
    "name": "Saint-Christophe-sur-Avre",
    "state_id": 26,
    "postal_code": "27820",
    "state_name": "Eure",
    "query": ""
  },
  {
    "id": 9752,
    "name": "Saint-Christophe-sur-Condé",
    "state_id": 26,
    "postal_code": "27450",
    "state_name": "Eure",
    "query": "https://www.facebook.com/events/search?q=Classics&sde=Abq6hpNmijm8kReC4KYmmDP0NuT4IxNliFRnd3vuRZUj8uh4BsVIK3dVq186DripYNQbuwiy5LR0V3y0W_iqLV_W&filters=eyJycF9ldmVudHNfbG9jYXRpb246MCI6IntcIm5hbWVcIjpcImZpbHRlcl9ldmVudHNfbG9jYXRpb25cIixcImFyZ3NcIjpcIjEwODQyODk1OTE4MjExM1wifSJ9"
  },
  {
    "id": 9753,
    "name": "Sainte-Colombe-la-Commanderie",
    "state_id": 26,
    "postal_code": "27110",
    "state_name": "Eure",
    "query": ""
  },
  {
    "id": 9754,
    "name": "Sainte-Colombe-près-Vernon",
    "state_id": 26,
    "postal_code": "27950",
    "state_name": "Eure",
    "query": "https://www.facebook.com/events/search?q=Classics&sde=Abq6hpNmijm8kReC4KYmmDP0NuT4IxNliFRnd3vuRZUj8uh4BsVIK3dVq186DripYNQbuwiy5LR0V3y0W_iqLV_W&filters=eyJycF9ldmVudHNfbG9jYXRpb246MCI6IntcIm5hbWVcIjpcImZpbHRlcl9ldmVudHNfbG9jYXRpb25cIixcImFyZ3NcIjpcIjExMjg0NDEwODczMDE2MFwifSJ9"
  },
  {
    "id": 9755,
    "name": "Saint-Cyr-de-Salerne",
    "state_id": 26,
    "postal_code": "27800",
    "state_name": "Eure",
    "query": "https://www.facebook.com/events/search?q=Classics&sde=Abq6hpNmijm8kReC4KYmmDP0NuT4IxNliFRnd3vuRZUj8uh4BsVIK3dVq186DripYNQbuwiy5LR0V3y0W_iqLV_W&filters=eyJycF9ldmVudHNfbG9jYXRpb246MCI6IntcIm5hbWVcIjpcImZpbHRlcl9ldmVudHNfbG9jYXRpb25cIixcImFyZ3NcIjpcIjEwNzQ3NDg1NTk0ODk5MFwifSJ9"
  },
  {
    "id": 9756,
    "name": "Le Vaudreuil",
    "state_id": 26,
    "postal_code": "27100",
    "state_name": "Eure",
    "query": "https://www.facebook.com/events/search?q=Classics&sde=Abq6hpNmijm8kReC4KYmmDP0NuT4IxNliFRnd3vuRZUj8uh4BsVIK3dVq186DripYNQbuwiy5LR0V3y0W_iqLV_W&filters=eyJycF9ldmVudHNfbG9jYXRpb246MCI6IntcIm5hbWVcIjpcImZpbHRlcl9ldmVudHNfbG9jYXRpb25cIixcImFyZ3NcIjpcIjExMTk2NzY0MjE2MDkwMFwifSJ9"
  },
  {
    "id": 9757,
    "name": "Saint-Cyr-la-Campagne",
    "state_id": 26,
    "postal_code": "27370",
    "state_name": "Eure",
    "query": ""
  },
  {
    "id": 9758,
    "name": "Saint-Denis-d'Augerons",
    "state_id": 26,
    "postal_code": "27390",
    "state_name": "Eure",
    "query": ""
  },
  {
    "id": 9759,
    "name": "Saint-Denis-des-Monts",
    "state_id": 26,
    "postal_code": "27520",
    "state_name": "Eure",
    "query": ""
  },
  {
    "id": 9760,
    "name": "Saint-Denis-le-Ferment",
    "state_id": 26,
    "postal_code": "27140",
    "state_name": "Eure",
    "query": "https://www.facebook.com/events/search?q=Classics&sde=Abq6hpNmijm8kReC4KYmmDP0NuT4IxNliFRnd3vuRZUj8uh4BsVIK3dVq186DripYNQbuwiy5LR0V3y0W_iqLV_W&filters=eyJycF9ldmVudHNfbG9jYXRpb246MCI6IntcIm5hbWVcIjpcImZpbHRlcl9ldmVudHNfbG9jYXRpb25cIixcImFyZ3NcIjpcIjEwOTIyMzc5NTc2Mzc4MVwifSJ9"
  },
  {
    "id": 9761,
    "name": "Saint-Didier-des-Bois",
    "state_id": 26,
    "postal_code": "27370",
    "state_name": "Eure",
    "query": "https://www.facebook.com/events/search?q=Classics&sde=Abq6hpNmijm8kReC4KYmmDP0NuT4IxNliFRnd3vuRZUj8uh4BsVIK3dVq186DripYNQbuwiy5LR0V3y0W_iqLV_W&filters=eyJycF9ldmVudHNfbG9jYXRpb246MCI6IntcIm5hbWVcIjpcImZpbHRlcl9ldmVudHNfbG9jYXRpb25cIixcImFyZ3NcIjpcIjExMjUyMzgxODc2MjcxN1wifSJ9"
  },
  {
    "id": 9762,
    "name": "Saint-Élier",
    "state_id": 26,
    "postal_code": "27190",
    "state_name": "Eure",
    "query": "https://www.facebook.com/events/search?q=Classics&sde=Abq6hpNmijm8kReC4KYmmDP0NuT4IxNliFRnd3vuRZUj8uh4BsVIK3dVq186DripYNQbuwiy5LR0V3y0W_iqLV_W&filters=eyJycF9ldmVudHNfbG9jYXRpb246MCI6IntcIm5hbWVcIjpcImZpbHRlcl9ldmVudHNfbG9jYXRpb25cIixcImFyZ3NcIjpcIjEwODAzNjAxOTIxNjk1OFwifSJ9"
  },
  {
    "id": 9763,
    "name": "Saint-Éloi-de-Fourques",
    "state_id": 26,
    "postal_code": "27800",
    "state_name": "Eure",
    "query": "https://www.facebook.com/events/search?q=Classics&sde=Abq6hpNmijm8kReC4KYmmDP0NuT4IxNliFRnd3vuRZUj8uh4BsVIK3dVq186DripYNQbuwiy5LR0V3y0W_iqLV_W&filters=eyJycF9ldmVudHNfbG9jYXRpb246MCI6IntcIm5hbWVcIjpcImZpbHRlcl9ldmVudHNfbG9jYXRpb25cIixcImFyZ3NcIjpcIjEwODA0NzU3OTIxNTM2NFwifSJ9"
  },
  {
    "id": 9764,
    "name": "Saint-Étienne-du-Vauvray",
    "state_id": 26,
    "postal_code": "27430",
    "state_name": "Eure",
    "query": "https://www.facebook.com/events/search?q=Classics&sde=Abq6hpNmijm8kReC4KYmmDP0NuT4IxNliFRnd3vuRZUj8uh4BsVIK3dVq186DripYNQbuwiy5LR0V3y0W_iqLV_W&filters=eyJycF9ldmVudHNfbG9jYXRpb246MCI6IntcIm5hbWVcIjpcImZpbHRlcl9ldmVudHNfbG9jYXRpb25cIixcImFyZ3NcIjpcIjExMjIxMjUxODc5NTM3MlwifSJ9"
  },
  {
    "id": 9765,
    "name": "Saint-Étienne-l'Allier",
    "state_id": 26,
    "postal_code": "27450",
    "state_name": "Eure",
    "query": "https://www.facebook.com/events/search?q=Classics&sde=Abq6hpNmijm8kReC4KYmmDP0NuT4IxNliFRnd3vuRZUj8uh4BsVIK3dVq186DripYNQbuwiy5LR0V3y0W_iqLV_W&filters=eyJycF9ldmVudHNfbG9jYXRpb246MCI6IntcIm5hbWVcIjpcImZpbHRlcl9ldmVudHNfbG9jYXRpb25cIixcImFyZ3NcIjpcIjEwNTU3MDQ4NjE0MzU5MlwifSJ9"
  },
  {
    "id": 9766,
    "name": "Saint-Étienne-sous-Bailleul",
    "state_id": 26,
    "postal_code": "27920",
    "state_name": "Eure",
    "query": "https://www.facebook.com/events/search?q=Classics&sde=Abq6hpNmijm8kReC4KYmmDP0NuT4IxNliFRnd3vuRZUj8uh4BsVIK3dVq186DripYNQbuwiy5LR0V3y0W_iqLV_W&filters=eyJycF9ldmVudHNfbG9jYXRpb246MCI6IntcIm5hbWVcIjpcImZpbHRlcl9ldmVudHNfbG9jYXRpb25cIixcImFyZ3NcIjpcIjExMjg0NzYxNTM5NTk5NFwifSJ9"
  },
  {
    "id": 9767,
    "name": "Sainte-Geneviève-lès-Gasny",
    "state_id": 26,
    "postal_code": "27620",
    "state_name": "Eure",
    "query": "https://www.facebook.com/events/search?q=Classics&sde=Abq6hpNmijm8kReC4KYmmDP0NuT4IxNliFRnd3vuRZUj8uh4BsVIK3dVq186DripYNQbuwiy5LR0V3y0W_iqLV_W&filters=eyJycF9ldmVudHNfbG9jYXRpb246MCI6IntcIm5hbWVcIjpcImZpbHRlcl9ldmVudHNfbG9jYXRpb25cIixcImFyZ3NcIjpcIjEwODIyMjkxOTE5ODU5OVwifSJ9"
  },
  {
    "id": 9768,
    "name": "Le Mesnil-Saint-Jean",
    "state_id": 26,
    "postal_code": "27560",
    "state_name": "Eure",
    "query": ""
  },
  {
    "id": 9769,
    "name": "Saint-Georges-du-Vièvre",
    "state_id": 26,
    "postal_code": "27450",
    "state_name": "Eure",
    "query": "https://www.facebook.com/events/search?q=Classics&sde=Abq6hpNmijm8kReC4KYmmDP0NuT4IxNliFRnd3vuRZUj8uh4BsVIK3dVq186DripYNQbuwiy5LR0V3y0W_iqLV_W&filters=eyJycF9ldmVudHNfbG9jYXRpb246MCI6IntcIm5hbWVcIjpcImZpbHRlcl9ldmVudHNfbG9jYXRpb25cIixcImFyZ3NcIjpcIjEwNDAxNTQzMjk2NzU2MFwifSJ9"
  },
  {
    "id": 9770,
    "name": "Saint-Georges-Motel",
    "state_id": 26,
    "postal_code": "27710",
    "state_name": "Eure",
    "query": "https://www.facebook.com/events/search?q=Classics&sde=Abq6hpNmijm8kReC4KYmmDP0NuT4IxNliFRnd3vuRZUj8uh4BsVIK3dVq186DripYNQbuwiy5LR0V3y0W_iqLV_W&filters=eyJycF9ldmVudHNfbG9jYXRpb246MCI6IntcIm5hbWVcIjpcImZpbHRlcl9ldmVudHNfbG9jYXRpb25cIixcImFyZ3NcIjpcIjEwNTU5MDEwMjgwOTA0MVwifSJ9"
  },
  {
    "id": 9771,
    "name": "Saint-Germain-de-Fresney",
    "state_id": 26,
    "postal_code": "27220",
    "state_name": "Eure",
    "query": ""
  },
  {
    "id": 9772,
    "name": "Saint-Germain-de-Pasquier",
    "state_id": 26,
    "postal_code": "27370",
    "state_name": "Eure",
    "query": ""
  },
  {
    "id": 9773,
    "name": "Saint-Germain-des-Angles",
    "state_id": 26,
    "postal_code": "27930",
    "state_name": "Eure",
    "query": "https://www.facebook.com/events/search?q=Classics&sde=Abq6hpNmijm8kReC4KYmmDP0NuT4IxNliFRnd3vuRZUj8uh4BsVIK3dVq186DripYNQbuwiy5LR0V3y0W_iqLV_W&filters=eyJycF9ldmVudHNfbG9jYXRpb246MCI6IntcIm5hbWVcIjpcImZpbHRlcl9ldmVudHNfbG9jYXRpb25cIixcImFyZ3NcIjpcIjEwNDA4NTc3Mjk2MTQzMFwifSJ9"
  },
  {
    "id": 9774,
    "name": "Saint-Germain-la-Campagne",
    "state_id": 26,
    "postal_code": "27230",
    "state_name": "Eure",
    "query": "https://www.facebook.com/events/search?q=Classics&sde=Abq6hpNmijm8kReC4KYmmDP0NuT4IxNliFRnd3vuRZUj8uh4BsVIK3dVq186DripYNQbuwiy5LR0V3y0W_iqLV_W&filters=eyJycF9ldmVudHNfbG9jYXRpb246MCI6IntcIm5hbWVcIjpcImZpbHRlcl9ldmVudHNfbG9jYXRpb25cIixcImFyZ3NcIjpcIjEwNzc5NTc0MjU3NjU2M1wifSJ9"
  },
  {
    "id": 9775,
    "name": "Saint-Germain-sur-Avre",
    "state_id": 26,
    "postal_code": "27320",
    "state_name": "Eure",
    "query": "https://www.facebook.com/events/search?q=Classics&sde=Abq6hpNmijm8kReC4KYmmDP0NuT4IxNliFRnd3vuRZUj8uh4BsVIK3dVq186DripYNQbuwiy5LR0V3y0W_iqLV_W&filters=eyJycF9ldmVudHNfbG9jYXRpb246MCI6IntcIm5hbWVcIjpcImZpbHRlcl9ldmVudHNfbG9jYXRpb25cIixcImFyZ3NcIjpcIjEwNTQ1MTQyNjE1NDI2MFwifSJ9"
  },
  {
    "id": 9776,
    "name": "Saint-Grégoire-du-Vièvre",
    "state_id": 26,
    "postal_code": "27450",
    "state_name": "Eure",
    "query": "https://www.facebook.com/events/search?q=Classics&sde=Abq6hpNmijm8kReC4KYmmDP0NuT4IxNliFRnd3vuRZUj8uh4BsVIK3dVq186DripYNQbuwiy5LR0V3y0W_iqLV_W&filters=eyJycF9ldmVudHNfbG9jYXRpb246MCI6IntcIm5hbWVcIjpcImZpbHRlcl9ldmVudHNfbG9jYXRpb25cIixcImFyZ3NcIjpcIjEwNzQ3Mjg5OTI4MjU3NFwifSJ9"
  },
  {
    "id": 9777,
    "name": "Saint-Jean-du-Thenney",
    "state_id": 26,
    "postal_code": "27270",
    "state_name": "Eure",
    "query": ""
  },
  {
    "id": 9778,
    "name": "Saint-Julien-de-la-Liègue",
    "state_id": 26,
    "postal_code": "27600",
    "state_name": "Eure",
    "query": ""
  },
  {
    "id": 9779,
    "name": "La Chapelle-Longueville",
    "state_id": 26,
    "postal_code": "27950",
    "state_name": "Eure",
    "query": ""
  },
  {
    "id": 9780,
    "name": "Saint-Laurent-des-Bois",
    "state_id": 26,
    "postal_code": "27220",
    "state_name": "Eure",
    "query": "https://www.facebook.com/events/search?q=Classics&sde=Abq6hpNmijm8kReC4KYmmDP0NuT4IxNliFRnd3vuRZUj8uh4BsVIK3dVq186DripYNQbuwiy5LR0V3y0W_iqLV_W&filters=eyJycF9ldmVudHNfbG9jYXRpb246MCI6IntcIm5hbWVcIjpcImZpbHRlcl9ldmVudHNfbG9jYXRpb25cIixcImFyZ3NcIjpcIjExMDY5MjcxMjI5MjcyOVwifSJ9"
  },
  {
    "id": 9781,
    "name": "Saint-Laurent-du-Tencement",
    "state_id": 26,
    "postal_code": "27390",
    "state_name": "Eure",
    "query": ""
  },
  {
    "id": 9782,
    "name": "Saint-Léger-de-Rôtes",
    "state_id": 26,
    "postal_code": "27300",
    "state_name": "Eure",
    "query": ""
  },
  {
    "id": 9783,
    "name": "Saint-Léger-du-Gennetey",
    "state_id": 26,
    "postal_code": "27520",
    "state_name": "Eure",
    "query": ""
  },
  {
    "id": 9784,
    "name": "Saint-Luc",
    "state_id": 26,
    "postal_code": "27930",
    "state_name": "Eure",
    "query": ""
  },
  {
    "id": 9785,
    "name": "Saint-Maclou",
    "state_id": 26,
    "postal_code": "27210",
    "state_name": "Eure",
    "query": "https://www.facebook.com/events/search?q=Classics&sde=Abq6hpNmijm8kReC4KYmmDP0NuT4IxNliFRnd3vuRZUj8uh4BsVIK3dVq186DripYNQbuwiy5LR0V3y0W_iqLV_W&filters=eyJycF9ldmVudHNfbG9jYXRpb246MCI6IntcIm5hbWVcIjpcImZpbHRlcl9ldmVudHNfbG9jYXRpb25cIixcImFyZ3NcIjpcIjExMjUwNDA0MjA5ODUxM1wifSJ9"
  },
  {
    "id": 9786,
    "name": "Saint-Marcel",
    "state_id": 26,
    "postal_code": "27950",
    "state_name": "Eure",
    "query": "https://www.facebook.com/events/search?q=Classics&sde=Abq6hpNmijm8kReC4KYmmDP0NuT4IxNliFRnd3vuRZUj8uh4BsVIK3dVq186DripYNQbuwiy5LR0V3y0W_iqLV_W&filters=eyJycF9ldmVudHNfbG9jYXRpb246MCI6IntcIm5hbWVcIjpcImZpbHRlcl9ldmVudHNfbG9jYXRpb25cIixcImFyZ3NcIjpcIjEwODkzMzI4MjQ2MjMwM1wifSJ9"
  },
  {
    "id": 9787,
    "name": "Saint-Mards-de-Blacarville",
    "state_id": 26,
    "postal_code": "27500",
    "state_name": "Eure",
    "query": "https://www.facebook.com/events/search?q=Classics&sde=Abq6hpNmijm8kReC4KYmmDP0NuT4IxNliFRnd3vuRZUj8uh4BsVIK3dVq186DripYNQbuwiy5LR0V3y0W_iqLV_W&filters=eyJycF9ldmVudHNfbG9jYXRpb246MCI6IntcIm5hbWVcIjpcImZpbHRlcl9ldmVudHNfbG9jYXRpb25cIixcImFyZ3NcIjpcIjExMjc3OTgzNTQwMzcxOVwifSJ9"
  },
  {
    "id": 9788,
    "name": "Saint-Mards-de-Fresne",
    "state_id": 26,
    "postal_code": "27230",
    "state_name": "Eure",
    "query": "https://www.facebook.com/events/search/?q=Classics&sde=Abq6hpNmijm8kReC4KYmmDP0NuT4IxNliFRnd3vuRZUj8uh4BsVIK3dVq186DripYNQbuwiy5LR0V3y0W_iqLV_W&filters=eyJycF9ldmVudHNfbG9jYXRpb246MCI6IntcIm5hbWVcIjpcImZpbHRlcl9ldmVudHNfbG9jYXRpb25cIixcImFyZ3NcIjpcIjExMjA0NjI3ODgxMjk0N1wifSJ9"
  },
  {
    "id": 9789,
    "name": "Le Lesme",
    "state_id": 26,
    "postal_code": "27160",
    "state_name": "Eure",
    "query": ""
  },
  {
    "id": 9790,
    "name": "Sainte-Marie-de-Vatimesnil",
    "state_id": 26,
    "postal_code": "27150",
    "state_name": "Eure",
    "query": "https://www.facebook.com/events/search?q=Classics&sde=Abq6hpNmijm8kReC4KYmmDP0NuT4IxNliFRnd3vuRZUj8uh4BsVIK3dVq186DripYNQbuwiy5LR0V3y0W_iqLV_W&filters=eyJycF9ldmVudHNfbG9jYXRpb246MCI6IntcIm5hbWVcIjpcImZpbHRlcl9ldmVudHNfbG9jYXRpb25cIixcImFyZ3NcIjpcIjEwNTgzODAzNjExNDA3N1wifSJ9"
  },
  {
    "id": 9791,
    "name": "Sainte-Marthe",
    "state_id": 26,
    "postal_code": "27190",
    "state_name": "Eure",
    "query": "https://www.facebook.com/events/search?q=Classics&sde=Abq6hpNmijm8kReC4KYmmDP0NuT4IxNliFRnd3vuRZUj8uh4BsVIK3dVq186DripYNQbuwiy5LR0V3y0W_iqLV_W&filters=eyJycF9ldmVudHNfbG9jYXRpb246MCI6IntcIm5hbWVcIjpcImZpbHRlcl9ldmVudHNfbG9jYXRpb25cIixcImFyZ3NcIjpcIjExMTkyMTIzNTQ5ODIyN1wifSJ9"
  },
  {
    "id": 9792,
    "name": "Saint-Martin-du-Tilleul",
    "state_id": 26,
    "postal_code": "27300",
    "state_name": "Eure",
    "query": "https://www.facebook.com/events/search?q=Classics&sde=Abq6hpNmijm8kReC4KYmmDP0NuT4IxNliFRnd3vuRZUj8uh4BsVIK3dVq186DripYNQbuwiy5LR0V3y0W_iqLV_W&filters=eyJycF9ldmVudHNfbG9jYXRpb246MCI6IntcIm5hbWVcIjpcImZpbHRlcl9ldmVudHNfbG9jYXRpb25cIixcImFyZ3NcIjpcIjExMjczNDg5ODczOTI1M1wifSJ9"
  },
  {
    "id": 9793,
    "name": "Saint-Martin-la-Campagne",
    "state_id": 26,
    "postal_code": "27930",
    "state_name": "Eure",
    "query": ""
  },
  {
    "id": 9794,
    "name": "Saint-Martin-Saint-Firmin",
    "state_id": 26,
    "postal_code": "27450",
    "state_name": "Eure",
    "query": ""
  },
  {
    "id": 9795,
    "name": "Saint-Meslin-du-Bosc",
    "state_id": 26,
    "postal_code": "27370",
    "state_name": "Eure",
    "query": "https://www.facebook.com/events/search?q=Classics&sde=Abq6hpNmijm8kReC4KYmmDP0NuT4IxNliFRnd3vuRZUj8uh4BsVIK3dVq186DripYNQbuwiy5LR0V3y0W_iqLV_W&filters=eyJycF9ldmVudHNfbG9jYXRpb246MCI6IntcIm5hbWVcIjpcImZpbHRlcl9ldmVudHNfbG9jYXRpb25cIixcImFyZ3NcIjpcIjEwODA4Mzk1MjU0Njk5NVwifSJ9"
  },
  {
    "id": 9796,
    "name": "Sainte-Opportune-du-Bosc",
    "state_id": 26,
    "postal_code": "27110",
    "state_name": "Eure",
    "query": "https://www.facebook.com/events/search?q=Classics&sde=Abq6hpNmijm8kReC4KYmmDP0NuT4IxNliFRnd3vuRZUj8uh4BsVIK3dVq186DripYNQbuwiy5LR0V3y0W_iqLV_W&filters=eyJycF9ldmVudHNfbG9jYXRpb246MCI6IntcIm5hbWVcIjpcImZpbHRlcl9ldmVudHNfbG9jYXRpb25cIixcImFyZ3NcIjpcIjEwODA4NjQwOTIxMjE5NFwifSJ9"
  },
  {
    "id": 9797,
    "name": "Sainte-Opportune-la-Mare",
    "state_id": 26,
    "postal_code": "27680",
    "state_name": "Eure",
    "query": "https://www.facebook.com/events/search?q=Classics&sde=Abq6hpNmijm8kReC4KYmmDP0NuT4IxNliFRnd3vuRZUj8uh4BsVIK3dVq186DripYNQbuwiy5LR0V3y0W_iqLV_W&filters=eyJycF9ldmVudHNfbG9jYXRpb246MCI6IntcIm5hbWVcIjpcImZpbHRlcl9ldmVudHNfbG9jYXRpb25cIixcImFyZ3NcIjpcIjEwOTczNjUxOTA1MjA2M1wifSJ9"
  },
  {
    "id": 9798,
    "name": "Sainte-Marie-d'Attez",
    "state_id": 26,
    "postal_code": "27160",
    "state_name": "Eure",
    "query": ""
  },
  {
    "id": 9799,
    "name": "Saint-Ouen-de-Pontcheuil",
    "state_id": 26,
    "postal_code": "27370",
    "state_name": "Eure",
    "query": ""
  },
  {
    "id": 9800,
    "name": "Saint-Ouen-de-Thouberville",
    "state_id": 26,
    "postal_code": "27310",
    "state_name": "Eure",
    "query": "https://www.facebook.com/events/search?q=Classics&sde=Abq6hpNmijm8kReC4KYmmDP0NuT4IxNliFRnd3vuRZUj8uh4BsVIK3dVq186DripYNQbuwiy5LR0V3y0W_iqLV_W&filters=eyJycF9ldmVudHNfbG9jYXRpb246MCI6IntcIm5hbWVcIjpcImZpbHRlcl9ldmVudHNfbG9jYXRpb25cIixcImFyZ3NcIjpcIjEwMzA5OTMxOTczMDc5NFwifSJ9"
  },
  {
    "id": 9801,
    "name": "Saint-Ouen-du-Tilleul",
    "state_id": 26,
    "postal_code": "27670",
    "state_name": "Eure",
    "query": "https://www.facebook.com/events/search?q=Classics&sde=Abq6hpNmijm8kReC4KYmmDP0NuT4IxNliFRnd3vuRZUj8uh4BsVIK3dVq186DripYNQbuwiy5LR0V3y0W_iqLV_W&filters=eyJycF9ldmVudHNfbG9jYXRpb246MCI6IntcIm5hbWVcIjpcImZpbHRlcl9ldmVudHNfbG9jYXRpb25cIixcImFyZ3NcIjpcIjEwODcyMDEyMjQ4NjIzNFwifSJ9"
  },
  {
    "id": 9802,
    "name": "Saint-Paul-de-Fourques",
    "state_id": 26,
    "postal_code": "27800",
    "state_name": "Eure",
    "query": ""
  },
  {
    "id": 9803,
    "name": "Saint-Philbert-sur-Boissey",
    "state_id": 26,
    "postal_code": "27520",
    "state_name": "Eure",
    "query": ""
  },
  {
    "id": 9804,
    "name": "Saint-Philbert-sur-Risle",
    "state_id": 26,
    "postal_code": "27290",
    "state_name": "Eure",
    "query": "https://www.facebook.com/events/search?q=Classics&sde=Abq6hpNmijm8kReC4KYmmDP0NuT4IxNliFRnd3vuRZUj8uh4BsVIK3dVq186DripYNQbuwiy5LR0V3y0W_iqLV_W&filters=eyJycF9ldmVudHNfbG9jYXRpb246MCI6IntcIm5hbWVcIjpcImZpbHRlcl9ldmVudHNfbG9jYXRpb25cIixcImFyZ3NcIjpcIjExNDE4MjU0MTkyNTIzN1wifSJ9"
  },
  {
    "id": 9805,
    "name": "Saint-Pierre-de-Bailleul",
    "state_id": 26,
    "postal_code": "27920",
    "state_name": "Eure",
    "query": "https://www.facebook.com/events/search?q=Classics&sde=Abq6hpNmijm8kReC4KYmmDP0NuT4IxNliFRnd3vuRZUj8uh4BsVIK3dVq186DripYNQbuwiy5LR0V3y0W_iqLV_W&filters=eyJycF9ldmVudHNfbG9jYXRpb246MCI6IntcIm5hbWVcIjpcImZpbHRlcl9ldmVudHNfbG9jYXRpb25cIixcImFyZ3NcIjpcIjEwMzc5OTA1Mjk5MjQxNFwifSJ9"
  },
  {
    "id": 9806,
    "name": "Saint-Pierre-de-Cernières",
    "state_id": 26,
    "postal_code": "27390",
    "state_name": "Eure",
    "query": ""
  },
  {
    "id": 9807,
    "name": "Saint-Pierre-de-Cormeilles",
    "state_id": 26,
    "postal_code": "27260",
    "state_name": "Eure",
    "query": "https://www.facebook.com/events/search?q=Classics&sde=Abq6hpNmijm8kReC4KYmmDP0NuT4IxNliFRnd3vuRZUj8uh4BsVIK3dVq186DripYNQbuwiy5LR0V3y0W_iqLV_W&filters=eyJycF9ldmVudHNfbG9jYXRpb246MCI6IntcIm5hbWVcIjpcImZpbHRlcl9ldmVudHNfbG9jYXRpb25cIixcImFyZ3NcIjpcIjEwODU4MDk1MjUwMDI0M1wifSJ9"
  },
  {
    "id": 9808,
    "name": "Saint-Pierre-de-Salerne",
    "state_id": 26,
    "postal_code": "27800",
    "state_name": "Eure",
    "query": "https://www.facebook.com/events/search?q=Classics&sde=Abq6hpNmijm8kReC4KYmmDP0NuT4IxNliFRnd3vuRZUj8uh4BsVIK3dVq186DripYNQbuwiy5LR0V3y0W_iqLV_W&filters=eyJycF9ldmVudHNfbG9jYXRpb246MCI6IntcIm5hbWVcIjpcImZpbHRlcl9ldmVudHNfbG9jYXRpb25cIixcImFyZ3NcIjpcIjExMjEzMzM5MjEzNjYxOVwifSJ9"
  },
  {
    "id": 9809,
    "name": "Saint-Pierre-des-Fleurs",
    "state_id": 26,
    "postal_code": "27370",
    "state_name": "Eure",
    "query": "https://www.facebook.com/events/search?q=Classics&sde=Abq6hpNmijm8kReC4KYmmDP0NuT4IxNliFRnd3vuRZUj8uh4BsVIK3dVq186DripYNQbuwiy5LR0V3y0W_iqLV_W&filters=eyJycF9ldmVudHNfbG9jYXRpb246MCI6IntcIm5hbWVcIjpcImZpbHRlcl9ldmVudHNfbG9jYXRpb25cIixcImFyZ3NcIjpcIjEwNzc3Mzg1OTI1MDA3NFwifSJ9"
  },
  {
    "id": 9810,
    "name": "Saint-Pierre-des-Ifs",
    "state_id": 26,
    "postal_code": "27450",
    "state_name": "Eure",
    "query": "https://www.facebook.com/events/search?q=Classics&sde=Abq6hpNmijm8kReC4KYmmDP0NuT4IxNliFRnd3vuRZUj8uh4BsVIK3dVq186DripYNQbuwiy5LR0V3y0W_iqLV_W&filters=eyJycF9ldmVudHNfbG9jYXRpb246MCI6IntcIm5hbWVcIjpcImZpbHRlcl9ldmVudHNfbG9jYXRpb25cIixcImFyZ3NcIjpcIjExNDEyMTQ4NTI2ODQ5NlwifSJ9"
  },
  {
    "id": 9811,
    "name": "Saint-Pierre-du-Bosguérard",
    "state_id": 26,
    "postal_code": "27370",
    "state_name": "Eure",
    "query": "https://www.facebook.com/events/search?q=Classics&sde=Abq6hpNmijm8kReC4KYmmDP0NuT4IxNliFRnd3vuRZUj8uh4BsVIK3dVq186DripYNQbuwiy5LR0V3y0W_iqLV_W&filters=eyJycF9ldmVudHNfbG9jYXRpb246MCI6IntcIm5hbWVcIjpcImZpbHRlcl9ldmVudHNfbG9jYXRpb25cIixcImFyZ3NcIjpcIjExMjI4NjE2NTQ1MTE3M1wifSJ9"
  },
  {
    "id": 9812,
    "name": "Saint-Pierre-du-Val",
    "state_id": 26,
    "postal_code": "27210",
    "state_name": "Eure",
    "query": "https://www.facebook.com/events/search?q=Classics&sde=Abq6hpNmijm8kReC4KYmmDP0NuT4IxNliFRnd3vuRZUj8uh4BsVIK3dVq186DripYNQbuwiy5LR0V3y0W_iqLV_W&filters=eyJycF9ldmVudHNfbG9jYXRpb246MCI6IntcIm5hbWVcIjpcImZpbHRlcl9ldmVudHNfbG9jYXRpb25cIixcImFyZ3NcIjpcIjEwNDA4MjA3NjI5MzcyMlwifSJ9"
  },
  {
    "id": 9813,
    "name": "Saint-Pierre-du-Vauvray",
    "state_id": 26,
    "postal_code": "27430",
    "state_name": "Eure",
    "query": "https://www.facebook.com/events/search?q=Classics&sde=Abq6hpNmijm8kReC4KYmmDP0NuT4IxNliFRnd3vuRZUj8uh4BsVIK3dVq186DripYNQbuwiy5LR0V3y0W_iqLV_W&filters=eyJycF9ldmVudHNfbG9jYXRpb246MCI6IntcIm5hbWVcIjpcImZpbHRlcl9ldmVudHNfbG9jYXRpb25cIixcImFyZ3NcIjpcIjExMDAzOTI3OTAyMTg5N1wifSJ9"
  },
  {
    "id": 9814,
    "name": "Saint-Pierre-la-Garenne",
    "state_id": 26,
    "postal_code": "27600",
    "state_name": "Eure",
    "query": "https://www.facebook.com/events/search?q=Classics&sde=Abq6hpNmijm8kReC4KYmmDP0NuT4IxNliFRnd3vuRZUj8uh4BsVIK3dVq186DripYNQbuwiy5LR0V3y0W_iqLV_W&filters=eyJycF9ldmVudHNfbG9jYXRpb246MCI6IntcIm5hbWVcIjpcImZpbHRlcl9ldmVudHNfbG9jYXRpb25cIixcImFyZ3NcIjpcIjEwOTczMzc3MjM4NzIzMlwifSJ9"
  },
  {
    "id": 9815,
    "name": "Saint-Samson-de-la-Roque",
    "state_id": 26,
    "postal_code": "27680",
    "state_name": "Eure",
    "query": "https://www.facebook.com/events/search?q=Classics&sde=Abq6hpNmijm8kReC4KYmmDP0NuT4IxNliFRnd3vuRZUj8uh4BsVIK3dVq186DripYNQbuwiy5LR0V3y0W_iqLV_W&filters=eyJycF9ldmVudHNfbG9jYXRpb246MCI6IntcIm5hbWVcIjpcImZpbHRlcl9ldmVudHNfbG9jYXRpb25cIixcImFyZ3NcIjpcIjEwNzgxNjM3NTkwODAxOFwifSJ9"
  },
  {
    "id": 9816,
    "name": "Saint-Sébastien-de-Morsent",
    "state_id": 26,
    "postal_code": "27180",
    "state_name": "Eure",
    "query": "https://www.facebook.com/events/search?q=Classics&sde=Abq6hpNmijm8kReC4KYmmDP0NuT4IxNliFRnd3vuRZUj8uh4BsVIK3dVq186DripYNQbuwiy5LR0V3y0W_iqLV_W&filters=eyJycF9ldmVudHNfbG9jYXRpb246MCI6IntcIm5hbWVcIjpcImZpbHRlcl9ldmVudHNfbG9jYXRpb25cIixcImFyZ3NcIjpcIjEwMzc2NzYxMjk5NDc4OFwifSJ9"
  },
  {
    "id": 9817,
    "name": "Saint-Siméon",
    "state_id": 26,
    "postal_code": "27560",
    "state_name": "Eure",
    "query": "https://www.facebook.com/events/search?q=Classics&sde=Abq6hpNmijm8kReC4KYmmDP0NuT4IxNliFRnd3vuRZUj8uh4BsVIK3dVq186DripYNQbuwiy5LR0V3y0W_iqLV_W&filters=eyJycF9ldmVudHNfbG9jYXRpb246MCI6IntcIm5hbWVcIjpcImZpbHRlcl9ldmVudHNfbG9jYXRpb25cIixcImFyZ3NcIjpcIjEwNTM4NDc5NjE2MTg0M1wifSJ9"
  },
  {
    "id": 9818,
    "name": "Saint-Sulpice-de-Grimbouville",
    "state_id": 26,
    "postal_code": "27210",
    "state_name": "Eure",
    "query": ""
  },
  {
    "id": 9819,
    "name": "Saint-Sylvestre-de-Cormeilles",
    "state_id": 26,
    "postal_code": "27260",
    "state_name": "Eure",
    "query": ""
  },
  {
    "id": 9820,
    "name": "Saint-Symphorien",
    "state_id": 26,
    "postal_code": "27500",
    "state_name": "Eure",
    "query": "https://www.facebook.com/events/search?q=Classics&sde=Abq6hpNmijm8kReC4KYmmDP0NuT4IxNliFRnd3vuRZUj8uh4BsVIK3dVq186DripYNQbuwiy5LR0V3y0W_iqLV_W&filters=eyJycF9ldmVudHNfbG9jYXRpb246MCI6IntcIm5hbWVcIjpcImZpbHRlcl9ldmVudHNfbG9jYXRpb25cIixcImFyZ3NcIjpcIjExMTIzNjk1NTU2ODIyN1wifSJ9"
  },
  {
    "id": 9821,
    "name": "Saint-Victor-de-Chrétienville",
    "state_id": 26,
    "postal_code": "27300",
    "state_name": "Eure",
    "query": "https://www.facebook.com/events/search?q=Classics&sde=Abq6hpNmijm8kReC4KYmmDP0NuT4IxNliFRnd3vuRZUj8uh4BsVIK3dVq186DripYNQbuwiy5LR0V3y0W_iqLV_W&filters=eyJycF9ldmVudHNfbG9jYXRpb246MCI6IntcIm5hbWVcIjpcImZpbHRlcl9ldmVudHNfbG9jYXRpb25cIixcImFyZ3NcIjpcIjEwNDEyMzQwMjk1NzU1MVwifSJ9"
  },
  {
    "id": 9822,
    "name": "Saint-Victor-d'Épine",
    "state_id": 26,
    "postal_code": "27800",
    "state_name": "Eure",
    "query": ""
  },
  {
    "id": 9823,
    "name": "Saint-Victor-sur-Avre",
    "state_id": 26,
    "postal_code": "27130",
    "state_name": "Eure",
    "query": ""
  },
  {
    "id": 9824,
    "name": "Saint-Vigor",
    "state_id": 26,
    "postal_code": "27930",
    "state_name": "Eure",
    "query": "https://www.facebook.com/events/search?q=Classics&sde=Abq6hpNmijm8kReC4KYmmDP0NuT4IxNliFRnd3vuRZUj8uh4BsVIK3dVq186DripYNQbuwiy5LR0V3y0W_iqLV_W&filters=eyJycF9ldmVudHNfbG9jYXRpb246MCI6IntcIm5hbWVcIjpcImZpbHRlcl9ldmVudHNfbG9jYXRpb25cIixcImFyZ3NcIjpcIjEwOTAzMTUwOTEzMTc0OVwifSJ9"
  },
  {
    "id": 9825,
    "name": "Saint-Vincent-des-Bois",
    "state_id": 26,
    "postal_code": "27950",
    "state_name": "Eure",
    "query": ""
  },
  {
    "id": 9826,
    "name": "Saint-Vincent-du-Boulay",
    "state_id": 26,
    "postal_code": "27230",
    "state_name": "Eure",
    "query": "https://www.facebook.com/events/search?q=Classics&sde=Abq6hpNmijm8kReC4KYmmDP0NuT4IxNliFRnd3vuRZUj8uh4BsVIK3dVq186DripYNQbuwiy5LR0V3y0W_iqLV_W&filters=eyJycF9ldmVudHNfbG9jYXRpb246MCI6IntcIm5hbWVcIjpcImZpbHRlcl9ldmVudHNfbG9jYXRpb25cIixcImFyZ3NcIjpcIjExMzU3MTkzNTMxOTk0MlwifSJ9"
  },
  {
    "id": 9827,
    "name": "Sancourt",
    "state_id": 26,
    "postal_code": "27150",
    "state_name": "Eure",
    "query": "https://www.facebook.com/events/search?q=Classics&sde=Abq6hpNmijm8kReC4KYmmDP0NuT4IxNliFRnd3vuRZUj8uh4BsVIK3dVq186DripYNQbuwiy5LR0V3y0W_iqLV_W&filters=eyJycF9ldmVudHNfbG9jYXRpb246MCI6IntcIm5hbWVcIjpcImZpbHRlcl9ldmVudHNfbG9jYXRpb25cIixcImFyZ3NcIjpcIjEwMDI0NDc1MzM1MDkyM1wifSJ9"
  },
  {
    "id": 9828,
    "name": "Sassey",
    "state_id": 26,
    "postal_code": "27930",
    "state_name": "Eure",
    "query": ""
  },
  {
    "id": 9829,
    "name": "La Saussaye",
    "state_id": 26,
    "postal_code": "27370",
    "state_name": "Eure",
    "query": ""
  },
  {
    "id": 9830,
    "name": "Saussay-la-Campagne",
    "state_id": 26,
    "postal_code": "27150",
    "state_name": "Eure",
    "query": "https://www.facebook.com/events/search?q=Classics&sde=Abq6hpNmijm8kReC4KYmmDP0NuT4IxNliFRnd3vuRZUj8uh4BsVIK3dVq186DripYNQbuwiy5LR0V3y0W_iqLV_W&filters=eyJycF9ldmVudHNfbG9jYXRpb246MCI6IntcIm5hbWVcIjpcImZpbHRlcl9ldmVudHNfbG9jYXRpb25cIixcImFyZ3NcIjpcIjEwODgxMDI3NTgxOTY3NFwifSJ9"
  },
  {
    "id": 9831,
    "name": "Sébécourt",
    "state_id": 26,
    "postal_code": "27190",
    "state_name": "Eure",
    "query": "https://www.facebook.com/events/search?q=Classics&sde=Abq6hpNmijm8kReC4KYmmDP0NuT4IxNliFRnd3vuRZUj8uh4BsVIK3dVq186DripYNQbuwiy5LR0V3y0W_iqLV_W&filters=eyJycF9ldmVudHNfbG9jYXRpb246MCI6IntcIm5hbWVcIjpcImZpbHRlcl9ldmVudHNfbG9jYXRpb25cIixcImFyZ3NcIjpcIjEwODcwNTQxOTE1NDQ2MlwifSJ9"
  },
  {
    "id": 9832,
    "name": "Selles",
    "state_id": 26,
    "postal_code": "27500",
    "state_name": "Eure",
    "query": "https://www.facebook.com/events/search?q=Classics&sde=Abq6hpNmijm8kReC4KYmmDP0NuT4IxNliFRnd3vuRZUj8uh4BsVIK3dVq186DripYNQbuwiy5LR0V3y0W_iqLV_W&filters=eyJycF9ldmVudHNfbG9jYXRpb246MCI6IntcIm5hbWVcIjpcImZpbHRlcl9ldmVudHNfbG9jYXRpb25cIixcImFyZ3NcIjpcIjExMzA0ODY1ODcwOTQyNVwifSJ9"
  },
  {
    "id": 9833,
    "name": "Serez",
    "state_id": 26,
    "postal_code": "27220",
    "state_name": "Eure",
    "query": ""
  },
  {
    "id": 9834,
    "name": "Serquigny",
    "state_id": 26,
    "postal_code": "27470",
    "state_name": "Eure",
    "query": "https://www.facebook.com/events/search?q=Classics&sde=Abq6hpNmijm8kReC4KYmmDP0NuT4IxNliFRnd3vuRZUj8uh4BsVIK3dVq186DripYNQbuwiy5LR0V3y0W_iqLV_W&filters=eyJycF9ldmVudHNfbG9jYXRpb246MCI6IntcIm5hbWVcIjpcImZpbHRlcl9ldmVudHNfbG9jYXRpb25cIixcImFyZ3NcIjpcIjEwNjAyMjE3Mjc2MTY5MlwifSJ9"
  },
  {
    "id": 9835,
    "name": "Surtauville",
    "state_id": 26,
    "postal_code": "27400",
    "state_name": "Eure",
    "query": "https://www.facebook.com/events/search?q=Classics&sde=Abq6hpNmijm8kReC4KYmmDP0NuT4IxNliFRnd3vuRZUj8uh4BsVIK3dVq186DripYNQbuwiy5LR0V3y0W_iqLV_W&filters=eyJycF9ldmVudHNfbG9jYXRpb246MCI6IntcIm5hbWVcIjpcImZpbHRlcl9ldmVudHNfbG9jYXRpb25cIixcImFyZ3NcIjpcIjExMzEwNzYzNTM4MTQ4MlwifSJ9"
  },
  {
    "id": 9836,
    "name": "Surville",
    "state_id": 26,
    "postal_code": "27400",
    "state_name": "Eure",
    "query": "https://www.facebook.com/events/search?q=Classics&sde=Abq6hpNmijm8kReC4KYmmDP0NuT4IxNliFRnd3vuRZUj8uh4BsVIK3dVq186DripYNQbuwiy5LR0V3y0W_iqLV_W&filters=eyJycF9ldmVudHNfbG9jYXRpb246MCI6IntcIm5hbWVcIjpcImZpbHRlcl9ldmVudHNfbG9jYXRpb25cIixcImFyZ3NcIjpcIjEwODQxMTk2MjUyMTc3NFwifSJ9"
  },
  {
    "id": 9837,
    "name": "Suzay",
    "state_id": 26,
    "postal_code": "27420",
    "state_name": "Eure",
    "query": "https://www.facebook.com/events/search?q=Classics&sde=Abq6hpNmijm8kReC4KYmmDP0NuT4IxNliFRnd3vuRZUj8uh4BsVIK3dVq186DripYNQbuwiy5LR0V3y0W_iqLV_W&filters=eyJycF9ldmVudHNfbG9jYXRpb246MCI6IntcIm5hbWVcIjpcImZpbHRlcl9ldmVudHNfbG9jYXRpb25cIixcImFyZ3NcIjpcIjExMzA1MTk5ODcwNTM2NlwifSJ9"
  },
  {
    "id": 9838,
    "name": "Le Theil-Nolent",
    "state_id": 26,
    "postal_code": "27230",
    "state_name": "Eure",
    "query": ""
  },
  {
    "id": 9839,
    "name": "Thiberville",
    "state_id": 26,
    "postal_code": "27230",
    "state_name": "Eure",
    "query": "https://www.facebook.com/events/search?q=Classics&sde=Abq6hpNmijm8kReC4KYmmDP0NuT4IxNliFRnd3vuRZUj8uh4BsVIK3dVq186DripYNQbuwiy5LR0V3y0W_iqLV_W&filters=eyJycF9ldmVudHNfbG9jYXRpb246MCI6IntcIm5hbWVcIjpcImZpbHRlcl9ldmVudHNfbG9jYXRpb25cIixcImFyZ3NcIjpcIjEwNjkyODA2OTM0Nzc2OVwifSJ9"
  },
  {
    "id": 9840,
    "name": "Thibouville",
    "state_id": 26,
    "postal_code": "27800",
    "state_name": "Eure",
    "query": "https://www.facebook.com/events/search?q=Classics&sde=Abq6hpNmijm8kReC4KYmmDP0NuT4IxNliFRnd3vuRZUj8uh4BsVIK3dVq186DripYNQbuwiy5LR0V3y0W_iqLV_W&filters=eyJycF9ldmVudHNfbG9jYXRpb246MCI6IntcIm5hbWVcIjpcImZpbHRlcl9ldmVudHNfbG9jYXRpb25cIixcImFyZ3NcIjpcIjEwOTM4MTMxOTA5MzIxNFwifSJ9"
  },
  {
    "id": 9841,
    "name": "Thierville",
    "state_id": 26,
    "postal_code": "27290",
    "state_name": "Eure",
    "query": "https://www.facebook.com/events/search?q=Classics&sde=Abq6hpNmijm8kReC4KYmmDP0NuT4IxNliFRnd3vuRZUj8uh4BsVIK3dVq186DripYNQbuwiy5LR0V3y0W_iqLV_W&filters=eyJycF9ldmVudHNfbG9jYXRpb246MCI6IntcIm5hbWVcIjpcImZpbHRlcl9ldmVudHNfbG9jYXRpb25cIixcImFyZ3NcIjpcIjExNTgxMDYxODQzMTk5N1wifSJ9"
  },
  {
    "id": 9842,
    "name": "Le Thil",
    "state_id": 26,
    "postal_code": "27150",
    "state_name": "Eure",
    "query": "https://www.facebook.com/events/search?q=Classics&sde=Abq6hpNmijm8kReC4KYmmDP0NuT4IxNliFRnd3vuRZUj8uh4BsVIK3dVq186DripYNQbuwiy5LR0V3y0W_iqLV_W&filters=eyJycF9ldmVudHNfbG9jYXRpb246MCI6IntcIm5hbWVcIjpcImZpbHRlcl9ldmVudHNfbG9jYXRpb25cIixcImFyZ3NcIjpcIjEwODAzMTQxMjU1MTExN1wifSJ9"
  },
  {
    "id": 9843,
    "name": "Les Thilliers-en-Vexin",
    "state_id": 26,
    "postal_code": "27420",
    "state_name": "Eure",
    "query": "https://www.facebook.com/events/search?q=Classics&sde=Abq6hpNmijm8kReC4KYmmDP0NuT4IxNliFRnd3vuRZUj8uh4BsVIK3dVq186DripYNQbuwiy5LR0V3y0W_iqLV_W&filters=eyJycF9ldmVudHNfbG9jYXRpb246MCI6IntcIm5hbWVcIjpcImZpbHRlcl9ldmVudHNfbG9jYXRpb25cIixcImFyZ3NcIjpcIjExMTE2NTAxNTU4MDEzMlwifSJ9"
  },
  {
    "id": 9844,
    "name": "Le Thuit",
    "state_id": 26,
    "postal_code": "27700",
    "state_name": "Eure",
    "query": "https://www.facebook.com/events/search?q=Classics&sde=Abq6hpNmijm8kReC4KYmmDP0NuT4IxNliFRnd3vuRZUj8uh4BsVIK3dVq186DripYNQbuwiy5LR0V3y0W_iqLV_W&filters=eyJycF9ldmVudHNfbG9jYXRpb246MCI6IntcIm5hbWVcIjpcImZpbHRlcl9ldmVudHNfbG9jYXRpb25cIixcImFyZ3NcIjpcIjEwOTI0ODk0NTc2Mzg5NlwifSJ9"
  },
  {
    "id": 9845,
    "name": "Le Thuit de l'Oison",
    "state_id": 26,
    "postal_code": "27370",
    "state_name": "Eure",
    "query": ""
  },
  {
    "id": 9846,
    "name": "Tilleul-Dame-Agnès",
    "state_id": 26,
    "postal_code": "27170",
    "state_name": "Eure",
    "query": ""
  },
  {
    "id": 9847,
    "name": "Le Tilleul-Lambert",
    "state_id": 26,
    "postal_code": "27110",
    "state_name": "Eure",
    "query": ""
  },
  {
    "id": 9848,
    "name": "Tillières-sur-Avre",
    "state_id": 26,
    "postal_code": "27570",
    "state_name": "Eure",
    "query": "https://www.facebook.com/events/search?q=Classics&sde=Abq6hpNmijm8kReC4KYmmDP0NuT4IxNliFRnd3vuRZUj8uh4BsVIK3dVq186DripYNQbuwiy5LR0V3y0W_iqLV_W&filters=eyJycF9ldmVudHNfbG9jYXRpb246MCI6IntcIm5hbWVcIjpcImZpbHRlcl9ldmVudHNfbG9jYXRpb25cIixcImFyZ3NcIjpcIjExMjExNDYzNTQ3MTU2NVwifSJ9"
  },
  {
    "id": 9849,
    "name": "Tilly",
    "state_id": 26,
    "postal_code": "27510",
    "state_name": "Eure",
    "query": "https://www.facebook.com/events/search?q=Classics&sde=Abq6hpNmijm8kReC4KYmmDP0NuT4IxNliFRnd3vuRZUj8uh4BsVIK3dVq186DripYNQbuwiy5LR0V3y0W_iqLV_W&filters=eyJycF9ldmVudHNfbG9jYXRpb246MCI6IntcIm5hbWVcIjpcImZpbHRlcl9ldmVudHNfbG9jYXRpb25cIixcImFyZ3NcIjpcIjExNDEwMTk5NTI2NzQwOFwifSJ9"
  },
  {
    "id": 9850,
    "name": "Tocqueville",
    "state_id": 26,
    "postal_code": "27500",
    "state_name": "Eure",
    "query": "https://www.facebook.com/events/search?q=Classics&sde=Abq6hpNmijm8kReC4KYmmDP0NuT4IxNliFRnd3vuRZUj8uh4BsVIK3dVq186DripYNQbuwiy5LR0V3y0W_iqLV_W&filters=eyJycF9ldmVudHNfbG9jYXRpb246MCI6IntcIm5hbWVcIjpcImZpbHRlcl9ldmVudHNfbG9jYXRpb25cIixcImFyZ3NcIjpcIjExMDQ1NjEwNTY0ODA4MVwifSJ9"
  },
  {
    "id": 9851,
    "name": "Le Torpt",
    "state_id": 26,
    "postal_code": "27210",
    "state_name": "Eure",
    "query": "https://www.facebook.com/events/search?q=Classics&sde=Abq6hpNmijm8kReC4KYmmDP0NuT4IxNliFRnd3vuRZUj8uh4BsVIK3dVq186DripYNQbuwiy5LR0V3y0W_iqLV_W&filters=eyJycF9ldmVudHNfbG9jYXRpb246MCI6IntcIm5hbWVcIjpcImZpbHRlcl9ldmVudHNfbG9jYXRpb25cIixcImFyZ3NcIjpcIjEwMzM4MzcxNjM2OTk5N1wifSJ9"
  },
  {
    "id": 9852,
    "name": "Touffreville",
    "state_id": 26,
    "postal_code": "27440",
    "state_name": "Eure",
    "query": "https://www.facebook.com/events/search?q=Classics&sde=Abq6hpNmijm8kReC4KYmmDP0NuT4IxNliFRnd3vuRZUj8uh4BsVIK3dVq186DripYNQbuwiy5LR0V3y0W_iqLV_W&filters=eyJycF9ldmVudHNfbG9jYXRpb246MCI6IntcIm5hbWVcIjpcImZpbHRlcl9ldmVudHNfbG9jYXRpb25cIixcImFyZ3NcIjpcIjExMDU1MjYzNTYzMTEwOFwifSJ9"
  },
  {
    "id": 9853,
    "name": "Tournedos-Bois-Hubert",
    "state_id": 26,
    "postal_code": "27180",
    "state_name": "Eure",
    "query": "https://www.facebook.com/events/search?q=Classics&sde=Abq6hpNmijm8kReC4KYmmDP0NuT4IxNliFRnd3vuRZUj8uh4BsVIK3dVq186DripYNQbuwiy5LR0V3y0W_iqLV_W&filters=eyJycF9ldmVudHNfbG9jYXRpb246MCI6IntcIm5hbWVcIjpcImZpbHRlcl9ldmVudHNfbG9jYXRpb25cIixcImFyZ3NcIjpcIjEwOTY2NjA0MjM5ODY5OFwifSJ9"
  },
  {
    "id": 9854,
    "name": "Tourneville",
    "state_id": 26,
    "postal_code": "27930",
    "state_name": "Eure",
    "query": ""
  },
  {
    "id": 9855,
    "name": "Tourville-la-Campagne",
    "state_id": 26,
    "postal_code": "27370",
    "state_name": "Eure",
    "query": "https://www.facebook.com/events/search?q=Classics&sde=Abq6hpNmijm8kReC4KYmmDP0NuT4IxNliFRnd3vuRZUj8uh4BsVIK3dVq186DripYNQbuwiy5LR0V3y0W_iqLV_W&filters=eyJycF9ldmVudHNfbG9jYXRpb246MCI6IntcIm5hbWVcIjpcImZpbHRlcl9ldmVudHNfbG9jYXRpb25cIixcImFyZ3NcIjpcIjEwOTUwMzgxNTc0ODMzN1wifSJ9"
  },
  {
    "id": 9856,
    "name": "Tourville-sur-Pont-Audemer",
    "state_id": 26,
    "postal_code": "27500",
    "state_name": "Eure",
    "query": "https://www.facebook.com/events/search?q=Classics&sde=Abq6hpNmijm8kReC4KYmmDP0NuT4IxNliFRnd3vuRZUj8uh4BsVIK3dVq186DripYNQbuwiy5LR0V3y0W_iqLV_W&filters=eyJycF9ldmVudHNfbG9jYXRpb246MCI6IntcIm5hbWVcIjpcImZpbHRlcl9ldmVudHNfbG9jYXRpb25cIixcImFyZ3NcIjpcIjExMjAzNDUzMjE1MzQ4NVwifSJ9"
  },
  {
    "id": 9857,
    "name": "Toutainville",
    "state_id": 26,
    "postal_code": "27500",
    "state_name": "Eure",
    "query": "https://www.facebook.com/events/search?q=Classics&sde=Abq6hpNmijm8kReC4KYmmDP0NuT4IxNliFRnd3vuRZUj8uh4BsVIK3dVq186DripYNQbuwiy5LR0V3y0W_iqLV_W&filters=eyJycF9ldmVudHNfbG9jYXRpb246MCI6IntcIm5hbWVcIjpcImZpbHRlcl9ldmVudHNfbG9jYXRpb25cIixcImFyZ3NcIjpcIjExMjYwMTg5MjA5MDkwNlwifSJ9"
  },
  {
    "id": 9858,
    "name": "Le Tremblay-Omonville",
    "state_id": 26,
    "postal_code": "27110",
    "state_name": "Eure",
    "query": "https://www.facebook.com/events/search?q=Classics&sde=Abq6hpNmijm8kReC4KYmmDP0NuT4IxNliFRnd3vuRZUj8uh4BsVIK3dVq186DripYNQbuwiy5LR0V3y0W_iqLV_W&filters=eyJycF9ldmVudHNfbG9jYXRpb246MCI6IntcIm5hbWVcIjpcImZpbHRlcl9ldmVudHNfbG9jYXRpb25cIixcImFyZ3NcIjpcIjEwNzAwMzYyNjAwNjQzOVwifSJ9"
  },
  {
    "id": 9859,
    "name": "La Trinité",
    "state_id": 26,
    "postal_code": "27930",
    "state_name": "Eure",
    "query": "https://www.facebook.com/events/search?q=Classics&sde=Abq6hpNmijm8kReC4KYmmDP0NuT4IxNliFRnd3vuRZUj8uh4BsVIK3dVq186DripYNQbuwiy5LR0V3y0W_iqLV_W&filters=eyJycF9ldmVudHNfbG9jYXRpb246MCI6IntcIm5hbWVcIjpcImZpbHRlcl9ldmVudHNfbG9jYXRpb25cIixcImFyZ3NcIjpcIjEwOTM5ODAxMjQxMjk0MFwifSJ9"
  },
  {
    "id": 9860,
    "name": "La Trinité-de-Réville",
    "state_id": 26,
    "postal_code": "27270",
    "state_name": "Eure",
    "query": "https://www.facebook.com/events/search?q=Classics&sde=Abq6hpNmijm8kReC4KYmmDP0NuT4IxNliFRnd3vuRZUj8uh4BsVIK3dVq186DripYNQbuwiy5LR0V3y0W_iqLV_W&filters=eyJycF9ldmVudHNfbG9jYXRpb246MCI6IntcIm5hbWVcIjpcImZpbHRlcl9ldmVudHNfbG9jYXRpb25cIixcImFyZ3NcIjpcIjExMTcyNzI5NTUxNTg3M1wifSJ9"
  },
  {
    "id": 9861,
    "name": "La Trinité-de-Thouberville",
    "state_id": 26,
    "postal_code": "27310",
    "state_name": "Eure",
    "query": ""
  },
  {
    "id": 9862,
    "name": "Triqueville",
    "state_id": 26,
    "postal_code": "27500",
    "state_name": "Eure",
    "query": "https://www.facebook.com/events/search?q=Classics&sde=Abq6hpNmijm8kReC4KYmmDP0NuT4IxNliFRnd3vuRZUj8uh4BsVIK3dVq186DripYNQbuwiy5LR0V3y0W_iqLV_W&filters=eyJycF9ldmVudHNfbG9jYXRpb246MCI6IntcIm5hbWVcIjpcImZpbHRlcl9ldmVudHNfbG9jYXRpb25cIixcImFyZ3NcIjpcIjExMDQ1NjEwNTY0ODA4MVwifSJ9"
  },
  {
    "id": 9863,
    "name": "Le Troncq",
    "state_id": 26,
    "postal_code": "27110",
    "state_name": "Eure",
    "query": ""
  },
  {
    "id": 9864,
    "name": "Le Tronquay",
    "state_id": 26,
    "postal_code": "27480",
    "state_name": "Eure",
    "query": "https://www.facebook.com/events/search?q=Classics&sde=Abq6hpNmijm8kReC4KYmmDP0NuT4IxNliFRnd3vuRZUj8uh4BsVIK3dVq186DripYNQbuwiy5LR0V3y0W_iqLV_W&filters=eyJycF9ldmVudHNfbG9jYXRpb246MCI6IntcIm5hbWVcIjpcImZpbHRlcl9ldmVudHNfbG9jYXRpb25cIixcImFyZ3NcIjpcIjEwNzAwODA1MjY2Mzg3MFwifSJ9"
  },
  {
    "id": 9865,
    "name": "Trouville-la-Haule",
    "state_id": 26,
    "postal_code": "27680",
    "state_name": "Eure",
    "query": "https://www.facebook.com/events/search?q=Classics&sde=Abq6hpNmijm8kReC4KYmmDP0NuT4IxNliFRnd3vuRZUj8uh4BsVIK3dVq186DripYNQbuwiy5LR0V3y0W_iqLV_W&filters=eyJycF9ldmVudHNfbG9jYXRpb246MCI6IntcIm5hbWVcIjpcImZpbHRlcl9ldmVudHNfbG9jYXRpb25cIixcImFyZ3NcIjpcIjEwNzQ4NjU1MjYxOTgzNFwifSJ9"
  },
  {
    "id": 9866,
    "name": "La Vacherie",
    "state_id": 26,
    "postal_code": "27400",
    "state_name": "Eure",
    "query": "https://www.facebook.com/events/search?q=Classics&sde=Abq6hpNmijm8kReC4KYmmDP0NuT4IxNliFRnd3vuRZUj8uh4BsVIK3dVq186DripYNQbuwiy5LR0V3y0W_iqLV_W&filters=eyJycF9ldmVudHNfbG9jYXRpb246MCI6IntcIm5hbWVcIjpcImZpbHRlcl9ldmVudHNfbG9jYXRpb25cIixcImFyZ3NcIjpcIjEwOTIzMDAzNTc2NDY0NFwifSJ9"
  },
  {
    "id": 9867,
    "name": "Valailles",
    "state_id": 26,
    "postal_code": "27300",
    "state_name": "Eure",
    "query": "https://www.facebook.com/events/search?q=Classics&sde=Abq6hpNmijm8kReC4KYmmDP0NuT4IxNliFRnd3vuRZUj8uh4BsVIK3dVq186DripYNQbuwiy5LR0V3y0W_iqLV_W&filters=eyJycF9ldmVudHNfbG9jYXRpb246MCI6IntcIm5hbWVcIjpcImZpbHRlcl9ldmVudHNfbG9jYXRpb25cIixcImFyZ3NcIjpcIjExMzA5NzkwODcxNjg4OVwifSJ9"
  },
  {
    "id": 9868,
    "name": "Le Val-David",
    "state_id": 26,
    "postal_code": "27120",
    "state_name": "Eure",
    "query": "https://www.facebook.com/events/search?q=Classics&sde=Abq6hpNmijm8kReC4KYmmDP0NuT4IxNliFRnd3vuRZUj8uh4BsVIK3dVq186DripYNQbuwiy5LR0V3y0W_iqLV_W&filters=eyJycF9ldmVudHNfbG9jYXRpb246MCI6IntcIm5hbWVcIjpcImZpbHRlcl9ldmVudHNfbG9jYXRpb25cIixcImFyZ3NcIjpcIjEwOTQ5NjY1NTc0ODI2N1wifSJ9"
  },
  {
    "id": 9869,
    "name": "Valletot",
    "state_id": 26,
    "postal_code": "27350",
    "state_name": "Eure",
    "query": "https://www.facebook.com/events/search?q=Classics&sde=Abq6hpNmijm8kReC4KYmmDP0NuT4IxNliFRnd3vuRZUj8uh4BsVIK3dVq186DripYNQbuwiy5LR0V3y0W_iqLV_W&filters=eyJycF9ldmVudHNfbG9jYXRpb246MCI6IntcIm5hbWVcIjpcImZpbHRlcl9ldmVudHNfbG9jYXRpb25cIixcImFyZ3NcIjpcIjExMjY2NDMwNTQxODU2N1wifSJ9"
  },
  {
    "id": 9870,
    "name": "Vandrimare",
    "state_id": 26,
    "postal_code": "27380",
    "state_name": "Eure",
    "query": "https://www.facebook.com/events/search?q=Classics&sde=Abq6hpNmijm8kReC4KYmmDP0NuT4IxNliFRnd3vuRZUj8uh4BsVIK3dVq186DripYNQbuwiy5LR0V3y0W_iqLV_W&filters=eyJycF9ldmVudHNfbG9jYXRpb246MCI6IntcIm5hbWVcIjpcImZpbHRlcl9ldmVudHNfbG9jYXRpb25cIixcImFyZ3NcIjpcIjExMzI0MzM4ODcwMTEwOFwifSJ9"
  },
  {
    "id": 9871,
    "name": "Vannecrocq",
    "state_id": 26,
    "postal_code": "27210",
    "state_name": "Eure",
    "query": ""
  },
  {
    "id": 9872,
    "name": "Vascœuil",
    "state_id": 26,
    "postal_code": "27910",
    "state_name": "Eure",
    "query": "https://www.facebook.com/events/search?q=Classics&sde=Abq6hpNmijm8kReC4KYmmDP0NuT4IxNliFRnd3vuRZUj8uh4BsVIK3dVq186DripYNQbuwiy5LR0V3y0W_iqLV_W&filters=eyJycF9ldmVudHNfbG9jYXRpb246MCI6IntcIm5hbWVcIjpcImZpbHRlcl9ldmVudHNfbG9jYXRpb25cIixcImFyZ3NcIjpcIjEwMzM0OTE5NjM3Mzc4M1wifSJ9"
  },
  {
    "id": 9873,
    "name": "Vatteville",
    "state_id": 26,
    "postal_code": "27430",
    "state_name": "Eure",
    "query": "https://www.facebook.com/events/search?q=Classics&sde=Abq6hpNmijm8kReC4KYmmDP0NuT4IxNliFRnd3vuRZUj8uh4BsVIK3dVq186DripYNQbuwiy5LR0V3y0W_iqLV_W&filters=eyJycF9ldmVudHNfbG9jYXRpb246MCI6IntcIm5hbWVcIjpcImZpbHRlcl9ldmVudHNfbG9jYXRpb25cIixcImFyZ3NcIjpcIjExMjUyMzEzODc2NTU2OVwifSJ9"
  },
  {
    "id": 9874,
    "name": "Vaux-sur-Eure",
    "state_id": 26,
    "postal_code": "27120",
    "state_name": "Eure",
    "query": ""
  },
  {
    "id": 9875,
    "name": "Les Trois Lacs",
    "state_id": 26,
    "postal_code": "27700",
    "state_name": "Eure",
    "query": ""
  },
  {
    "id": 9876,
    "name": "Venon",
    "state_id": 26,
    "postal_code": "27110",
    "state_name": "Eure",
    "query": ""
  },
  {
    "id": 9877,
    "name": "Les Ventes",
    "state_id": 26,
    "postal_code": "27180",
    "state_name": "Eure",
    "query": "https://www.facebook.com/events/search?q=Classics&sde=Abq6hpNmijm8kReC4KYmmDP0NuT4IxNliFRnd3vuRZUj8uh4BsVIK3dVq186DripYNQbuwiy5LR0V3y0W_iqLV_W&filters=eyJycF9ldmVudHNfbG9jYXRpb246MCI6IntcIm5hbWVcIjpcImZpbHRlcl9ldmVudHNfbG9jYXRpb25cIixcImFyZ3NcIjpcIjEwODA4MTU0MjU0NTUxMVwifSJ9"
  },
  {
    "id": 9878,
    "name": "Verneuil d'Avre et d'Iton",
    "state_id": 26,
    "postal_code": "27130",
    "state_name": "Eure",
    "query": ""
  },
  {
    "id": 9879,
    "name": "Verneusses",
    "state_id": 26,
    "postal_code": "27390",
    "state_name": "Eure",
    "query": "https://www.facebook.com/events/search?q=Classics&sde=Abq6hpNmijm8kReC4KYmmDP0NuT4IxNliFRnd3vuRZUj8uh4BsVIK3dVq186DripYNQbuwiy5LR0V3y0W_iqLV_W&filters=eyJycF9ldmVudHNfbG9jYXRpb246MCI6IntcIm5hbWVcIjpcImZpbHRlcl9ldmVudHNfbG9jYXRpb25cIixcImFyZ3NcIjpcIjEwNzQ5MTAyMjYyMDI2NlwifSJ9"
  },
  {
    "id": 9880,
    "name": "Vernon",
    "state_id": 26,
    "postal_code": "27200",
    "state_name": "Eure",
    "query": "https://www.facebook.com/events/search?q=Classics&sde=Abq6hpNmijm8kReC4KYmmDP0NuT4IxNliFRnd3vuRZUj8uh4BsVIK3dVq186DripYNQbuwiy5LR0V3y0W_iqLV_W&filters=eyJycF9ldmVudHNfbG9jYXRpb246MCI6IntcIm5hbWVcIjpcImZpbHRlcl9ldmVudHNfbG9jYXRpb25cIixcImFyZ3NcIjpcIjEwNDAzNjMxOTYzMTkxNFwifSJ9"
  },
  {
    "id": 9881,
    "name": "Vesly",
    "state_id": 26,
    "postal_code": "27870",
    "state_name": "Eure",
    "query": "https://www.facebook.com/events/search?q=Classics&sde=Abq6hpNmijm8kReC4KYmmDP0NuT4IxNliFRnd3vuRZUj8uh4BsVIK3dVq186DripYNQbuwiy5LR0V3y0W_iqLV_W&filters=eyJycF9ldmVudHNfbG9jYXRpb246MCI6IntcIm5hbWVcIjpcImZpbHRlcl9ldmVudHNfbG9jYXRpb25cIixcImFyZ3NcIjpcIjExMDM4OTMyODk4MDgzNVwifSJ9"
  },
  {
    "id": 9882,
    "name": "Vézillon",
    "state_id": 26,
    "postal_code": "27700",
    "state_name": "Eure",
    "query": ""
  },
  {
    "id": 9883,
    "name": "Le Vieil-Évreux",
    "state_id": 26,
    "postal_code": "27930",
    "state_name": "Eure",
    "query": "https://www.facebook.com/events/search?q=Classics&sde=Abq6hpNmijm8kReC4KYmmDP0NuT4IxNliFRnd3vuRZUj8uh4BsVIK3dVq186DripYNQbuwiy5LR0V3y0W_iqLV_W&filters=eyJycF9ldmVudHNfbG9jYXRpb246MCI6IntcIm5hbWVcIjpcImZpbHRlcl9ldmVudHNfbG9jYXRpb25cIixcImFyZ3NcIjpcIjEwMzExMjAzNjM5NjQ2OVwifSJ9"
  },
  {
    "id": 9884,
    "name": "La Vieille-Lyre",
    "state_id": 26,
    "postal_code": "27330",
    "state_name": "Eure",
    "query": "https://www.facebook.com/events/search?q=Classics&sde=Abq6hpNmijm8kReC4KYmmDP0NuT4IxNliFRnd3vuRZUj8uh4BsVIK3dVq186DripYNQbuwiy5LR0V3y0W_iqLV_W&filters=eyJycF9ldmVudHNfbG9jYXRpb246MCI6IntcIm5hbWVcIjpcImZpbHRlcl9ldmVudHNfbG9jYXRpb25cIixcImFyZ3NcIjpcIjEwOTAwMDA1MjQ2NjkwMFwifSJ9"
  },
  {
    "id": 9885,
    "name": "Vieux-Port",
    "state_id": 26,
    "postal_code": "27680",
    "state_name": "Eure",
    "query": ""
  },
  {
    "id": 9886,
    "name": "Villegats",
    "state_id": 26,
    "postal_code": "27120",
    "state_name": "Eure",
    "query": ""
  },
  {
    "id": 9887,
    "name": "Villers-en-Vexin",
    "state_id": 26,
    "postal_code": "27420",
    "state_name": "Eure",
    "query": ""
  },
  {
    "id": 9888,
    "name": "Villers-sur-le-Roule",
    "state_id": 26,
    "postal_code": "27940",
    "state_name": "Eure",
    "query": "https://www.facebook.com/events/search?q=Classics&sde=Abq6hpNmijm8kReC4KYmmDP0NuT4IxNliFRnd3vuRZUj8uh4BsVIK3dVq186DripYNQbuwiy5LR0V3y0W_iqLV_W&filters=eyJycF9ldmVudHNfbG9jYXRpb246MCI6IntcIm5hbWVcIjpcImZpbHRlcl9ldmVudHNfbG9jYXRpb25cIixcImFyZ3NcIjpcIjEwOTcyNzczMjM5MTY5M1wifSJ9"
  },
  {
    "id": 9889,
    "name": "Villettes",
    "state_id": 26,
    "postal_code": "27110",
    "state_name": "Eure",
    "query": "https://www.facebook.com/events/search?q=Classics&sde=Abq6hpNmijm8kReC4KYmmDP0NuT4IxNliFRnd3vuRZUj8uh4BsVIK3dVq186DripYNQbuwiy5LR0V3y0W_iqLV_W&filters=eyJycF9ldmVudHNfbG9jYXRpb246MCI6IntcIm5hbWVcIjpcImZpbHRlcl9ldmVudHNfbG9jYXRpb25cIixcImFyZ3NcIjpcIjEwOTM0NjUwOTA5MTU5MlwifSJ9"
  },
  {
    "id": 9890,
    "name": "Sylvains-Lès-Moulins",
    "state_id": 26,
    "postal_code": "27240",
    "state_name": "Eure",
    "query": ""
  },
  {
    "id": 9891,
    "name": "Villez-sous-Bailleul",
    "state_id": 26,
    "postal_code": "27950",
    "state_name": "Eure",
    "query": ""
  },
  {
    "id": 9892,
    "name": "Villez-sur-le-Neubourg",
    "state_id": 26,
    "postal_code": "27110",
    "state_name": "Eure",
    "query": "https://www.facebook.com/events/search?q=Classics&sde=Abq6hpNmijm8kReC4KYmmDP0NuT4IxNliFRnd3vuRZUj8uh4BsVIK3dVq186DripYNQbuwiy5LR0V3y0W_iqLV_W&filters=eyJycF9ldmVudHNfbG9jYXRpb246MCI6IntcIm5hbWVcIjpcImZpbHRlcl9ldmVudHNfbG9jYXRpb25cIixcImFyZ3NcIjpcIjEwMzMzMzY3NjM3NDk1OVwifSJ9"
  },
  {
    "id": 9893,
    "name": "Villiers-en-Désœuvre",
    "state_id": 26,
    "postal_code": "27640",
    "state_name": "Eure",
    "query": "https://www.facebook.com/events/search?q=Classics&sde=Abq6hpNmijm8kReC4KYmmDP0NuT4IxNliFRnd3vuRZUj8uh4BsVIK3dVq186DripYNQbuwiy5LR0V3y0W_iqLV_W&filters=eyJycF9ldmVudHNfbG9jYXRpb246MCI6IntcIm5hbWVcIjpcImZpbHRlcl9ldmVudHNfbG9jYXRpb25cIixcImFyZ3NcIjpcIjEwMzM1MjQwNjM3MjY5MlwifSJ9"
  },
  {
    "id": 9894,
    "name": "Vironvay",
    "state_id": 26,
    "postal_code": "27400",
    "state_name": "Eure",
    "query": "https://www.facebook.com/events/search?q=Classics&sde=Abq6hpNmijm8kReC4KYmmDP0NuT4IxNliFRnd3vuRZUj8uh4BsVIK3dVq186DripYNQbuwiy5LR0V3y0W_iqLV_W&filters=eyJycF9ldmVudHNfbG9jYXRpb246MCI6IntcIm5hbWVcIjpcImZpbHRlcl9ldmVudHNfbG9jYXRpb25cIixcImFyZ3NcIjpcIjExMjg3MTcyMjA3MjkzMVwifSJ9"
  },
  {
    "id": 9895,
    "name": "Vitot",
    "state_id": 26,
    "postal_code": "27110",
    "state_name": "Eure",
    "query": ""
  },
  {
    "id": 9896,
    "name": "Voiscreville",
    "state_id": 26,
    "postal_code": "27520",
    "state_name": "Eure",
    "query": "https://www.facebook.com/events/search?q=Classics&sde=Abq6hpNmijm8kReC4KYmmDP0NuT4IxNliFRnd3vuRZUj8uh4BsVIK3dVq186DripYNQbuwiy5LR0V3y0W_iqLV_W&filters=eyJycF9ldmVudHNfbG9jYXRpb246MCI6IntcIm5hbWVcIjpcImZpbHRlcl9ldmVudHNfbG9jYXRpb25cIixcImFyZ3NcIjpcIjExNTUyOTA3NTEzMTE0MlwifSJ9"
  },
  {
    "id": 9897,
    "name": "Vraiville",
    "state_id": 26,
    "postal_code": "27370",
    "state_name": "Eure",
    "query": "https://www.facebook.com/events/search?q=Classics&sde=Abq6hpNmijm8kReC4KYmmDP0NuT4IxNliFRnd3vuRZUj8uh4BsVIK3dVq186DripYNQbuwiy5LR0V3y0W_iqLV_W&filters=eyJycF9ldmVudHNfbG9jYXRpb246MCI6IntcIm5hbWVcIjpcImZpbHRlcl9ldmVudHNfbG9jYXRpb25cIixcImFyZ3NcIjpcIjEwODEzMDU5MjU0ODY2NFwifSJ9"
  },
  {
    "id": 9898,
    "name": "Val-de-Reuil",
    "state_id": 26,
    "postal_code": "27100",
    "state_name": "Eure",
    "query": ""
  }
]