[
  {
    "id": 23117,
    "name": "Alençon",
    "state_id": 62,
    "postal_code": "61000",
    "state_name": "Orne",
    "query": "https://www.facebook.com/events/search?q=Gardening&sde=Abq6hpNmijm8kReC4KYmmDP0NuT4IxNliFRnd3vuRZUj8uh4BsVIK3dVq186DripYNQbuwiy5LR0V3y0W_iqLV_W&filters=eyJycF9ldmVudHNfbG9jYXRpb246MCI6IntcIm5hbWVcIjpcImZpbHRlcl9ldmVudHNfbG9jYXRpb25cIixcImFyZ3NcIjpcIjEwNTQ4MDg2NjE1MzM4NVwifSJ9"
  },
  {
    "id": 23118,
    "name": "Almenêches",
    "state_id": 62,
    "postal_code": "61570",
    "state_name": "Orne",
    "query": "https://www.facebook.com/events/search/?q=Gardening&sde=Abq6hpNmijm8kReC4KYmmDP0NuT4IxNliFRnd3vuRZUj8uh4BsVIK3dVq186DripYNQbuwiy5LR0V3y0W_iqLV_W&filters=eyJycF9ldmVudHNfbG9jYXRpb246MCI6IntcIm5hbWVcIjpcImZpbHRlcl9ldmVudHNfbG9jYXRpb25cIixcImFyZ3NcIjpcIjEwNzY5MDMxOTI1ODcxOFwifSJ9"
  },
  {
    "id": 23119,
    "name": "Appenai-sous-Bellême",
    "state_id": 62,
    "postal_code": "61130",
    "state_name": "Orne",
    "query": "https://www.facebook.com/events/search/?q=Gardening&sde=Abq6hpNmijm8kReC4KYmmDP0NuT4IxNliFRnd3vuRZUj8uh4BsVIK3dVq186DripYNQbuwiy5LR0V3y0W_iqLV_W&filters=eyJycF9ldmVudHNfbG9jYXRpb246MCI6IntcIm5hbWVcIjpcImZpbHRlcl9ldmVudHNfbG9jYXRpb25cIixcImFyZ3NcIjpcIjEwNzAwMTE0NjAwNjIyM1wifSJ9"
  },
  {
    "id": 23120,
    "name": "Argentan",
    "state_id": 62,
    "postal_code": "61200",
    "state_name": "Orne",
    "query": "https://www.facebook.com/events/search/?q=Gardening&sde=Abq6hpNmijm8kReC4KYmmDP0NuT4IxNliFRnd3vuRZUj8uh4BsVIK3dVq186DripYNQbuwiy5LR0V3y0W_iqLV_W&filters=eyJycF9ldmVudHNfbG9jYXRpb246MCI6IntcIm5hbWVcIjpcImZpbHRlcl9ldmVudHNfbG9jYXRpb25cIixcImFyZ3NcIjpcIjEwMjE2NjcyMzE1ODUxMFwifSJ9"
  },
  {
    "id": 23121,
    "name": "Athis-Val de Rouvre",
    "state_id": 62,
    "postal_code": "61100",
    "state_name": "Orne",
    "query": ""
  },
  {
    "id": 23122,
    "name": "Aube",
    "state_id": 62,
    "postal_code": "61270",
    "state_name": "Orne",
    "query": "https://www.facebook.com/events/search?q=Gardening&sde=Abq6hpNmijm8kReC4KYmmDP0NuT4IxNliFRnd3vuRZUj8uh4BsVIK3dVq186DripYNQbuwiy5LR0V3y0W_iqLV_W&filters=eyJycF9ldmVudHNfbG9jYXRpb246MCI6IntcIm5hbWVcIjpcImZpbHRlcl9ldmVudHNfbG9jYXRpb25cIixcImFyZ3NcIjpcIjExMjk5NDg5ODcxNDQzOVwifSJ9"
  },
  {
    "id": 23123,
    "name": "Aubry-le-Panthou",
    "state_id": 62,
    "postal_code": "61120",
    "state_name": "Orne",
    "query": ""
  },
  {
    "id": 23124,
    "name": "Aubusson",
    "state_id": 62,
    "postal_code": "61100",
    "state_name": "Orne",
    "query": "https://www.facebook.com/events/search/?q=Gardening&sde=Abq6hpNmijm8kReC4KYmmDP0NuT4IxNliFRnd3vuRZUj8uh4BsVIK3dVq186DripYNQbuwiy5LR0V3y0W_iqLV_W&filters=eyJycF9ldmVudHNfbG9jYXRpb246MCI6IntcIm5hbWVcIjpcImZpbHRlcl9ldmVudHNfbG9jYXRpb25cIixcImFyZ3NcIjpcIjEwMDI0Mzg3MDAxNzEzM1wifSJ9"
  },
  {
    "id": 23125,
    "name": "Auguaise",
    "state_id": 62,
    "postal_code": "61270",
    "state_name": "Orne",
    "query": ""
  },
  {
    "id": 23126,
    "name": "Aunay-les-Bois",
    "state_id": 62,
    "postal_code": "61500",
    "state_name": "Orne",
    "query": "https://www.facebook.com/events/search/?q=Gardening&sde=Abq6hpNmijm8kReC4KYmmDP0NuT4IxNliFRnd3vuRZUj8uh4BsVIK3dVq186DripYNQbuwiy5LR0V3y0W_iqLV_W&filters=eyJycF9ldmVudHNfbG9jYXRpb246MCI6IntcIm5hbWVcIjpcImZpbHRlcl9ldmVudHNfbG9jYXRpb25cIixcImFyZ3NcIjpcIjExMTg4ODk5NTUwMTkwMlwifSJ9"
  },
  {
    "id": 23127,
    "name": "Aunou-le-Faucon",
    "state_id": 62,
    "postal_code": "61200",
    "state_name": "Orne",
    "query": ""
  },
  {
    "id": 23128,
    "name": "Aunou-sur-Orne",
    "state_id": 62,
    "postal_code": "61500",
    "state_name": "Orne",
    "query": "https://www.facebook.com/events/search?q=Gardening&sde=Abq6hpNmijm8kReC4KYmmDP0NuT4IxNliFRnd3vuRZUj8uh4BsVIK3dVq186DripYNQbuwiy5LR0V3y0W_iqLV_W&filters=eyJycF9ldmVudHNfbG9jYXRpb246MCI6IntcIm5hbWVcIjpcImZpbHRlcl9ldmVudHNfbG9jYXRpb25cIixcImFyZ3NcIjpcIjExMjYxMzQ1ODc2NDM0MlwifSJ9"
  },
  {
    "id": 23129,
    "name": "Les Authieux-du-Puits",
    "state_id": 62,
    "postal_code": "61240",
    "state_name": "Orne",
    "query": ""
  },
  {
    "id": 23130,
    "name": "Avernes-Saint-Gourgon",
    "state_id": 62,
    "postal_code": "61470",
    "state_name": "Orne",
    "query": "https://www.facebook.com/events/search/?q=Gardening&sde=Abq6hpNmijm8kReC4KYmmDP0NuT4IxNliFRnd3vuRZUj8uh4BsVIK3dVq186DripYNQbuwiy5LR0V3y0W_iqLV_W&filters=eyJycF9ldmVudHNfbG9jYXRpb246MCI6IntcIm5hbWVcIjpcImZpbHRlcl9ldmVudHNfbG9jYXRpb25cIixcImFyZ3NcIjpcIjExMDc2MzYyMjI4Njg4NlwifSJ9"
  },
  {
    "id": 23131,
    "name": "Avoine",
    "state_id": 62,
    "postal_code": "61150",
    "state_name": "Orne",
    "query": "https://www.facebook.com/events/search/?q=Gardening&sde=Abq6hpNmijm8kReC4KYmmDP0NuT4IxNliFRnd3vuRZUj8uh4BsVIK3dVq186DripYNQbuwiy5LR0V3y0W_iqLV_W&filters=eyJycF9ldmVudHNfbG9jYXRpb246MCI6IntcIm5hbWVcIjpcImZpbHRlcl9ldmVudHNfbG9jYXRpb25cIixcImFyZ3NcIjpcIjEwODU4Mjg3OTE2NDI0M1wifSJ9"
  },
  {
    "id": 23132,
    "name": "Avrilly",
    "state_id": 62,
    "postal_code": "61700",
    "state_name": "Orne",
    "query": "https://www.facebook.com/events/search/?q=Gardening&sde=Abq6hpNmijm8kReC4KYmmDP0NuT4IxNliFRnd3vuRZUj8uh4BsVIK3dVq186DripYNQbuwiy5LR0V3y0W_iqLV_W&filters=eyJycF9ldmVudHNfbG9jYXRpb246MCI6IntcIm5hbWVcIjpcImZpbHRlcl9ldmVudHNfbG9jYXRpb25cIixcImFyZ3NcIjpcIjExMzM0NDYwODY3ODE5M1wifSJ9"
  },
  {
    "id": 23133,
    "name": "Bailleul",
    "state_id": 62,
    "postal_code": "61160",
    "state_name": "Orne",
    "query": ""
  },
  {
    "id": 23134,
    "name": "Banvou",
    "state_id": 62,
    "postal_code": "61450",
    "state_name": "Orne",
    "query": "https://www.facebook.com/events/search?q=Gardening&sde=Abq6hpNmijm8kReC4KYmmDP0NuT4IxNliFRnd3vuRZUj8uh4BsVIK3dVq186DripYNQbuwiy5LR0V3y0W_iqLV_W&filters=eyJycF9ldmVudHNfbG9jYXRpb246MCI6IntcIm5hbWVcIjpcImZpbHRlcl9ldmVudHNfbG9jYXRpb25cIixcImFyZ3NcIjpcIjEwMzM2ODkxMzAzODIxM1wifSJ9"
  },
  {
    "id": 23135,
    "name": "Barville",
    "state_id": 62,
    "postal_code": "61170",
    "state_name": "Orne",
    "query": "https://www.facebook.com/events/search/?q=Gardening&sde=Abq6hpNmijm8kReC4KYmmDP0NuT4IxNliFRnd3vuRZUj8uh4BsVIK3dVq186DripYNQbuwiy5LR0V3y0W_iqLV_W&filters=eyJycF9ldmVudHNfbG9jYXRpb246MCI6IntcIm5hbWVcIjpcImZpbHRlcl9ldmVudHNfbG9jYXRpb25cIixcImFyZ3NcIjpcIjEwNjA4ODQ0NjA4OTQzNVwifSJ9"
  },
  {
    "id": 23136,
    "name": "Bazoches-au-Houlme",
    "state_id": 62,
    "postal_code": "61210",
    "state_name": "Orne",
    "query": "https://www.facebook.com/events/search/?q=Gardening&sde=Abq6hpNmijm8kReC4KYmmDP0NuT4IxNliFRnd3vuRZUj8uh4BsVIK3dVq186DripYNQbuwiy5LR0V3y0W_iqLV_W&filters=eyJycF9ldmVudHNfbG9jYXRpb246MCI6IntcIm5hbWVcIjpcImZpbHRlcl9ldmVudHNfbG9jYXRpb25cIixcImFyZ3NcIjpcIjEwOTU0MTE3MjQxMTM4OFwifSJ9"
  },
  {
    "id": 23137,
    "name": "Bazoches-sur-Hoëne",
    "state_id": 62,
    "postal_code": "61560",
    "state_name": "Orne",
    "query": "https://www.facebook.com/events/search/?q=Gardening&sde=Abq6hpNmijm8kReC4KYmmDP0NuT4IxNliFRnd3vuRZUj8uh4BsVIK3dVq186DripYNQbuwiy5LR0V3y0W_iqLV_W&filters=eyJycF9ldmVudHNfbG9jYXRpb246MCI6IntcIm5hbWVcIjpcImZpbHRlcl9ldmVudHNfbG9jYXRpb25cIixcImFyZ3NcIjpcIjExMDg5NTg5MjI3Mjg1NlwifSJ9"
  },
  {
    "id": 23138,
    "name": "La Bazoque",
    "state_id": 62,
    "postal_code": "61100",
    "state_name": "Orne",
    "query": ""
  },
  {
    "id": 23139,
    "name": "Beaufai",
    "state_id": 62,
    "postal_code": "61270",
    "state_name": "Orne",
    "query": "https://www.facebook.com/events/search?q=Gardening&sde=Abq6hpNmijm8kReC4KYmmDP0NuT4IxNliFRnd3vuRZUj8uh4BsVIK3dVq186DripYNQbuwiy5LR0V3y0W_iqLV_W&filters=eyJycF9ldmVudHNfbG9jYXRpb246MCI6IntcIm5hbWVcIjpcImZpbHRlcl9ldmVudHNfbG9jYXRpb25cIixcImFyZ3NcIjpcIjEwODEyNTczMjU0ODg1MlwifSJ9"
  },
  {
    "id": 23140,
    "name": "Beaulieu",
    "state_id": 62,
    "postal_code": "61190",
    "state_name": "Orne",
    "query": "https://www.facebook.com/events/search/?q=Gardening&sde=Abq6hpNmijm8kReC4KYmmDP0NuT4IxNliFRnd3vuRZUj8uh4BsVIK3dVq186DripYNQbuwiy5LR0V3y0W_iqLV_W&filters=eyJycF9ldmVudHNfbG9jYXRpb246MCI6IntcIm5hbWVcIjpcImZpbHRlcl9ldmVudHNfbG9jYXRpb25cIixcImFyZ3NcIjpcIjEwMzc3MzgyOTY2MTMyM1wifSJ9"
  },
  {
    "id": 23141,
    "name": "Beauvain",
    "state_id": 62,
    "postal_code": "61600",
    "state_name": "Orne",
    "query": "https://www.facebook.com/events/search/?q=Gardening&sde=Abq6hpNmijm8kReC4KYmmDP0NuT4IxNliFRnd3vuRZUj8uh4BsVIK3dVq186DripYNQbuwiy5LR0V3y0W_iqLV_W&filters=eyJycF9ldmVudHNfbG9jYXRpb246MCI6IntcIm5hbWVcIjpcImZpbHRlcl9ldmVudHNfbG9jYXRpb25cIixcImFyZ3NcIjpcIjExMDkzNzg4MjI2MzEzMlwifSJ9"
  },
  {
    "id": 23142,
    "name": "Belfonds",
    "state_id": 62,
    "postal_code": "61500",
    "state_name": "Orne",
    "query": "https://www.facebook.com/events/search/?q=Gardening&sde=Abq6hpNmijm8kReC4KYmmDP0NuT4IxNliFRnd3vuRZUj8uh4BsVIK3dVq186DripYNQbuwiy5LR0V3y0W_iqLV_W&filters=eyJycF9ldmVudHNfbG9jYXRpb246MCI6IntcIm5hbWVcIjpcImZpbHRlcl9ldmVudHNfbG9jYXRpb25cIixcImFyZ3NcIjpcIjExMjYzODc1ODc1MzkyMFwifSJ9"
  },
  {
    "id": 23143,
    "name": "Bellavilliers",
    "state_id": 62,
    "postal_code": "61360",
    "state_name": "Orne",
    "query": "https://www.facebook.com/events/search/?q=Gardening&sde=Abq6hpNmijm8kReC4KYmmDP0NuT4IxNliFRnd3vuRZUj8uh4BsVIK3dVq186DripYNQbuwiy5LR0V3y0W_iqLV_W&filters=eyJycF9ldmVudHNfbG9jYXRpb246MCI6IntcIm5hbWVcIjpcImZpbHRlcl9ldmVudHNfbG9jYXRpb25cIixcImFyZ3NcIjpcIjEwODg5MjEzOTE0MzE0N1wifSJ9"
  },
  {
    "id": 23144,
    "name": "Bellême",
    "state_id": 62,
    "postal_code": "61130",
    "state_name": "Orne",
    "query": "https://www.facebook.com/events/search?q=Gardening&sde=Abq6hpNmijm8kReC4KYmmDP0NuT4IxNliFRnd3vuRZUj8uh4BsVIK3dVq186DripYNQbuwiy5LR0V3y0W_iqLV_W&filters=eyJycF9ldmVudHNfbG9jYXRpb246MCI6IntcIm5hbWVcIjpcImZpbHRlcl9ldmVudHNfbG9jYXRpb25cIixcImFyZ3NcIjpcIjEwNzU2MjkyMjYwNjcxOVwifSJ9"
  },
  {
    "id": 23145,
    "name": "La Bellière",
    "state_id": 62,
    "postal_code": "61570",
    "state_name": "Orne",
    "query": ""
  },
  {
    "id": 23146,
    "name": "Bellou-en-Houlme",
    "state_id": 62,
    "postal_code": "61220",
    "state_name": "Orne",
    "query": "https://www.facebook.com/events/search/?q=Gardening&sde=Abq6hpNmijm8kReC4KYmmDP0NuT4IxNliFRnd3vuRZUj8uh4BsVIK3dVq186DripYNQbuwiy5LR0V3y0W_iqLV_W&filters=eyJycF9ldmVudHNfbG9jYXRpb246MCI6IntcIm5hbWVcIjpcImZpbHRlcl9ldmVudHNfbG9jYXRpb25cIixcImFyZ3NcIjpcIjEwNDA1NDQxOTYzMDY2OVwifSJ9"
  },
  {
    "id": 23147,
    "name": "Bellou-le-Trichard",
    "state_id": 62,
    "postal_code": "61130",
    "state_name": "Orne",
    "query": ""
  },
  {
    "id": 23148,
    "name": "Berd'huis",
    "state_id": 62,
    "postal_code": "61340",
    "state_name": "Orne",
    "query": "https://www.facebook.com/events/search/?q=Gardening&sde=Abq6hpNmijm8kReC4KYmmDP0NuT4IxNliFRnd3vuRZUj8uh4BsVIK3dVq186DripYNQbuwiy5LR0V3y0W_iqLV_W&filters=eyJycF9ldmVudHNfbG9jYXRpb246MCI6IntcIm5hbWVcIjpcImZpbHRlcl9ldmVudHNfbG9jYXRpb25cIixcImFyZ3NcIjpcIjEwOTA2MzMzMjQ2MDc1N1wifSJ9"
  },
  {
    "id": 23149,
    "name": "Berjou",
    "state_id": 62,
    "postal_code": "61430",
    "state_name": "Orne",
    "query": "https://www.facebook.com/events/search/?q=Gardening&sde=Abq6hpNmijm8kReC4KYmmDP0NuT4IxNliFRnd3vuRZUj8uh4BsVIK3dVq186DripYNQbuwiy5LR0V3y0W_iqLV_W&filters=eyJycF9ldmVudHNfbG9jYXRpb246MCI6IntcIm5hbWVcIjpcImZpbHRlcl9ldmVudHNfbG9jYXRpb25cIixcImFyZ3NcIjpcIjEwOTc0MTcyNTcyMzQ3MFwifSJ9"
  },
  {
    "id": 23150,
    "name": "Bizou",
    "state_id": 62,
    "postal_code": "61290",
    "state_name": "Orne",
    "query": "https://www.facebook.com/events/search/?q=Gardening&sde=Abq6hpNmijm8kReC4KYmmDP0NuT4IxNliFRnd3vuRZUj8uh4BsVIK3dVq186DripYNQbuwiy5LR0V3y0W_iqLV_W&filters=eyJycF9ldmVudHNfbG9jYXRpb246MCI6IntcIm5hbWVcIjpcImZpbHRlcl9ldmVudHNfbG9jYXRpb25cIixcImFyZ3NcIjpcIjExMzQ3NzcxNTMzNjk3OVwifSJ9"
  },
  {
    "id": 23151,
    "name": "Boëcé",
    "state_id": 62,
    "postal_code": "61560",
    "state_name": "Orne",
    "query": ""
  },
  {
    "id": 23152,
    "name": "Boissei-la-Lande",
    "state_id": 62,
    "postal_code": "61570",
    "state_name": "Orne",
    "query": ""
  },
  {
    "id": 23153,
    "name": "Cour-Maugis sur Huisne",
    "state_id": 62,
    "postal_code": "61110",
    "state_name": "Orne",
    "query": ""
  },
  {
    "id": 23154,
    "name": "Boitron",
    "state_id": 62,
    "postal_code": "61500",
    "state_name": "Orne",
    "query": "https://www.facebook.com/events/search/?q=Gardening&sde=Abq6hpNmijm8kReC4KYmmDP0NuT4IxNliFRnd3vuRZUj8uh4BsVIK3dVq186DripYNQbuwiy5LR0V3y0W_iqLV_W&filters=eyJycF9ldmVudHNfbG9jYXRpb246MCI6IntcIm5hbWVcIjpcImZpbHRlcl9ldmVudHNfbG9jYXRpb25cIixcImFyZ3NcIjpcIjEwODk1NzkzNTc5Mjc5OVwifSJ9"
  },
  {
    "id": 23155,
    "name": "Bonnefoi",
    "state_id": 62,
    "postal_code": "61270",
    "state_name": "Orne",
    "query": "https://www.facebook.com/events/search/?q=Gardening&sde=Abq6hpNmijm8kReC4KYmmDP0NuT4IxNliFRnd3vuRZUj8uh4BsVIK3dVq186DripYNQbuwiy5LR0V3y0W_iqLV_W&filters=eyJycF9ldmVudHNfbG9jYXRpb246MCI6IntcIm5hbWVcIjpcImZpbHRlcl9ldmVudHNfbG9jYXRpb25cIixcImFyZ3NcIjpcIjEwODk3MjE5NTc5MTI3MlwifSJ9"
  },
  {
    "id": 23156,
    "name": "Bonsmoulins",
    "state_id": 62,
    "postal_code": "61380",
    "state_name": "Orne",
    "query": "https://www.facebook.com/events/search/?q=Fitness%20%26%20Workouts&sde=Abq6hpNmijm8kReC4KYmmDP0NuT4IxNliFRnd3vuRZUj8uh4BsVIK3dVq186DripYNQbuwiy5LR0V3y0W_iqLV_W&filters=eyJycF9ldmVudHNfbG9jYXRpb246MCI6IntcIm5hbWVcIjpcImZpbHRlcl9ldmVudHNfbG9jYXRpb25cIixcImFyZ3NcIjpcIjExMTM5NDk3NTU1NTk0MFwifSJ9"
  },
  {
    "id": 23157,
    "name": "Le Bosc-Renoult",
    "state_id": 62,
    "postal_code": "61470",
    "state_name": "Orne",
    "query": "https://www.facebook.com/events/search/?q=Fitness%20%26%20Workouts&sde=Abq6hpNmijm8kReC4KYmmDP0NuT4IxNliFRnd3vuRZUj8uh4BsVIK3dVq186DripYNQbuwiy5LR0V3y0W_iqLV_W&filters=eyJycF9ldmVudHNfbG9jYXRpb246MCI6IntcIm5hbWVcIjpcImZpbHRlcl9ldmVudHNfbG9jYXRpb25cIixcImFyZ3NcIjpcIjExNjUyNzIxMTY5NDk3NVwifSJ9"
  },
  {
    "id": 23158,
    "name": "Boucé",
    "state_id": 62,
    "postal_code": "61570",
    "state_name": "Orne",
    "query": "https://www.facebook.com/events/search/?q=Fitness%20%26%20Workouts&sde=Abq6hpNmijm8kReC4KYmmDP0NuT4IxNliFRnd3vuRZUj8uh4BsVIK3dVq186DripYNQbuwiy5LR0V3y0W_iqLV_W&filters=eyJycF9ldmVudHNfbG9jYXRpb246MCI6IntcIm5hbWVcIjpcImZpbHRlcl9ldmVudHNfbG9jYXRpb25cIixcImFyZ3NcIjpcIjQ3NjA5MzY2MjU0NzE1MFwifSJ9"
  },
  {
    "id": 23159,
    "name": "Le Bouillon",
    "state_id": 62,
    "postal_code": "61500",
    "state_name": "Orne",
    "query": "https://www.facebook.com/events/search/?q=Fitness%20%26%20Workouts&sde=Abq6hpNmijm8kReC4KYmmDP0NuT4IxNliFRnd3vuRZUj8uh4BsVIK3dVq186DripYNQbuwiy5LR0V3y0W_iqLV_W&filters=eyJycF9ldmVudHNfbG9jYXRpb246MCI6IntcIm5hbWVcIjpcImZpbHRlcl9ldmVudHNfbG9jYXRpb25cIixcImFyZ3NcIjpcIjExMDg3MTEwODk0MjA5M1wifSJ9"
  },
  {
    "id": 23160,
    "name": "Brethel",
    "state_id": 62,
    "postal_code": "61270",
    "state_name": "Orne",
    "query": ""
  },
  {
    "id": 23161,
    "name": "Bretoncelles",
    "state_id": 62,
    "postal_code": "61110",
    "state_name": "Orne",
    "query": "https://www.facebook.com/events/search/?q=Fitness%20%26%20Workouts&sde=Abq6hpNmijm8kReC4KYmmDP0NuT4IxNliFRnd3vuRZUj8uh4BsVIK3dVq186DripYNQbuwiy5LR0V3y0W_iqLV_W&filters=eyJycF9ldmVudHNfbG9jYXRpb246MCI6IntcIm5hbWVcIjpcImZpbHRlcl9ldmVudHNfbG9jYXRpb25cIixcImFyZ3NcIjpcIjEwMzM1ODYxMzAzOTg1OFwifSJ9"
  },
  {
    "id": 23162,
    "name": "Brieux",
    "state_id": 62,
    "postal_code": "61160",
    "state_name": "Orne",
    "query": ""
  },
  {
    "id": 23163,
    "name": "Briouze",
    "state_id": 62,
    "postal_code": "61220",
    "state_name": "Orne",
    "query": "https://www.facebook.com/events/search?q=Dance&sde=Abq6hpNmijm8kReC4KYmmDP0NuT4IxNliFRnd3vuRZUj8uh4BsVIK3dVq186DripYNQbuwiy5LR0V3y0W_iqLV_W&filters=eyJycF9ldmVudHNfbG9jYXRpb246MCI6IntcIm5hbWVcIjpcImZpbHRlcl9ldmVudHNfbG9jYXRpb25cIixcImFyZ3NcIjpcIjEwNjk2MjI3OTM0NDIxOFwifSJ9"
  },
  {
    "id": 23164,
    "name": "Brullemail",
    "state_id": 62,
    "postal_code": "61390",
    "state_name": "Orne",
    "query": ""
  },
  {
    "id": 23165,
    "name": "Buré",
    "state_id": 62,
    "postal_code": "61170",
    "state_name": "Orne",
    "query": ""
  },
  {
    "id": 23166,
    "name": "Bures",
    "state_id": 62,
    "postal_code": "61170",
    "state_name": "Orne",
    "query": "https://www.facebook.com/events/search?q=Dance&sde=Abq6hpNmijm8kReC4KYmmDP0NuT4IxNliFRnd3vuRZUj8uh4BsVIK3dVq186DripYNQbuwiy5LR0V3y0W_iqLV_W&filters=eyJycF9ldmVudHNfbG9jYXRpb246MCI6IntcIm5hbWVcIjpcImZpbHRlcl9ldmVudHNfbG9jYXRpb25cIixcImFyZ3NcIjpcIjEwODM4Mzc3NTg1ODE4MVwifSJ9"
  },
  {
    "id": 23167,
    "name": "Bursard",
    "state_id": 62,
    "postal_code": "61500",
    "state_name": "Orne",
    "query": "https://www.facebook.com/events/search?q=Dance&sde=Abq6hpNmijm8kReC4KYmmDP0NuT4IxNliFRnd3vuRZUj8uh4BsVIK3dVq186DripYNQbuwiy5LR0V3y0W_iqLV_W&filters=eyJycF9ldmVudHNfbG9jYXRpb246MCI6IntcIm5hbWVcIjpcImZpbHRlcl9ldmVudHNfbG9jYXRpb25cIixcImFyZ3NcIjpcIjExMTQ1NDAxODg3Njc4MVwifSJ9"
  },
  {
    "id": 23168,
    "name": "Cahan",
    "state_id": 62,
    "postal_code": "61430",
    "state_name": "Orne",
    "query": ""
  },
  {
    "id": 23169,
    "name": "Caligny",
    "state_id": 62,
    "postal_code": "61100",
    "state_name": "Orne",
    "query": "https://www.facebook.com/events/search?q=Dance&sde=Abq6hpNmijm8kReC4KYmmDP0NuT4IxNliFRnd3vuRZUj8uh4BsVIK3dVq186DripYNQbuwiy5LR0V3y0W_iqLV_W&filters=eyJycF9ldmVudHNfbG9jYXRpb246MCI6IntcIm5hbWVcIjpcImZpbHRlcl9ldmVudHNfbG9jYXRpb25cIixcImFyZ3NcIjpcIjEwOTM3ODAyMjQyNzc1M1wifSJ9"
  },
  {
    "id": 23170,
    "name": "Camembert",
    "state_id": 62,
    "postal_code": "61120",
    "state_name": "Orne",
    "query": ""
  },
  {
    "id": 23171,
    "name": "Canapville",
    "state_id": 62,
    "postal_code": "61120",
    "state_name": "Orne",
    "query": "https://www.facebook.com/events/search?q=Dance&sde=Abq6hpNmijm8kReC4KYmmDP0NuT4IxNliFRnd3vuRZUj8uh4BsVIK3dVq186DripYNQbuwiy5LR0V3y0W_iqLV_W&filters=eyJycF9ldmVudHNfbG9jYXRpb246MCI6IntcIm5hbWVcIjpcImZpbHRlcl9ldmVudHNfbG9jYXRpb25cIixcImFyZ3NcIjpcIjEwOTE5NTAxMjQ0MjAwOFwifSJ9"
  },
  {
    "id": 23172,
    "name": "Carrouges",
    "state_id": 62,
    "postal_code": "61320",
    "state_name": "Orne",
    "query": "https://www.facebook.com/events/search?q=Dance&sde=Abq6hpNmijm8kReC4KYmmDP0NuT4IxNliFRnd3vuRZUj8uh4BsVIK3dVq186DripYNQbuwiy5LR0V3y0W_iqLV_W&filters=eyJycF9ldmVudHNfbG9jYXRpb246MCI6IntcIm5hbWVcIjpcImZpbHRlcl9ldmVudHNfbG9jYXRpb25cIixcImFyZ3NcIjpcIjEwMzExODQ4OTcyNzc2OVwifSJ9"
  },
  {
    "id": 23173,
    "name": "Ceaucé",
    "state_id": 62,
    "postal_code": "61330",
    "state_name": "Orne",
    "query": "https://www.facebook.com/events/search?q=Dance&sde=Abq6hpNmijm8kReC4KYmmDP0NuT4IxNliFRnd3vuRZUj8uh4BsVIK3dVq186DripYNQbuwiy5LR0V3y0W_iqLV_W&filters=eyJycF9ldmVudHNfbG9jYXRpb246MCI6IntcIm5hbWVcIjpcImZpbHRlcl9ldmVudHNfbG9jYXRpb25cIixcImFyZ3NcIjpcIjExMzU4MDM3MTk4NzQxMVwifSJ9"
  },
  {
    "id": 23174,
    "name": "Le Cercueil",
    "state_id": 62,
    "postal_code": "61500",
    "state_name": "Orne",
    "query": ""
  },
  {
    "id": 23175,
    "name": "Cerisé",
    "state_id": 62,
    "postal_code": "61000",
    "state_name": "Orne",
    "query": "https://www.facebook.com/events/search?q=Dance&sde=Abq6hpNmijm8kReC4KYmmDP0NuT4IxNliFRnd3vuRZUj8uh4BsVIK3dVq186DripYNQbuwiy5LR0V3y0W_iqLV_W&filters=eyJycF9ldmVudHNfbG9jYXRpb246MCI6IntcIm5hbWVcIjpcImZpbHRlcl9ldmVudHNfbG9jYXRpb25cIixcImFyZ3NcIjpcIjExMzY1NDE5NTMxNDM5OVwifSJ9"
  },
  {
    "id": 23176,
    "name": "Cerisy-Belle-Étoile",
    "state_id": 62,
    "postal_code": "61100",
    "state_name": "Orne",
    "query": ""
  },
  {
    "id": 23177,
    "name": "Ceton",
    "state_id": 62,
    "postal_code": "61260",
    "state_name": "Orne",
    "query": "https://www.facebook.com/events/search?q=Dance&sde=Abq6hpNmijm8kReC4KYmmDP0NuT4IxNliFRnd3vuRZUj8uh4BsVIK3dVq186DripYNQbuwiy5LR0V3y0W_iqLV_W&filters=eyJycF9ldmVudHNfbG9jYXRpb246MCI6IntcIm5hbWVcIjpcImZpbHRlcl9ldmVudHNfbG9jYXRpb25cIixcImFyZ3NcIjpcIjEwNzI1NjAzOTMxMzE5MFwifSJ9"
  },
  {
    "id": 23178,
    "name": "Chahains",
    "state_id": 62,
    "postal_code": "61320",
    "state_name": "Orne",
    "query": ""
  },
  {
    "id": 23179,
    "name": "Chailloué",
    "state_id": 62,
    "postal_code": "61240",
    "state_name": "Orne",
    "query": "https://www.facebook.com/events/search?q=Dance&sde=Abq6hpNmijm8kReC4KYmmDP0NuT4IxNliFRnd3vuRZUj8uh4BsVIK3dVq186DripYNQbuwiy5LR0V3y0W_iqLV_W&filters=eyJycF9ldmVudHNfbG9jYXRpb246MCI6IntcIm5hbWVcIjpcImZpbHRlcl9ldmVudHNfbG9jYXRpb25cIixcImFyZ3NcIjpcIjExMTYwNTU4ODg2MTEzOVwifSJ9"
  },
  {
    "id": 23180,
    "name": "Le Chalange",
    "state_id": 62,
    "postal_code": "61390",
    "state_name": "Orne",
    "query": ""
  },
  {
    "id": 23181,
    "name": "Champcerie",
    "state_id": 62,
    "postal_code": "61210",
    "state_name": "Orne",
    "query": "https://www.facebook.com/events/search?q=Dance&sde=Abq6hpNmijm8kReC4KYmmDP0NuT4IxNliFRnd3vuRZUj8uh4BsVIK3dVq186DripYNQbuwiy5LR0V3y0W_iqLV_W&filters=eyJycF9ldmVudHNfbG9jYXRpb246MCI6IntcIm5hbWVcIjpcImZpbHRlcl9ldmVudHNfbG9jYXRpb25cIixcImFyZ3NcIjpcIjExMjU2NDE2NTQzMDEwNlwifSJ9"
  },
  {
    "id": 23182,
    "name": "Le Champ-de-la-Pierre",
    "state_id": 62,
    "postal_code": "61320",
    "state_name": "Orne",
    "query": ""
  },
  {
    "id": 23183,
    "name": "Les Champeaux",
    "state_id": 62,
    "postal_code": "61120",
    "state_name": "Orne",
    "query": ""
  },
  {
    "id": 23184,
    "name": "Champeaux-sur-Sarthe",
    "state_id": 62,
    "postal_code": "61560",
    "state_name": "Orne",
    "query": ""
  },
  {
    "id": 23185,
    "name": "Champ-Haut",
    "state_id": 62,
    "postal_code": "61240",
    "state_name": "Orne",
    "query": "https://www.facebook.com/events/search?q=Dance&sde=Abq6hpNmijm8kReC4KYmmDP0NuT4IxNliFRnd3vuRZUj8uh4BsVIK3dVq186DripYNQbuwiy5LR0V3y0W_iqLV_W&filters=eyJycF9ldmVudHNfbG9jYXRpb246MCI6IntcIm5hbWVcIjpcImZpbHRlcl9ldmVudHNfbG9jYXRpb25cIixcImFyZ3NcIjpcIjEwNjY1ODE3NjAzNTI2N1wifSJ9"
  },
  {
    "id": 23186,
    "name": "Champosoult",
    "state_id": 62,
    "postal_code": "61120",
    "state_name": "Orne",
    "query": ""
  },
  {
    "id": 23187,
    "name": "Champsecret",
    "state_id": 62,
    "postal_code": "61700",
    "state_name": "Orne",
    "query": "https://www.facebook.com/events/search?q=Dance&sde=Abq6hpNmijm8kReC4KYmmDP0NuT4IxNliFRnd3vuRZUj8uh4BsVIK3dVq186DripYNQbuwiy5LR0V3y0W_iqLV_W&filters=eyJycF9ldmVudHNfbG9jYXRpb246MCI6IntcIm5hbWVcIjpcImZpbHRlcl9ldmVudHNfbG9jYXRpb25cIixcImFyZ3NcIjpcIjExMjk5MDIyNTM4NTY3OFwifSJ9"
  },
  {
    "id": 23188,
    "name": "Chandai",
    "state_id": 62,
    "postal_code": "61300",
    "state_name": "Orne",
    "query": "https://www.facebook.com/events/search?q=Dance&sde=Abq6hpNmijm8kReC4KYmmDP0NuT4IxNliFRnd3vuRZUj8uh4BsVIK3dVq186DripYNQbuwiy5LR0V3y0W_iqLV_W&filters=eyJycF9ldmVudHNfbG9jYXRpb246MCI6IntcIm5hbWVcIjpcImZpbHRlcl9ldmVudHNfbG9jYXRpb25cIixcImFyZ3NcIjpcIjEwNDMxMDQzNjI3NjE1OVwifSJ9"
  },
  {
    "id": 23189,
    "name": "Chanu",
    "state_id": 62,
    "postal_code": "61800",
    "state_name": "Orne",
    "query": "https://www.facebook.com/events/search?q=Dance&sde=Abq6hpNmijm8kReC4KYmmDP0NuT4IxNliFRnd3vuRZUj8uh4BsVIK3dVq186DripYNQbuwiy5LR0V3y0W_iqLV_W&filters=eyJycF9ldmVudHNfbG9jYXRpb246MCI6IntcIm5hbWVcIjpcImZpbHRlcl9ldmVudHNfbG9jYXRpb25cIixcImFyZ3NcIjpcIjEwNzA0NjQ1OTMyNjI0OVwifSJ9"
  },
  {
    "id": 23190,
    "name": "La Chapelle-au-Moine",
    "state_id": 62,
    "postal_code": "61100",
    "state_name": "Orne",
    "query": "https://www.facebook.com/events/search?q=Dance&sde=Abq6hpNmijm8kReC4KYmmDP0NuT4IxNliFRnd3vuRZUj8uh4BsVIK3dVq186DripYNQbuwiy5LR0V3y0W_iqLV_W&filters=eyJycF9ldmVudHNfbG9jYXRpb246MCI6IntcIm5hbWVcIjpcImZpbHRlcl9ldmVudHNfbG9jYXRpb25cIixcImFyZ3NcIjpcIjEwNzAxNDgzMjY3MjEyN1wifSJ9"
  },
  {
    "id": 23191,
    "name": "La Chapelle-Biche",
    "state_id": 62,
    "postal_code": "61100",
    "state_name": "Orne",
    "query": "https://www.facebook.com/events/search?q=Dance&sde=Abq6hpNmijm8kReC4KYmmDP0NuT4IxNliFRnd3vuRZUj8uh4BsVIK3dVq186DripYNQbuwiy5LR0V3y0W_iqLV_W&filters=eyJycF9ldmVudHNfbG9jYXRpb246MCI6IntcIm5hbWVcIjpcImZpbHRlcl9ldmVudHNfbG9jYXRpb25cIixcImFyZ3NcIjpcIjExNjk5OTU0NDk3NzU1OFwifSJ9"
  },
  {
    "id": 23192,
    "name": "Rives d'Andaine",
    "state_id": 62,
    "postal_code": "61140",
    "state_name": "Orne",
    "query": ""
  },
  {
    "id": 23193,
    "name": "La Chapelle-Montligeon",
    "state_id": 62,
    "postal_code": "61400",
    "state_name": "Orne",
    "query": "https://www.facebook.com/events/search?q=Dance&sde=Abq6hpNmijm8kReC4KYmmDP0NuT4IxNliFRnd3vuRZUj8uh4BsVIK3dVq186DripYNQbuwiy5LR0V3y0W_iqLV_W&filters=eyJycF9ldmVudHNfbG9jYXRpb246MCI6IntcIm5hbWVcIjpcImZpbHRlcl9ldmVudHNfbG9jYXRpb25cIixcImFyZ3NcIjpcIjExMzA5ODA5ODcxNzEwMlwifSJ9"
  },
  {
    "id": 23194,
    "name": "La Chapelle-près-Sées",
    "state_id": 62,
    "postal_code": "61500",
    "state_name": "Orne",
    "query": "https://www.facebook.com/events/search?q=Dance&sde=Abq6hpNmijm8kReC4KYmmDP0NuT4IxNliFRnd3vuRZUj8uh4BsVIK3dVq186DripYNQbuwiy5LR0V3y0W_iqLV_W&filters=eyJycF9ldmVudHNfbG9jYXRpb246MCI6IntcIm5hbWVcIjpcImZpbHRlcl9ldmVudHNfbG9jYXRpb25cIixcImFyZ3NcIjpcIjExMjA0NDk0NTQ4NjIzN1wifSJ9"
  },
  {
    "id": 23195,
    "name": "La Chapelle-Souëf",
    "state_id": 62,
    "postal_code": "61130",
    "state_name": "Orne",
    "query": "https://www.facebook.com/events/search?q=Dance&sde=Abq6hpNmijm8kReC4KYmmDP0NuT4IxNliFRnd3vuRZUj8uh4BsVIK3dVq186DripYNQbuwiy5LR0V3y0W_iqLV_W&filters=eyJycF9ldmVudHNfbG9jYXRpb246MCI6IntcIm5hbWVcIjpcImZpbHRlcl9ldmVudHNfbG9jYXRpb25cIixcImFyZ3NcIjpcIjEwOTM5Mjc2MjQyNDY0NVwifSJ9"
  },
  {
    "id": 23196,
    "name": "La Chapelle-Viel",
    "state_id": 62,
    "postal_code": "61270",
    "state_name": "Orne",
    "query": "https://www.facebook.com/events/search?q=Dance&sde=Abq6hpNmijm8kReC4KYmmDP0NuT4IxNliFRnd3vuRZUj8uh4BsVIK3dVq186DripYNQbuwiy5LR0V3y0W_iqLV_W&filters=eyJycF9ldmVudHNfbG9jYXRpb246MCI6IntcIm5hbWVcIjpcImZpbHRlcl9ldmVudHNfbG9jYXRpb25cIixcImFyZ3NcIjpcIjExNTU5Mzg3ODQ1MjYwNlwifSJ9"
  },
  {
    "id": 23197,
    "name": "Le Château-d'Almenêches",
    "state_id": 62,
    "postal_code": "61570",
    "state_name": "Orne",
    "query": "https://www.facebook.com/events/search?q=Dance&sde=Abq6hpNmijm8kReC4KYmmDP0NuT4IxNliFRnd3vuRZUj8uh4BsVIK3dVq186DripYNQbuwiy5LR0V3y0W_iqLV_W&filters=eyJycF9ldmVudHNfbG9jYXRpb246MCI6IntcIm5hbWVcIjpcImZpbHRlcl9ldmVudHNfbG9jYXRpb25cIixcImFyZ3NcIjpcIjExMDkzMzgyNTU5NjMxOFwifSJ9"
  },
  {
    "id": 23198,
    "name": "Le Châtellier",
    "state_id": 62,
    "postal_code": "61450",
    "state_name": "Orne",
    "query": "https://www.facebook.com/events/search?q=Dance&sde=Abq6hpNmijm8kReC4KYmmDP0NuT4IxNliFRnd3vuRZUj8uh4BsVIK3dVq186DripYNQbuwiy5LR0V3y0W_iqLV_W&filters=eyJycF9ldmVudHNfbG9jYXRpb246MCI6IntcIm5hbWVcIjpcImZpbHRlcl9ldmVudHNfbG9jYXRpb25cIixcImFyZ3NcIjpcIjEwOTM1MTExNTc0OTY3NVwifSJ9"
  },
  {
    "id": 23199,
    "name": "Chaumont",
    "state_id": 62,
    "postal_code": "61230",
    "state_name": "Orne",
    "query": "https://www.facebook.com/events/search?q=Dance&sde=Abq6hpNmijm8kReC4KYmmDP0NuT4IxNliFRnd3vuRZUj8uh4BsVIK3dVq186DripYNQbuwiy5LR0V3y0W_iqLV_W&filters=eyJycF9ldmVudHNfbG9jYXRpb246MCI6IntcIm5hbWVcIjpcImZpbHRlcl9ldmVudHNfbG9jYXRpb25cIixcImFyZ3NcIjpcIjM5MzU2MzM4NzUwNzk1NFwifSJ9"
  },
  {
    "id": 23200,
    "name": "La Chaux",
    "state_id": 62,
    "postal_code": "61600",
    "state_name": "Orne",
    "query": "https://www.facebook.com/events/search?q=Dance&sde=Abq6hpNmijm8kReC4KYmmDP0NuT4IxNliFRnd3vuRZUj8uh4BsVIK3dVq186DripYNQbuwiy5LR0V3y0W_iqLV_W&filters=eyJycF9ldmVudHNfbG9jYXRpb246MCI6IntcIm5hbWVcIjpcImZpbHRlcl9ldmVudHNfbG9jYXRpb25cIixcImFyZ3NcIjpcIjEwNDU5MjU4NjI0NjMwOFwifSJ9"
  },
  {
    "id": 23201,
    "name": "Chemilli",
    "state_id": 62,
    "postal_code": "61360",
    "state_name": "Orne",
    "query": "https://www.facebook.com/events/search?q=Dance&sde=Abq6hpNmijm8kReC4KYmmDP0NuT4IxNliFRnd3vuRZUj8uh4BsVIK3dVq186DripYNQbuwiy5LR0V3y0W_iqLV_W&filters=eyJycF9ldmVudHNfbG9jYXRpb246MCI6IntcIm5hbWVcIjpcImZpbHRlcl9ldmVudHNfbG9jYXRpb25cIixcImFyZ3NcIjpcIjEwNzIwNzcxMjY1MjAyNFwifSJ9"
  },
  {
    "id": 23202,
    "name": "Ciral",
    "state_id": 62,
    "postal_code": "61320",
    "state_name": "Orne",
    "query": "https://www.facebook.com/events/search?q=Dance&sde=Abq6hpNmijm8kReC4KYmmDP0NuT4IxNliFRnd3vuRZUj8uh4BsVIK3dVq186DripYNQbuwiy5LR0V3y0W_iqLV_W&filters=eyJycF9ldmVudHNfbG9jYXRpb246MCI6IntcIm5hbWVcIjpcImZpbHRlcl9ldmVudHNfbG9jYXRpb25cIixcImFyZ3NcIjpcIjExMTIyNjI0MjIzMzIxMFwifSJ9"
  },
  {
    "id": 23203,
    "name": "Cisai-Saint-Aubin",
    "state_id": 62,
    "postal_code": "61230",
    "state_name": "Orne",
    "query": "https://www.facebook.com/events/search?q=Dance&sde=Abq6hpNmijm8kReC4KYmmDP0NuT4IxNliFRnd3vuRZUj8uh4BsVIK3dVq186DripYNQbuwiy5LR0V3y0W_iqLV_W&filters=eyJycF9ldmVudHNfbG9jYXRpb246MCI6IntcIm5hbWVcIjpcImZpbHRlcl9ldmVudHNfbG9jYXRpb25cIixcImFyZ3NcIjpcIjExNzMxNzU3NDk0NTIxM1wifSJ9"
  },
  {
    "id": 23204,
    "name": "Colombiers",
    "state_id": 62,
    "postal_code": "61250",
    "state_name": "Orne",
    "query": "https://www.facebook.com/events/search?q=Dance&sde=Abq6hpNmijm8kReC4KYmmDP0NuT4IxNliFRnd3vuRZUj8uh4BsVIK3dVq186DripYNQbuwiy5LR0V3y0W_iqLV_W&filters=eyJycF9ldmVudHNfbG9jYXRpb246MCI6IntcIm5hbWVcIjpcImZpbHRlcl9ldmVudHNfbG9jYXRpb25cIixcImFyZ3NcIjpcIjEwNDczNjk2OTU2NDc2OFwifSJ9"
  },
  {
    "id": 23205,
    "name": "Comblot",
    "state_id": 62,
    "postal_code": "61400",
    "state_name": "Orne",
    "query": ""
  },
  {
    "id": 23206,
    "name": "Commeaux",
    "state_id": 62,
    "postal_code": "61200",
    "state_name": "Orne",
    "query": ""
  },
  {
    "id": 23207,
    "name": "Sablons sur Huisne",
    "state_id": 62,
    "postal_code": "61110",
    "state_name": "Orne",
    "query": ""
  },
  {
    "id": 23208,
    "name": "Condé-sur-Sarthe",
    "state_id": 62,
    "postal_code": "61250",
    "state_name": "Orne",
    "query": "https://www.facebook.com/events/search?q=Dance&sde=Abq6hpNmijm8kReC4KYmmDP0NuT4IxNliFRnd3vuRZUj8uh4BsVIK3dVq186DripYNQbuwiy5LR0V3y0W_iqLV_W&filters=eyJycF9ldmVudHNfbG9jYXRpb246MCI6IntcIm5hbWVcIjpcImZpbHRlcl9ldmVudHNfbG9jYXRpb25cIixcImFyZ3NcIjpcIjExMTg2MzY1ODg0MjMwMVwifSJ9"
  },
  {
    "id": 23209,
    "name": "Corbon",
    "state_id": 62,
    "postal_code": "61400",
    "state_name": "Orne",
    "query": "https://www.facebook.com/events/search?q=Dance&sde=Abq6hpNmijm8kReC4KYmmDP0NuT4IxNliFRnd3vuRZUj8uh4BsVIK3dVq186DripYNQbuwiy5LR0V3y0W_iqLV_W&filters=eyJycF9ldmVudHNfbG9jYXRpb246MCI6IntcIm5hbWVcIjpcImZpbHRlcl9ldmVudHNfbG9jYXRpb25cIixcImFyZ3NcIjpcIjExMjYxNDIzNTQyNDMxNlwifSJ9"
  },
  {
    "id": 23210,
    "name": "Coudehard",
    "state_id": 62,
    "postal_code": "61160",
    "state_name": "Orne",
    "query": ""
  },
  {
    "id": 23211,
    "name": "Coulimer",
    "state_id": 62,
    "postal_code": "61360",
    "state_name": "Orne",
    "query": "https://www.facebook.com/events/search?q=Dance&sde=Abq6hpNmijm8kReC4KYmmDP0NuT4IxNliFRnd3vuRZUj8uh4BsVIK3dVq186DripYNQbuwiy5LR0V3y0W_iqLV_W&filters=eyJycF9ldmVudHNfbG9jYXRpb246MCI6IntcIm5hbWVcIjpcImZpbHRlcl9ldmVudHNfbG9jYXRpb25cIixcImFyZ3NcIjpcIjEwMzM1MjM5OTcwNTk0OVwifSJ9"
  },
  {
    "id": 23212,
    "name": "Coulmer",
    "state_id": 62,
    "postal_code": "61230",
    "state_name": "Orne",
    "query": ""
  },
  {
    "id": 23213,
    "name": "Coulonces",
    "state_id": 62,
    "postal_code": "61160",
    "state_name": "Orne",
    "query": "https://www.facebook.com/events/search?q=Dance&sde=Abq6hpNmijm8kReC4KYmmDP0NuT4IxNliFRnd3vuRZUj8uh4BsVIK3dVq186DripYNQbuwiy5LR0V3y0W_iqLV_W&filters=eyJycF9ldmVudHNfbG9jYXRpb246MCI6IntcIm5hbWVcIjpcImZpbHRlcl9ldmVudHNfbG9jYXRpb25cIixcImFyZ3NcIjpcIjEwNDA0NDk5Mjk2NjA0MVwifSJ9"
  },
  {
    "id": 23214,
    "name": "La Coulonche",
    "state_id": 62,
    "postal_code": "61220",
    "state_name": "Orne",
    "query": "https://www.facebook.com/events/search?q=Dance&sde=Abq6hpNmijm8kReC4KYmmDP0NuT4IxNliFRnd3vuRZUj8uh4BsVIK3dVq186DripYNQbuwiy5LR0V3y0W_iqLV_W&filters=eyJycF9ldmVudHNfbG9jYXRpb246MCI6IntcIm5hbWVcIjpcImZpbHRlcl9ldmVudHNfbG9jYXRpb25cIixcImFyZ3NcIjpcIjEwNzE1NTA5OTMyMjYxOFwifSJ9"
  },
  {
    "id": 23215,
    "name": "Coulonges-sur-Sarthe",
    "state_id": 62,
    "postal_code": "61170",
    "state_name": "Orne",
    "query": "https://www.facebook.com/events/search?q=Dance&sde=Abq6hpNmijm8kReC4KYmmDP0NuT4IxNliFRnd3vuRZUj8uh4BsVIK3dVq186DripYNQbuwiy5LR0V3y0W_iqLV_W&filters=eyJycF9ldmVudHNfbG9jYXRpb246MCI6IntcIm5hbWVcIjpcImZpbHRlcl9ldmVudHNfbG9jYXRpb25cIixcImFyZ3NcIjpcIjExMTA4NjI0MjI1NDA0M1wifSJ9"
  },
  {
    "id": 23216,
    "name": "Courgeon",
    "state_id": 62,
    "postal_code": "61400",
    "state_name": "Orne",
    "query": "https://www.facebook.com/events/search?q=Dance&sde=Abq6hpNmijm8kReC4KYmmDP0NuT4IxNliFRnd3vuRZUj8uh4BsVIK3dVq186DripYNQbuwiy5LR0V3y0W_iqLV_W&filters=eyJycF9ldmVudHNfbG9jYXRpb246MCI6IntcIm5hbWVcIjpcImZpbHRlcl9ldmVudHNfbG9jYXRpb25cIixcImFyZ3NcIjpcIjEwODQyNDAwOTE4NzE3MFwifSJ9"
  },
  {
    "id": 23217,
    "name": "Courgeoût",
    "state_id": 62,
    "postal_code": "61560",
    "state_name": "Orne",
    "query": "https://www.facebook.com/events/search?q=Dance&sde=Abq6hpNmijm8kReC4KYmmDP0NuT4IxNliFRnd3vuRZUj8uh4BsVIK3dVq186DripYNQbuwiy5LR0V3y0W_iqLV_W&filters=eyJycF9ldmVudHNfbG9jYXRpb246MCI6IntcIm5hbWVcIjpcImZpbHRlcl9ldmVudHNfbG9jYXRpb25cIixcImFyZ3NcIjpcIjExMTUyNjQxMjIwOTM3OVwifSJ9"
  },
  {
    "id": 23218,
    "name": "Courtomer",
    "state_id": 62,
    "postal_code": "61390",
    "state_name": "Orne",
    "query": "https://www.facebook.com/events/search?q=Dance&sde=Abq6hpNmijm8kReC4KYmmDP0NuT4IxNliFRnd3vuRZUj8uh4BsVIK3dVq186DripYNQbuwiy5LR0V3y0W_iqLV_W&filters=eyJycF9ldmVudHNfbG9jYXRpb246MCI6IntcIm5hbWVcIjpcImZpbHRlcl9ldmVudHNfbG9jYXRpb25cIixcImFyZ3NcIjpcIjEwNDg5MzE3Mjg4MDMwNFwifSJ9"
  },
  {
    "id": 23219,
    "name": "Craménil",
    "state_id": 62,
    "postal_code": "61220",
    "state_name": "Orne",
    "query": ""
  },
  {
    "id": 23220,
    "name": "Croisilles",
    "state_id": 62,
    "postal_code": "61230",
    "state_name": "Orne",
    "query": "https://www.facebook.com/events/search?q=Dance&sde=Abq6hpNmijm8kReC4KYmmDP0NuT4IxNliFRnd3vuRZUj8uh4BsVIK3dVq186DripYNQbuwiy5LR0V3y0W_iqLV_W&filters=eyJycF9ldmVudHNfbG9jYXRpb246MCI6IntcIm5hbWVcIjpcImZpbHRlcl9ldmVudHNfbG9jYXRpb25cIixcImFyZ3NcIjpcIjEwOTEwNjM4OTExODM2OVwifSJ9"
  },
  {
    "id": 23221,
    "name": "Crouttes",
    "state_id": 62,
    "postal_code": "61120",
    "state_name": "Orne",
    "query": "https://www.facebook.com/events/search?q=Dance&sde=Abq6hpNmijm8kReC4KYmmDP0NuT4IxNliFRnd3vuRZUj8uh4BsVIK3dVq186DripYNQbuwiy5LR0V3y0W_iqLV_W&filters=eyJycF9ldmVudHNfbG9jYXRpb246MCI6IntcIm5hbWVcIjpcImZpbHRlcl9ldmVudHNfbG9jYXRpb25cIixcImFyZ3NcIjpcIjEwODkxMTQxMjQ3NjcyMVwifSJ9"
  },
  {
    "id": 23222,
    "name": "Crulai",
    "state_id": 62,
    "postal_code": "61300",
    "state_name": "Orne",
    "query": "https://www.facebook.com/events/search?q=Dance&sde=Abq6hpNmijm8kReC4KYmmDP0NuT4IxNliFRnd3vuRZUj8uh4BsVIK3dVq186DripYNQbuwiy5LR0V3y0W_iqLV_W&filters=eyJycF9ldmVudHNfbG9jYXRpb246MCI6IntcIm5hbWVcIjpcImZpbHRlcl9ldmVudHNfbG9jYXRpb25cIixcImFyZ3NcIjpcIjExMTYyMDA3ODg2NjM1OFwifSJ9"
  },
  {
    "id": 23223,
    "name": "Cuissai",
    "state_id": 62,
    "postal_code": "61250",
    "state_name": "Orne",
    "query": "https://www.facebook.com/events/search?q=Dance&sde=Abq6hpNmijm8kReC4KYmmDP0NuT4IxNliFRnd3vuRZUj8uh4BsVIK3dVq186DripYNQbuwiy5LR0V3y0W_iqLV_W&filters=eyJycF9ldmVudHNfbG9jYXRpb246MCI6IntcIm5hbWVcIjpcImZpbHRlcl9ldmVudHNfbG9jYXRpb25cIixcImFyZ3NcIjpcIjExMzEyNzQ1ODcwNTk4NVwifSJ9"
  },
  {
    "id": 23224,
    "name": "Dame-Marie",
    "state_id": 62,
    "postal_code": "61130",
    "state_name": "Orne",
    "query": "https://www.facebook.com/events/search?q=Dance&sde=Abq6hpNmijm8kReC4KYmmDP0NuT4IxNliFRnd3vuRZUj8uh4BsVIK3dVq186DripYNQbuwiy5LR0V3y0W_iqLV_W&filters=eyJycF9ldmVudHNfbG9jYXRpb246MCI6IntcIm5hbWVcIjpcImZpbHRlcl9ldmVudHNfbG9jYXRpb25cIixcImFyZ3NcIjpcIjExNjIzOTY0MTcyNDc2MVwifSJ9"
  },
  {
    "id": 23225,
    "name": "Damigny",
    "state_id": 62,
    "postal_code": "61250",
    "state_name": "Orne",
    "query": "https://www.facebook.com/events/search?q=Dance&sde=Abq6hpNmijm8kReC4KYmmDP0NuT4IxNliFRnd3vuRZUj8uh4BsVIK3dVq186DripYNQbuwiy5LR0V3y0W_iqLV_W&filters=eyJycF9ldmVudHNfbG9jYXRpb246MCI6IntcIm5hbWVcIjpcImZpbHRlcl9ldmVudHNfbG9jYXRpb25cIixcImFyZ3NcIjpcIjExMTQ4ODk1NTUzNzkyNlwifSJ9"
  },
  {
    "id": 23226,
    "name": "Domfront en Poiraie",
    "state_id": 62,
    "postal_code": "61700",
    "state_name": "Orne",
    "query": ""
  },
  {
    "id": 23227,
    "name": "Dompierre",
    "state_id": 62,
    "postal_code": "61700",
    "state_name": "Orne",
    "query": "https://www.facebook.com/events/search?q=Dance&sde=Abq6hpNmijm8kReC4KYmmDP0NuT4IxNliFRnd3vuRZUj8uh4BsVIK3dVq186DripYNQbuwiy5LR0V3y0W_iqLV_W&filters=eyJycF9ldmVudHNfbG9jYXRpb246MCI6IntcIm5hbWVcIjpcImZpbHRlcl9ldmVudHNfbG9jYXRpb25cIixcImFyZ3NcIjpcIjEwOTI5NzE3OTA5NjMyNVwifSJ9"
  },
  {
    "id": 23228,
    "name": "Durcet",
    "state_id": 62,
    "postal_code": "61100",
    "state_name": "Orne",
    "query": "https://www.facebook.com/events/search/?q=Dance&sde=Abq6hpNmijm8kReC4KYmmDP0NuT4IxNliFRnd3vuRZUj8uh4BsVIK3dVq186DripYNQbuwiy5LR0V3y0W_iqLV_W&filters=eyJycF9ldmVudHNfbG9jYXRpb246MCI6IntcIm5hbWVcIjpcImZpbHRlcl9ldmVudHNfbG9jYXRpb25cIixcImFyZ3NcIjpcIjExMTU3MzIzODg3MTcxNlwifSJ9"
  },
  {
    "id": 23229,
    "name": "Échalou",
    "state_id": 62,
    "postal_code": "61440",
    "state_name": "Orne",
    "query": ""
  },
  {
    "id": 23230,
    "name": "Échauffour",
    "state_id": 62,
    "postal_code": "61370",
    "state_name": "Orne",
    "query": "https://www.facebook.com/events/search?q=Dance&sde=Abq6hpNmijm8kReC4KYmmDP0NuT4IxNliFRnd3vuRZUj8uh4BsVIK3dVq186DripYNQbuwiy5LR0V3y0W_iqLV_W&filters=eyJycF9ldmVudHNfbG9jYXRpb246MCI6IntcIm5hbWVcIjpcImZpbHRlcl9ldmVudHNfbG9jYXRpb25cIixcImFyZ3NcIjpcIjExNTczNDYwODQ0Mzc4OVwifSJ9"
  },
  {
    "id": 23231,
    "name": "Écorcei",
    "state_id": 62,
    "postal_code": "61270",
    "state_name": "Orne",
    "query": ""
  },
  {
    "id": 23232,
    "name": "Écorches",
    "state_id": 62,
    "postal_code": "61160",
    "state_name": "Orne",
    "query": ""
  },
  {
    "id": 23233,
    "name": "Écouché-les-Vallées",
    "state_id": 62,
    "postal_code": "61150",
    "state_name": "Orne",
    "query": ""
  },
  {
    "id": 23234,
    "name": "Essay",
    "state_id": 62,
    "postal_code": "61500",
    "state_name": "Orne",
    "query": "https://www.facebook.com/events/search?q=Dance&sde=Abq6hpNmijm8kReC4KYmmDP0NuT4IxNliFRnd3vuRZUj8uh4BsVIK3dVq186DripYNQbuwiy5LR0V3y0W_iqLV_W&filters=eyJycF9ldmVudHNfbG9jYXRpb246MCI6IntcIm5hbWVcIjpcImZpbHRlcl9ldmVudHNfbG9jYXRpb25cIixcImFyZ3NcIjpcIjExMzA2MzAxMjA1NDI3N1wifSJ9"
  },
  {
    "id": 23235,
    "name": "Faverolles",
    "state_id": 62,
    "postal_code": "61600",
    "state_name": "Orne",
    "query": "https://www.facebook.com/events/search?q=Dance&sde=Abq6hpNmijm8kReC4KYmmDP0NuT4IxNliFRnd3vuRZUj8uh4BsVIK3dVq186DripYNQbuwiy5LR0V3y0W_iqLV_W&filters=eyJycF9ldmVudHNfbG9jYXRpb246MCI6IntcIm5hbWVcIjpcImZpbHRlcl9ldmVudHNfbG9jYXRpb25cIixcImFyZ3NcIjpcIjExMDQ4ODMxODk2OTY3NlwifSJ9"
  },
  {
    "id": 23236,
    "name": "Fay",
    "state_id": 62,
    "postal_code": "61390",
    "state_name": "Orne",
    "query": ""
  },
  {
    "id": 23237,
    "name": "Feings",
    "state_id": 62,
    "postal_code": "61400",
    "state_name": "Orne",
    "query": "https://www.facebook.com/events/search?q=Dance&sde=Abq6hpNmijm8kReC4KYmmDP0NuT4IxNliFRnd3vuRZUj8uh4BsVIK3dVq186DripYNQbuwiy5LR0V3y0W_iqLV_W&filters=eyJycF9ldmVudHNfbG9jYXRpb246MCI6IntcIm5hbWVcIjpcImZpbHRlcl9ldmVudHNfbG9jYXRpb25cIixcImFyZ3NcIjpcIjExMzU1NTY5NTMyNjAwN1wifSJ9"
  },
  {
    "id": 23238,
    "name": "La Ferrière-au-Doyen",
    "state_id": 62,
    "postal_code": "61380",
    "state_name": "Orne",
    "query": "https://www.facebook.com/events/search?q=Dance&sde=Abq6hpNmijm8kReC4KYmmDP0NuT4IxNliFRnd3vuRZUj8uh4BsVIK3dVq186DripYNQbuwiy5LR0V3y0W_iqLV_W&filters=eyJycF9ldmVudHNfbG9jYXRpb246MCI6IntcIm5hbWVcIjpcImZpbHRlcl9ldmVudHNfbG9jYXRpb25cIixcImFyZ3NcIjpcIjExNTgxMTYyNTA5NjQ5MVwifSJ9"
  },
  {
    "id": 23239,
    "name": "La Ferrière-aux-Étangs",
    "state_id": 62,
    "postal_code": "61450",
    "state_name": "Orne",
    "query": "https://www.facebook.com/events/search?q=Dance&sde=Abq6hpNmijm8kReC4KYmmDP0NuT4IxNliFRnd3vuRZUj8uh4BsVIK3dVq186DripYNQbuwiy5LR0V3y0W_iqLV_W&filters=eyJycF9ldmVudHNfbG9jYXRpb246MCI6IntcIm5hbWVcIjpcImZpbHRlcl9ldmVudHNfbG9jYXRpb25cIixcImFyZ3NcIjpcIjExMzEzOTA2MjA0NjUxOVwifSJ9"
  },
  {
    "id": 23240,
    "name": "La Ferrière-Béchet",
    "state_id": 62,
    "postal_code": "61500",
    "state_name": "Orne",
    "query": "https://www.facebook.com/events/search?q=Dance&sde=Abq6hpNmijm8kReC4KYmmDP0NuT4IxNliFRnd3vuRZUj8uh4BsVIK3dVq186DripYNQbuwiy5LR0V3y0W_iqLV_W&filters=eyJycF9ldmVudHNfbG9jYXRpb246MCI6IntcIm5hbWVcIjpcImZpbHRlcl9ldmVudHNfbG9jYXRpb25cIixcImFyZ3NcIjpcIjExMTYwNjExODg2MDE1M1wifSJ9"
  },
  {
    "id": 23241,
    "name": "La Ferrière-Bochard",
    "state_id": 62,
    "postal_code": "61420",
    "state_name": "Orne",
    "query": "https://www.facebook.com/events/search?q=Dance&sde=Abq6hpNmijm8kReC4KYmmDP0NuT4IxNliFRnd3vuRZUj8uh4BsVIK3dVq186DripYNQbuwiy5LR0V3y0W_iqLV_W&filters=eyJycF9ldmVudHNfbG9jYXRpb246MCI6IntcIm5hbWVcIjpcImZpbHRlcl9ldmVudHNfbG9jYXRpb25cIixcImFyZ3NcIjpcIjEwOTM3NTc3OTA5MzA0MFwifSJ9"
  },
  {
    "id": 23242,
    "name": "Ferrières-la-Verrerie",
    "state_id": 62,
    "postal_code": "61390",
    "state_name": "Orne",
    "query": ""
  },
  {
    "id": 23243,
    "name": "La Ferté-en-Ouche",
    "state_id": 62,
    "postal_code": "61470",
    "state_name": "Orne",
    "query": ""
  },
  {
    "id": 23244,
    "name": "La Ferté Macé",
    "state_id": 62,
    "postal_code": "61410",
    "state_name": "Orne",
    "query": "https://www.facebook.com/events/search?q=Dance&sde=Abq6hpNmijm8kReC4KYmmDP0NuT4IxNliFRnd3vuRZUj8uh4BsVIK3dVq186DripYNQbuwiy5LR0V3y0W_iqLV_W&filters=eyJycF9ldmVudHNfbG9jYXRpb246MCI6IntcIm5hbWVcIjpcImZpbHRlcl9ldmVudHNfbG9jYXRpb25cIixcImFyZ3NcIjpcIjExNjI2ODE4ODM4NzM1MVwifSJ9"
  },
  {
    "id": 23245,
    "name": "Flers",
    "state_id": 62,
    "postal_code": "61100",
    "state_name": "Orne",
    "query": "https://www.facebook.com/events/search?q=Dance&sde=Abq6hpNmijm8kReC4KYmmDP0NuT4IxNliFRnd3vuRZUj8uh4BsVIK3dVq186DripYNQbuwiy5LR0V3y0W_iqLV_W&filters=eyJycF9ldmVudHNfbG9jYXRpb246MCI6IntcIm5hbWVcIjpcImZpbHRlcl9ldmVudHNfbG9jYXRpb25cIixcImFyZ3NcIjpcIjEwOTMxODAwMjQyNjE2NFwifSJ9"
  },
  {
    "id": 23246,
    "name": "Fleuré",
    "state_id": 62,
    "postal_code": "61200",
    "state_name": "Orne",
    "query": "https://www.facebook.com/events/search?q=Dance&sde=Abq6hpNmijm8kReC4KYmmDP0NuT4IxNliFRnd3vuRZUj8uh4BsVIK3dVq186DripYNQbuwiy5LR0V3y0W_iqLV_W&filters=eyJycF9ldmVudHNfbG9jYXRpb246MCI6IntcIm5hbWVcIjpcImZpbHRlcl9ldmVudHNfbG9jYXRpb25cIixcImFyZ3NcIjpcIjEwOTAyNDg1NTc4NTM2OFwifSJ9"
  },
  {
    "id": 23247,
    "name": "Fontaine-les-Bassets",
    "state_id": 62,
    "postal_code": "61160",
    "state_name": "Orne",
    "query": ""
  },
  {
    "id": 23248,
    "name": "Francheville",
    "state_id": 62,
    "postal_code": "61570",
    "state_name": "Orne",
    "query": "https://www.facebook.com/events/search?q=Dance&sde=Abq6hpNmijm8kReC4KYmmDP0NuT4IxNliFRnd3vuRZUj8uh4BsVIK3dVq186DripYNQbuwiy5LR0V3y0W_iqLV_W&filters=eyJycF9ldmVudHNfbG9jYXRpb246MCI6IntcIm5hbWVcIjpcImZpbHRlcl9ldmVudHNfbG9jYXRpb25cIixcImFyZ3NcIjpcIjEwNDMzMzMwOTYwNzE3NVwifSJ9"
  },
  {
    "id": 23249,
    "name": "La Fresnaie-Fayel",
    "state_id": 62,
    "postal_code": "61230",
    "state_name": "Orne",
    "query": ""
  },
  {
    "id": 23250,
    "name": "Fresnay-le-Samson",
    "state_id": 62,
    "postal_code": "61120",
    "state_name": "Orne",
    "query": ""
  },
  {
    "id": 23251,
    "name": "Gacé",
    "state_id": 62,
    "postal_code": "61230",
    "state_name": "Orne",
    "query": "https://www.facebook.com/events/search?q=Dance&sde=Abq6hpNmijm8kReC4KYmmDP0NuT4IxNliFRnd3vuRZUj8uh4BsVIK3dVq186DripYNQbuwiy5LR0V3y0W_iqLV_W&filters=eyJycF9ldmVudHNfbG9jYXRpb246MCI6IntcIm5hbWVcIjpcImZpbHRlcl9ldmVudHNfbG9jYXRpb25cIixcImFyZ3NcIjpcIjEwMzM0NjI4OTcwNzY3NlwifSJ9"
  },
  {
    "id": 23252,
    "name": "Gandelain",
    "state_id": 62,
    "postal_code": "61420",
    "state_name": "Orne",
    "query": "https://www.facebook.com/events/search?q=Dance&sde=Abq6hpNmijm8kReC4KYmmDP0NuT4IxNliFRnd3vuRZUj8uh4BsVIK3dVq186DripYNQbuwiy5LR0V3y0W_iqLV_W&filters=eyJycF9ldmVudHNfbG9jYXRpb246MCI6IntcIm5hbWVcIjpcImZpbHRlcl9ldmVudHNfbG9jYXRpb25cIixcImFyZ3NcIjpcIjExMjc3MDkzNTQwNzYwNFwifSJ9"
  },
  {
    "id": 23253,
    "name": "Gâprée",
    "state_id": 62,
    "postal_code": "61390",
    "state_name": "Orne",
    "query": "https://www.facebook.com/events/search?q=Dance&sde=Abq6hpNmijm8kReC4KYmmDP0NuT4IxNliFRnd3vuRZUj8uh4BsVIK3dVq186DripYNQbuwiy5LR0V3y0W_iqLV_W&filters=eyJycF9ldmVudHNfbG9jYXRpb246MCI6IntcIm5hbWVcIjpcImZpbHRlcl9ldmVudHNfbG9jYXRpb25cIixcImFyZ3NcIjpcIjExNTg3NDUxNTA5MjI2OFwifSJ9"
  },
  {
    "id": 23254,
    "name": "Les Genettes",
    "state_id": 62,
    "postal_code": "61270",
    "state_name": "Orne",
    "query": "https://www.facebook.com/events/search?q=Dance&sde=Abq6hpNmijm8kReC4KYmmDP0NuT4IxNliFRnd3vuRZUj8uh4BsVIK3dVq186DripYNQbuwiy5LR0V3y0W_iqLV_W&filters=eyJycF9ldmVudHNfbG9jYXRpb246MCI6IntcIm5hbWVcIjpcImZpbHRlcl9ldmVudHNfbG9jYXRpb25cIixcImFyZ3NcIjpcIjExMjM1NTkyNTQ1NjE4N1wifSJ9"
  },
  {
    "id": 23255,
    "name": "La Genevraie",
    "state_id": 62,
    "postal_code": "61240",
    "state_name": "Orne",
    "query": "https://www.facebook.com/events/search?q=Dance&sde=Abq6hpNmijm8kReC4KYmmDP0NuT4IxNliFRnd3vuRZUj8uh4BsVIK3dVq186DripYNQbuwiy5LR0V3y0W_iqLV_W&filters=eyJycF9ldmVudHNfbG9jYXRpb246MCI6IntcIm5hbWVcIjpcImZpbHRlcl9ldmVudHNfbG9jYXRpb25cIixcImFyZ3NcIjpcIjExNjI2ODI5NTA1MzEzM1wifSJ9"
  },
  {
    "id": 23256,
    "name": "Giel-Courteilles",
    "state_id": 62,
    "postal_code": "61210",
    "state_name": "Orne",
    "query": ""
  },
  {
    "id": 23257,
    "name": "Ginai",
    "state_id": 62,
    "postal_code": "61310",
    "state_name": "Orne",
    "query": ""
  },
  {
    "id": 23258,
    "name": "Godisson",
    "state_id": 62,
    "postal_code": "61240",
    "state_name": "Orne",
    "query": ""
  },
  {
    "id": 23259,
    "name": "La Gonfrière",
    "state_id": 62,
    "postal_code": "61550",
    "state_name": "Orne",
    "query": "https://www.facebook.com/events/search?q=Dance&sde=Abq6hpNmijm8kReC4KYmmDP0NuT4IxNliFRnd3vuRZUj8uh4BsVIK3dVq186DripYNQbuwiy5LR0V3y0W_iqLV_W&filters=eyJycF9ldmVudHNfbG9jYXRpb246MCI6IntcIm5hbWVcIjpcImZpbHRlcl9ldmVudHNfbG9jYXRpb25cIixcImFyZ3NcIjpcIjExNTY2NDA1MTc3ODEyNlwifSJ9"
  },
  {
    "id": 23260,
    "name": "Monts-sur-Orne",
    "state_id": 62,
    "postal_code": "61150",
    "state_name": "Orne",
    "query": ""
  },
  {
    "id": 23261,
    "name": "Le Grais",
    "state_id": 62,
    "postal_code": "61600",
    "state_name": "Orne",
    "query": "https://www.facebook.com/events/search?q=Dance&sde=Abq6hpNmijm8kReC4KYmmDP0NuT4IxNliFRnd3vuRZUj8uh4BsVIK3dVq186DripYNQbuwiy5LR0V3y0W_iqLV_W&filters=eyJycF9ldmVudHNfbG9jYXRpb246MCI6IntcIm5hbWVcIjpcImZpbHRlcl9ldmVudHNfbG9jYXRpb25cIixcImFyZ3NcIjpcIjEwNDMyMTg5Mjk0MTUzMFwifSJ9"
  },
  {
    "id": 23262,
    "name": "Belforêt-en-Perche",
    "state_id": 62,
    "postal_code": "61130",
    "state_name": "Orne",
    "query": ""
  },
  {
    "id": 23263,
    "name": "Guêprei",
    "state_id": 62,
    "postal_code": "61160",
    "state_name": "Orne",
    "query": ""
  },
  {
    "id": 23264,
    "name": "Guerquesalles",
    "state_id": 62,
    "postal_code": "61120",
    "state_name": "Orne",
    "query": "https://www.facebook.com/events/search?q=Dance&sde=Abq6hpNmijm8kReC4KYmmDP0NuT4IxNliFRnd3vuRZUj8uh4BsVIK3dVq186DripYNQbuwiy5LR0V3y0W_iqLV_W&filters=eyJycF9ldmVudHNfbG9jYXRpb246MCI6IntcIm5hbWVcIjpcImZpbHRlcl9ldmVudHNfbG9jYXRpb25cIixcImFyZ3NcIjpcIjExMjk5NTcxODcyNjAyMVwifSJ9"
  },
  {
    "id": 23265,
    "name": "Habloville",
    "state_id": 62,
    "postal_code": "61210",
    "state_name": "Orne",
    "query": "https://www.facebook.com/events/search?q=Dance&sde=Abq6hpNmijm8kReC4KYmmDP0NuT4IxNliFRnd3vuRZUj8uh4BsVIK3dVq186DripYNQbuwiy5LR0V3y0W_iqLV_W&filters=eyJycF9ldmVudHNfbG9jYXRpb246MCI6IntcIm5hbWVcIjpcImZpbHRlcl9ldmVudHNfbG9jYXRpb25cIixcImFyZ3NcIjpcIjEwNDkxODcwMjg3Njk0NVwifSJ9"
  },
  {
    "id": 23266,
    "name": "Hauterive",
    "state_id": 62,
    "postal_code": "61250",
    "state_name": "Orne",
    "query": "https://www.facebook.com/events/search?q=Dance&sde=Abq6hpNmijm8kReC4KYmmDP0NuT4IxNliFRnd3vuRZUj8uh4BsVIK3dVq186DripYNQbuwiy5LR0V3y0W_iqLV_W&filters=eyJycF9ldmVudHNfbG9jYXRpb246MCI6IntcIm5hbWVcIjpcImZpbHRlcl9ldmVudHNfbG9jYXRpb25cIixcImFyZ3NcIjpcIjExMjYwMDE5ODc1NTc5NlwifSJ9"
  },
  {
    "id": 23267,
    "name": "Héloup",
    "state_id": 62,
    "postal_code": "61250",
    "state_name": "Orne",
    "query": "https://www.facebook.com/events/search?q=Dance&sde=Abq6hpNmijm8kReC4KYmmDP0NuT4IxNliFRnd3vuRZUj8uh4BsVIK3dVq186DripYNQbuwiy5LR0V3y0W_iqLV_W&filters=eyJycF9ldmVudHNfbG9jYXRpb246MCI6IntcIm5hbWVcIjpcImZpbHRlcl9ldmVudHNfbG9jYXRpb25cIixcImFyZ3NcIjpcIjEwNzEwMzY5NTk5NTU3MVwifSJ9"
  },
  {
    "id": 23268,
    "name": "L'Hôme-Chamondot",
    "state_id": 62,
    "postal_code": "61290",
    "state_name": "Orne",
    "query": "https://www.facebook.com/events/search?q=Dance&sde=Abq6hpNmijm8kReC4KYmmDP0NuT4IxNliFRnd3vuRZUj8uh4BsVIK3dVq186DripYNQbuwiy5LR0V3y0W_iqLV_W&filters=eyJycF9ldmVudHNfbG9jYXRpb246MCI6IntcIm5hbWVcIjpcImZpbHRlcl9ldmVudHNfbG9jYXRpb25cIixcImFyZ3NcIjpcIjExMTUyNDcyNTU0MzE5OVwifSJ9"
  },
  {
    "id": 23269,
    "name": "Igé",
    "state_id": 62,
    "postal_code": "61130",
    "state_name": "Orne",
    "query": ""
  },
  {
    "id": 23270,
    "name": "Irai",
    "state_id": 62,
    "postal_code": "61190",
    "state_name": "Orne",
    "query": "https://www.facebook.com/events/search?q=Dance&sde=Abq6hpNmijm8kReC4KYmmDP0NuT4IxNliFRnd3vuRZUj8uh4BsVIK3dVq186DripYNQbuwiy5LR0V3y0W_iqLV_W&filters=eyJycF9ldmVudHNfbG9jYXRpb246MCI6IntcIm5hbWVcIjpcImZpbHRlcl9ldmVudHNfbG9jYXRpb25cIixcImFyZ3NcIjpcIjExMjc3Nzc0MjA3MjgxNlwifSJ9"
  },
  {
    "id": 23271,
    "name": "Joué-du-Bois",
    "state_id": 62,
    "postal_code": "61320",
    "state_name": "Orne",
    "query": "https://www.facebook.com/events/search?q=Dance&sde=Abq6hpNmijm8kReC4KYmmDP0NuT4IxNliFRnd3vuRZUj8uh4BsVIK3dVq186DripYNQbuwiy5LR0V3y0W_iqLV_W&filters=eyJycF9ldmVudHNfbG9jYXRpb246MCI6IntcIm5hbWVcIjpcImZpbHRlcl9ldmVudHNfbG9jYXRpb25cIixcImFyZ3NcIjpcIjExNTEzNDY2ODUwMjgzMlwifSJ9"
  },
  {
    "id": 23272,
    "name": "Joué-du-Plain",
    "state_id": 62,
    "postal_code": "61150",
    "state_name": "Orne",
    "query": "https://www.facebook.com/events/search?q=Dance&sde=Abq6hpNmijm8kReC4KYmmDP0NuT4IxNliFRnd3vuRZUj8uh4BsVIK3dVq186DripYNQbuwiy5LR0V3y0W_iqLV_W&filters=eyJycF9ldmVudHNfbG9jYXRpb246MCI6IntcIm5hbWVcIjpcImZpbHRlcl9ldmVudHNfbG9jYXRpb25cIixcImFyZ3NcIjpcIjEwOTYzMjMzMjQwMTUzNVwifSJ9"
  },
  {
    "id": 23273,
    "name": "Juvigny Val d'Andaine",
    "state_id": 62,
    "postal_code": "61140",
    "state_name": "Orne",
    "query": ""
  },
  {
    "id": 23274,
    "name": "Juvigny-sur-Orne",
    "state_id": 62,
    "postal_code": "61200",
    "state_name": "Orne",
    "query": ""
  },
  {
    "id": 23275,
    "name": "Lalacelle",
    "state_id": 62,
    "postal_code": "61320",
    "state_name": "Orne",
    "query": "https://www.facebook.com/events/search?q=Dance&sde=Abq6hpNmijm8kReC4KYmmDP0NuT4IxNliFRnd3vuRZUj8uh4BsVIK3dVq186DripYNQbuwiy5LR0V3y0W_iqLV_W&filters=eyJycF9ldmVudHNfbG9jYXRpb246MCI6IntcIm5hbWVcIjpcImZpbHRlcl9ldmVudHNfbG9jYXRpb25cIixcImFyZ3NcIjpcIjEwNzE2MTY2NTk4OTE4M1wifSJ9"
  },
  {
    "id": 23276,
    "name": "L'Aigle",
    "state_id": 62,
    "postal_code": "61300",
    "state_name": "Orne",
    "query": "https://www.facebook.com/events/search/?q=Gardening&sde=Abq6hpNmijm8kReC4KYmmDP0NuT4IxNliFRnd3vuRZUj8uh4BsVIK3dVq186DripYNQbuwiy5LR0V3y0W_iqLV_W&filters=eyJycF9ldmVudHNfbG9jYXRpb246MCI6IntcIm5hbWVcIjpcImZpbHRlcl9ldmVudHNfbG9jYXRpb25cIixcImFyZ3NcIjpcIjExNjIwMjIwODM5MTg5OVwifSJ9"
  },
  {
    "id": 23277,
    "name": "Laleu",
    "state_id": 62,
    "postal_code": "61170",
    "state_name": "Orne",
    "query": "https://www.facebook.com/events/search?q=Dance&sde=Abq6hpNmijm8kReC4KYmmDP0NuT4IxNliFRnd3vuRZUj8uh4BsVIK3dVq186DripYNQbuwiy5LR0V3y0W_iqLV_W&filters=eyJycF9ldmVudHNfbG9jYXRpb246MCI6IntcIm5hbWVcIjpcImZpbHRlcl9ldmVudHNfbG9jYXRpb25cIixcImFyZ3NcIjpcIjExMDM5MDM0ODk4NzMzNVwifSJ9"
  },
  {
    "id": 23278,
    "name": "La Lande-de-Goult",
    "state_id": 62,
    "postal_code": "61320",
    "state_name": "Orne",
    "query": "https://www.facebook.com/events/search?q=Dance&sde=Abq6hpNmijm8kReC4KYmmDP0NuT4IxNliFRnd3vuRZUj8uh4BsVIK3dVq186DripYNQbuwiy5LR0V3y0W_iqLV_W&filters=eyJycF9ldmVudHNfbG9jYXRpb246MCI6IntcIm5hbWVcIjpcImZpbHRlcl9ldmVudHNfbG9jYXRpb25cIixcImFyZ3NcIjpcIjExMDc1NTM3ODk1NDI4M1wifSJ9"
  },
  {
    "id": 23279,
    "name": "La Lande-de-Lougé",
    "state_id": 62,
    "postal_code": "61210",
    "state_name": "Orne",
    "query": ""
  },
  {
    "id": 23280,
    "name": "La Lande-Patry",
    "state_id": 62,
    "postal_code": "61100",
    "state_name": "Orne",
    "query": "https://www.facebook.com/events/search?q=Dance&sde=Abq6hpNmijm8kReC4KYmmDP0NuT4IxNliFRnd3vuRZUj8uh4BsVIK3dVq186DripYNQbuwiy5LR0V3y0W_iqLV_W&filters=eyJycF9ldmVudHNfbG9jYXRpb246MCI6IntcIm5hbWVcIjpcImZpbHRlcl9ldmVudHNfbG9jYXRpb25cIixcImFyZ3NcIjpcIjExMjg3MTAxODczMDg5MlwifSJ9"
  },
  {
    "id": 23281,
    "name": "La Lande-Saint-Siméon",
    "state_id": 62,
    "postal_code": "61100",
    "state_name": "Orne",
    "query": ""
  },
  {
    "id": 23282,
    "name": "Landigou",
    "state_id": 62,
    "postal_code": "61100",
    "state_name": "Orne",
    "query": "https://www.facebook.com/events/search?q=Dance&sde=Abq6hpNmijm8kReC4KYmmDP0NuT4IxNliFRnd3vuRZUj8uh4BsVIK3dVq186DripYNQbuwiy5LR0V3y0W_iqLV_W&filters=eyJycF9ldmVudHNfbG9jYXRpb246MCI6IntcIm5hbWVcIjpcImZpbHRlcl9ldmVudHNfbG9jYXRpb25cIixcImFyZ3NcIjpcIjExMzA1NDM3ODcyMDkwOVwifSJ9"
  },
  {
    "id": 23283,
    "name": "Landisacq",
    "state_id": 62,
    "postal_code": "61100",
    "state_name": "Orne",
    "query": "https://www.facebook.com/events/search?q=Dance&sde=Abq6hpNmijm8kReC4KYmmDP0NuT4IxNliFRnd3vuRZUj8uh4BsVIK3dVq186DripYNQbuwiy5LR0V3y0W_iqLV_W&filters=eyJycF9ldmVudHNfbG9jYXRpb246MCI6IntcIm5hbWVcIjpcImZpbHRlcl9ldmVudHNfbG9jYXRpb25cIixcImFyZ3NcIjpcIjExNjY3ODkzODM0NTkzMlwifSJ9"
  },
  {
    "id": 23284,
    "name": "Larré",
    "state_id": 62,
    "postal_code": "61250",
    "state_name": "Orne",
    "query": "https://www.facebook.com/events/search?q=Dance&sde=Abq6hpNmijm8kReC4KYmmDP0NuT4IxNliFRnd3vuRZUj8uh4BsVIK3dVq186DripYNQbuwiy5LR0V3y0W_iqLV_W&filters=eyJycF9ldmVudHNfbG9jYXRpb246MCI6IntcIm5hbWVcIjpcImZpbHRlcl9ldmVudHNfbG9jYXRpb25cIixcImFyZ3NcIjpcIjExMzY0Mjk0NTMxNjIwOVwifSJ9"
  },
  {
    "id": 23285,
    "name": "Lignères",
    "state_id": 62,
    "postal_code": "61240",
    "state_name": "Orne",
    "query": "https://www.facebook.com/events/search?q=Dance&sde=Abq6hpNmijm8kReC4KYmmDP0NuT4IxNliFRnd3vuRZUj8uh4BsVIK3dVq186DripYNQbuwiy5LR0V3y0W_iqLV_W&filters=eyJycF9ldmVudHNfbG9jYXRpb246MCI6IntcIm5hbWVcIjpcImZpbHRlcl9ldmVudHNfbG9jYXRpb25cIixcImFyZ3NcIjpcIjEwOTUyMjg4OTA3MTMxN1wifSJ9"
  },
  {
    "id": 23286,
    "name": "Lignou",
    "state_id": 62,
    "postal_code": "61220",
    "state_name": "Orne",
    "query": ""
  },
  {
    "id": 23287,
    "name": "L'Orée-d'Écouves",
    "state_id": 62,
    "postal_code": "61320",
    "state_name": "Orne",
    "query": ""
  },
  {
    "id": 23288,
    "name": "Loisail",
    "state_id": 62,
    "postal_code": "61400",
    "state_name": "Orne",
    "query": ""
  },
  {
    "id": 23289,
    "name": "Longny les Villages",
    "state_id": 62,
    "postal_code": "61290",
    "state_name": "Orne",
    "query": ""
  },
  {
    "id": 23290,
    "name": "Lonlay-l'Abbaye",
    "state_id": 62,
    "postal_code": "61700",
    "state_name": "Orne",
    "query": "https://www.facebook.com/events/search?q=Dance&sde=Abq6hpNmijm8kReC4KYmmDP0NuT4IxNliFRnd3vuRZUj8uh4BsVIK3dVq186DripYNQbuwiy5LR0V3y0W_iqLV_W&filters=eyJycF9ldmVudHNfbG9jYXRpb246MCI6IntcIm5hbWVcIjpcImZpbHRlcl9ldmVudHNfbG9jYXRpb25cIixcImFyZ3NcIjpcIjExNTg1NzAwMTc1ODU3OFwifSJ9"
  },
  {
    "id": 23291,
    "name": "Lonlay-le-Tesson",
    "state_id": 62,
    "postal_code": "61600",
    "state_name": "Orne",
    "query": "https://www.facebook.com/events/search?q=Dance&sde=Abq6hpNmijm8kReC4KYmmDP0NuT4IxNliFRnd3vuRZUj8uh4BsVIK3dVq186DripYNQbuwiy5LR0V3y0W_iqLV_W&filters=eyJycF9ldmVudHNfbG9jYXRpb246MCI6IntcIm5hbWVcIjpcImZpbHRlcl9ldmVudHNfbG9jYXRpb25cIixcImFyZ3NcIjpcIjExMTA4NDMwNTU4MTE3OVwifSJ9"
  },
  {
    "id": 23292,
    "name": "Lonrai",
    "state_id": 62,
    "postal_code": "61250",
    "state_name": "Orne",
    "query": "https://www.facebook.com/events/search?q=Dance&sde=Abq6hpNmijm8kReC4KYmmDP0NuT4IxNliFRnd3vuRZUj8uh4BsVIK3dVq186DripYNQbuwiy5LR0V3y0W_iqLV_W&filters=eyJycF9ldmVudHNfbG9jYXRpb246MCI6IntcIm5hbWVcIjpcImZpbHRlcl9ldmVudHNfbG9jYXRpb25cIixcImFyZ3NcIjpcIjExNDk4NTY3MTg1MTI3OVwifSJ9"
  },
  {
    "id": 23293,
    "name": "Lougé-sur-Maire",
    "state_id": 62,
    "postal_code": "61150",
    "state_name": "Orne",
    "query": "https://www.facebook.com/events/search?q=Dance&sde=Abq6hpNmijm8kReC4KYmmDP0NuT4IxNliFRnd3vuRZUj8uh4BsVIK3dVq186DripYNQbuwiy5LR0V3y0W_iqLV_W&filters=eyJycF9ldmVudHNfbG9jYXRpb246MCI6IntcIm5hbWVcIjpcImZpbHRlcl9ldmVudHNfbG9jYXRpb25cIixcImFyZ3NcIjpcIjExNjAzMDQwNTA4MTE1NVwifSJ9"
  },
  {
    "id": 23294,
    "name": "Louvières-en-Auge",
    "state_id": 62,
    "postal_code": "61160",
    "state_name": "Orne",
    "query": ""
  },
  {
    "id": 23295,
    "name": "Macé",
    "state_id": 62,
    "postal_code": "61500",
    "state_name": "Orne",
    "query": ""
  },
  {
    "id": 23296,
    "name": "La Madeleine-Bouvet",
    "state_id": 62,
    "postal_code": "61110",
    "state_name": "Orne",
    "query": "https://www.facebook.com/events/search?q=Dance&sde=Abq6hpNmijm8kReC4KYmmDP0NuT4IxNliFRnd3vuRZUj8uh4BsVIK3dVq186DripYNQbuwiy5LR0V3y0W_iqLV_W&filters=eyJycF9ldmVudHNfbG9jYXRpb246MCI6IntcIm5hbWVcIjpcImZpbHRlcl9ldmVudHNfbG9jYXRpb25cIixcImFyZ3NcIjpcIjExMjcxMDQ4ODc1NDU2MlwifSJ9"
  },
  {
    "id": 23297,
    "name": "Le Mage",
    "state_id": 62,
    "postal_code": "61290",
    "state_name": "Orne",
    "query": "https://www.facebook.com/events/search?q=Dance&sde=Abq6hpNmijm8kReC4KYmmDP0NuT4IxNliFRnd3vuRZUj8uh4BsVIK3dVq186DripYNQbuwiy5LR0V3y0W_iqLV_W&filters=eyJycF9ldmVudHNfbG9jYXRpb246MCI6IntcIm5hbWVcIjpcImZpbHRlcl9ldmVudHNfbG9jYXRpb25cIixcImFyZ3NcIjpcIjExNjQxMDQzODM3MzEyNVwifSJ9"
  },
  {
    "id": 23298,
    "name": "Magny-le-Désert",
    "state_id": 62,
    "postal_code": "61600",
    "state_name": "Orne",
    "query": "https://www.facebook.com/events/search?q=Dance&sde=Abq6hpNmijm8kReC4KYmmDP0NuT4IxNliFRnd3vuRZUj8uh4BsVIK3dVq186DripYNQbuwiy5LR0V3y0W_iqLV_W&filters=eyJycF9ldmVudHNfbG9jYXRpb246MCI6IntcIm5hbWVcIjpcImZpbHRlcl9ldmVudHNfbG9jYXRpb25cIixcImFyZ3NcIjpcIjEwNjk5MTQ2NjAwNzcyM1wifSJ9"
  },
  {
    "id": 23299,
    "name": "Mahéru",
    "state_id": 62,
    "postal_code": "61380",
    "state_name": "Orne",
    "query": "https://www.facebook.com/events/search?q=Dance&sde=Abq6hpNmijm8kReC4KYmmDP0NuT4IxNliFRnd3vuRZUj8uh4BsVIK3dVq186DripYNQbuwiy5LR0V3y0W_iqLV_W&filters=eyJycF9ldmVudHNfbG9jYXRpb246MCI6IntcIm5hbWVcIjpcImZpbHRlcl9ldmVudHNfbG9jYXRpb25cIixcImFyZ3NcIjpcIjExNjI3MzM0ODM4NDQ4MVwifSJ9"
  },
  {
    "id": 23300,
    "name": "Mantilly",
    "state_id": 62,
    "postal_code": "61350",
    "state_name": "Orne",
    "query": "https://www.facebook.com/events/search?q=Dance&sde=Abq6hpNmijm8kReC4KYmmDP0NuT4IxNliFRnd3vuRZUj8uh4BsVIK3dVq186DripYNQbuwiy5LR0V3y0W_iqLV_W&filters=eyJycF9ldmVudHNfbG9jYXRpb246MCI6IntcIm5hbWVcIjpcImZpbHRlcl9ldmVudHNfbG9jYXRpb25cIixcImFyZ3NcIjpcIjExNTc1MTMzNTEwODY1OFwifSJ9"
  },
  {
    "id": 23301,
    "name": "Marchemaisons",
    "state_id": 62,
    "postal_code": "61170",
    "state_name": "Orne",
    "query": ""
  },
  {
    "id": 23302,
    "name": "Mardilly",
    "state_id": 62,
    "postal_code": "61230",
    "state_name": "Orne",
    "query": "https://www.facebook.com/events/search?q=Dance&sde=Abq6hpNmijm8kReC4KYmmDP0NuT4IxNliFRnd3vuRZUj8uh4BsVIK3dVq186DripYNQbuwiy5LR0V3y0W_iqLV_W&filters=eyJycF9ldmVudHNfbG9jYXRpb246MCI6IntcIm5hbWVcIjpcImZpbHRlcl9ldmVudHNfbG9jYXRpb25cIixcImFyZ3NcIjpcIjExMTQ0MDM4NTU0NDg3NVwifSJ9"
  },
  {
    "id": 23303,
    "name": "Mauves-sur-Huisne",
    "state_id": 62,
    "postal_code": "61400",
    "state_name": "Orne",
    "query": "https://www.facebook.com/events/search?q=Dance&sde=Abq6hpNmijm8kReC4KYmmDP0NuT4IxNliFRnd3vuRZUj8uh4BsVIK3dVq186DripYNQbuwiy5LR0V3y0W_iqLV_W&filters=eyJycF9ldmVudHNfbG9jYXRpb246MCI6IntcIm5hbWVcIjpcImZpbHRlcl9ldmVudHNfbG9jYXRpb25cIixcImFyZ3NcIjpcIjEwMzM0ODQxOTcwNjU1NVwifSJ9"
  },
  {
    "id": 23304,
    "name": "Médavy",
    "state_id": 62,
    "postal_code": "61570",
    "state_name": "Orne",
    "query": ""
  },
  {
    "id": 23305,
    "name": "Méhoudin",
    "state_id": 62,
    "postal_code": "61410",
    "state_name": "Orne",
    "query": ""
  },
  {
    "id": 23306,
    "name": "Le Mêle-sur-Sarthe",
    "state_id": 62,
    "postal_code": "61170",
    "state_name": "Orne",
    "query": "https://www.facebook.com/events/search?q=Dance&sde=Abq6hpNmijm8kReC4KYmmDP0NuT4IxNliFRnd3vuRZUj8uh4BsVIK3dVq186DripYNQbuwiy5LR0V3y0W_iqLV_W&filters=eyJycF9ldmVudHNfbG9jYXRpb246MCI6IntcIm5hbWVcIjpcImZpbHRlcl9ldmVudHNfbG9jYXRpb25cIixcImFyZ3NcIjpcIjExMTc0MzM3MjE4NDI2N1wifSJ9"
  },
  {
    "id": 23307,
    "name": "Le Ménil-Bérard",
    "state_id": 62,
    "postal_code": "61270",
    "state_name": "Orne",
    "query": ""
  },
  {
    "id": 23308,
    "name": "Le Ménil-de-Briouze",
    "state_id": 62,
    "postal_code": "61220",
    "state_name": "Orne",
    "query": "https://www.facebook.com/events/search?q=Dance&sde=Abq6hpNmijm8kReC4KYmmDP0NuT4IxNliFRnd3vuRZUj8uh4BsVIK3dVq186DripYNQbuwiy5LR0V3y0W_iqLV_W&filters=eyJycF9ldmVudHNfbG9jYXRpb246MCI6IntcIm5hbWVcIjpcImZpbHRlcl9ldmVudHNfbG9jYXRpb25cIixcImFyZ3NcIjpcIjExNjM0NzAzMTcxMzYwNFwifSJ9"
  },
  {
    "id": 23309,
    "name": "Le Ménil-Broût",
    "state_id": 62,
    "postal_code": "61250",
    "state_name": "Orne",
    "query": ""
  },
  {
    "id": 23310,
    "name": "Le Ménil-Ciboult",
    "state_id": 62,
    "postal_code": "61800",
    "state_name": "Orne",
    "query": ""
  },
  {
    "id": 23311,
    "name": "Ménil-Erreux",
    "state_id": 62,
    "postal_code": "61250",
    "state_name": "Orne",
    "query": "https://www.facebook.com/events/search?q=Dance&sde=Abq6hpNmijm8kReC4KYmmDP0NuT4IxNliFRnd3vuRZUj8uh4BsVIK3dVq186DripYNQbuwiy5LR0V3y0W_iqLV_W&filters=eyJycF9ldmVudHNfbG9jYXRpb246MCI6IntcIm5hbWVcIjpcImZpbHRlcl9ldmVudHNfbG9jYXRpb25cIixcImFyZ3NcIjpcIjEwNzIwNzQ0MjY1MDgyNlwifSJ9"
  },
  {
    "id": 23312,
    "name": "Ménil-Froger",
    "state_id": 62,
    "postal_code": "61240",
    "state_name": "Orne",
    "query": ""
  },
  {
    "id": 23313,
    "name": "Ménil-Gondouin",
    "state_id": 62,
    "postal_code": "61210",
    "state_name": "Orne",
    "query": ""
  },
  {
    "id": 23314,
    "name": "Le Ménil-Guyon",
    "state_id": 62,
    "postal_code": "61170",
    "state_name": "Orne",
    "query": ""
  },
  {
    "id": 23315,
    "name": "Ménil-Hermei",
    "state_id": 62,
    "postal_code": "61210",
    "state_name": "Orne",
    "query": ""
  },
  {
    "id": 23316,
    "name": "Ménil-Hubert-en-Exmes",
    "state_id": 62,
    "postal_code": "61230",
    "state_name": "Orne",
    "query": ""
  },
  {
    "id": 23317,
    "name": "Ménil-Hubert-sur-Orne",
    "state_id": 62,
    "postal_code": "61430",
    "state_name": "Orne",
    "query": "https://www.facebook.com/events/search?q=Dance&sde=Abq6hpNmijm8kReC4KYmmDP0NuT4IxNliFRnd3vuRZUj8uh4BsVIK3dVq186DripYNQbuwiy5LR0V3y0W_iqLV_W&filters=eyJycF9ldmVudHNfbG9jYXRpb246MCI6IntcIm5hbWVcIjpcImZpbHRlcl9ldmVudHNfbG9jYXRpb25cIixcImFyZ3NcIjpcIjExMTUxNjA3NTUzNjk0NVwifSJ9"
  },
  {
    "id": 23318,
    "name": "Le Ménil-Scelleur",
    "state_id": 62,
    "postal_code": "61320",
    "state_name": "Orne",
    "query": ""
  },
  {
    "id": 23319,
    "name": "Le Ménil-Vicomte",
    "state_id": 62,
    "postal_code": "61240",
    "state_name": "Orne",
    "query": ""
  },
  {
    "id": 23320,
    "name": "Ménil-Vin",
    "state_id": 62,
    "postal_code": "61210",
    "state_name": "Orne",
    "query": ""
  },
  {
    "id": 23321,
    "name": "Les Menus",
    "state_id": 62,
    "postal_code": "61290",
    "state_name": "Orne",
    "query": "https://www.facebook.com/events/search/?q=Dance&sde=Abq6hpNmijm8kReC4KYmmDP0NuT4IxNliFRnd3vuRZUj8uh4BsVIK3dVq186DripYNQbuwiy5LR0V3y0W_iqLV_W&filters=eyJycF9ldmVudHNfbG9jYXRpb246MCI6IntcIm5hbWVcIjpcImZpbHRlcl9ldmVudHNfbG9jYXRpb25cIixcImFyZ3NcIjpcIjExNjk2MTcwMTY0NzY5OVwifSJ9"
  },
  {
    "id": 23322,
    "name": "Le Merlerault",
    "state_id": 62,
    "postal_code": "61240",
    "state_name": "Orne",
    "query": "https://www.facebook.com/events/search?q=Dance&sde=Abq6hpNmijm8kReC4KYmmDP0NuT4IxNliFRnd3vuRZUj8uh4BsVIK3dVq186DripYNQbuwiy5LR0V3y0W_iqLV_W&filters=eyJycF9ldmVudHNfbG9jYXRpb246MCI6IntcIm5hbWVcIjpcImZpbHRlcl9ldmVudHNfbG9jYXRpb25cIixcImFyZ3NcIjpcIjExMTY3MDQwNTUyNzg0MlwifSJ9"
  },
  {
    "id": 23323,
    "name": "Merri",
    "state_id": 62,
    "postal_code": "61160",
    "state_name": "Orne",
    "query": "https://www.facebook.com/events/search?q=Dance&sde=Abq6hpNmijm8kReC4KYmmDP0NuT4IxNliFRnd3vuRZUj8uh4BsVIK3dVq186DripYNQbuwiy5LR0V3y0W_iqLV_W&filters=eyJycF9ldmVudHNfbG9jYXRpb246MCI6IntcIm5hbWVcIjpcImZpbHRlcl9ldmVudHNfbG9jYXRpb25cIixcImFyZ3NcIjpcIjExMzU4MzU0ODY1MTY1M1wifSJ9"
  },
  {
    "id": 23324,
    "name": "La Mesnière",
    "state_id": 62,
    "postal_code": "61560",
    "state_name": "Orne",
    "query": "https://www.facebook.com/events/search?q=Dance&sde=Abq6hpNmijm8kReC4KYmmDP0NuT4IxNliFRnd3vuRZUj8uh4BsVIK3dVq186DripYNQbuwiy5LR0V3y0W_iqLV_W&filters=eyJycF9ldmVudHNfbG9jYXRpb246MCI6IntcIm5hbWVcIjpcImZpbHRlcl9ldmVudHNfbG9jYXRpb25cIixcImFyZ3NcIjpcIjEwODM2NTc2MjUxOTYzN1wifSJ9"
  },
  {
    "id": 23325,
    "name": "Messei",
    "state_id": 62,
    "postal_code": "61440",
    "state_name": "Orne",
    "query": "https://www.facebook.com/events/search?q=Dance&sde=Abq6hpNmijm8kReC4KYmmDP0NuT4IxNliFRnd3vuRZUj8uh4BsVIK3dVq186DripYNQbuwiy5LR0V3y0W_iqLV_W&filters=eyJycF9ldmVudHNfbG9jYXRpb246MCI6IntcIm5hbWVcIjpcImZpbHRlcl9ldmVudHNfbG9jYXRpb25cIixcImFyZ3NcIjpcIjExMzMxNzA2ODY5NTEwN1wifSJ9"
  },
  {
    "id": 23326,
    "name": "Mieuxcé",
    "state_id": 62,
    "postal_code": "61250",
    "state_name": "Orne",
    "query": "https://www.facebook.com/events/search?q=Dance&sde=Abq6hpNmijm8kReC4KYmmDP0NuT4IxNliFRnd3vuRZUj8uh4BsVIK3dVq186DripYNQbuwiy5LR0V3y0W_iqLV_W&filters=eyJycF9ldmVudHNfbG9jYXRpb246MCI6IntcIm5hbWVcIjpcImZpbHRlcl9ldmVudHNfbG9jYXRpb25cIixcImFyZ3NcIjpcIjExNTYwOTkyNTEyMTg1MlwifSJ9"
  },
  {
    "id": 23327,
    "name": "Moncy",
    "state_id": 62,
    "postal_code": "61800",
    "state_name": "Orne",
    "query": "https://www.facebook.com/events/search?q=Dance&sde=Abq6hpNmijm8kReC4KYmmDP0NuT4IxNliFRnd3vuRZUj8uh4BsVIK3dVq186DripYNQbuwiy5LR0V3y0W_iqLV_W&filters=eyJycF9ldmVudHNfbG9jYXRpb246MCI6IntcIm5hbWVcIjpcImZpbHRlcl9ldmVudHNfbG9jYXRpb25cIixcImFyZ3NcIjpcIjEwNzIxNjk5OTMxNjYwMlwifSJ9"
  },
  {
    "id": 23328,
    "name": "Montabard",
    "state_id": 62,
    "postal_code": "61160",
    "state_name": "Orne",
    "query": "https://www.facebook.com/events/search?q=Dance&sde=Abq6hpNmijm8kReC4KYmmDP0NuT4IxNliFRnd3vuRZUj8uh4BsVIK3dVq186DripYNQbuwiy5LR0V3y0W_iqLV_W&filters=eyJycF9ldmVudHNfbG9jYXRpb246MCI6IntcIm5hbWVcIjpcImZpbHRlcl9ldmVudHNfbG9jYXRpb25cIixcImFyZ3NcIjpcIjEwNzM3Mjc5MjYzMzM5MVwifSJ9"
  },
  {
    "id": 23329,
    "name": "Montchevrel",
    "state_id": 62,
    "postal_code": "61170",
    "state_name": "Orne",
    "query": "https://www.facebook.com/events/search?q=Dance&sde=Abq6hpNmijm8kReC4KYmmDP0NuT4IxNliFRnd3vuRZUj8uh4BsVIK3dVq186DripYNQbuwiy5LR0V3y0W_iqLV_W&filters=eyJycF9ldmVudHNfbG9jYXRpb246MCI6IntcIm5hbWVcIjpcImZpbHRlcl9ldmVudHNfbG9jYXRpb25cIixcImFyZ3NcIjpcIjExNTYxODA4MTc4ODI0MVwifSJ9"
  },
  {
    "id": 23330,
    "name": "Montgaudry",
    "state_id": 62,
    "postal_code": "61360",
    "state_name": "Orne",
    "query": ""
  },
  {
    "id": 23331,
    "name": "Montilly-sur-Noireau",
    "state_id": 62,
    "postal_code": "61100",
    "state_name": "Orne",
    "query": "https://www.facebook.com/events/search?q=Dance&sde=Abq6hpNmijm8kReC4KYmmDP0NuT4IxNliFRnd3vuRZUj8uh4BsVIK3dVq186DripYNQbuwiy5LR0V3y0W_iqLV_W&filters=eyJycF9ldmVudHNfbG9jYXRpb246MCI6IntcIm5hbWVcIjpcImZpbHRlcl9ldmVudHNfbG9jYXRpb25cIixcImFyZ3NcIjpcIjEwOTA2MDkwMjQ2MDY3MFwifSJ9"
  },
  {
    "id": 23332,
    "name": "Montmerrei",
    "state_id": 62,
    "postal_code": "61570",
    "state_name": "Orne",
    "query": "https://www.facebook.com/events/search?q=Dance&sde=Abq6hpNmijm8kReC4KYmmDP0NuT4IxNliFRnd3vuRZUj8uh4BsVIK3dVq186DripYNQbuwiy5LR0V3y0W_iqLV_W&filters=eyJycF9ldmVudHNfbG9jYXRpb246MCI6IntcIm5hbWVcIjpcImZpbHRlcl9ldmVudHNfbG9jYXRpb25cIixcImFyZ3NcIjpcIjEwOTQ0NjgzNTc1Mzg1OFwifSJ9"
  },
  {
    "id": 23333,
    "name": "Mont-Ormel",
    "state_id": 62,
    "postal_code": "61160",
    "state_name": "Orne",
    "query": ""
  },
  {
    "id": 23334,
    "name": "Montreuil-au-Houlme",
    "state_id": 62,
    "postal_code": "61210",
    "state_name": "Orne",
    "query": ""
  },
  {
    "id": 23335,
    "name": "Montreuil-la-Cambe",
    "state_id": 62,
    "postal_code": "61160",
    "state_name": "Orne",
    "query": ""
  },
  {
    "id": 23336,
    "name": "Montsecret-Clairefougère",
    "state_id": 62,
    "postal_code": "61800",
    "state_name": "Orne",
    "query": ""
  },
  {
    "id": 23337,
    "name": "Mortagne-au-Perche",
    "state_id": 62,
    "postal_code": "61400",
    "state_name": "Orne",
    "query": "https://www.facebook.com/events/search?q=Dance&sde=Abq6hpNmijm8kReC4KYmmDP0NuT4IxNliFRnd3vuRZUj8uh4BsVIK3dVq186DripYNQbuwiy5LR0V3y0W_iqLV_W&filters=eyJycF9ldmVudHNfbG9jYXRpb246MCI6IntcIm5hbWVcIjpcImZpbHRlcl9ldmVudHNfbG9jYXRpb25cIixcImFyZ3NcIjpcIjEwNzY5MzIxMjU5Mzc3MFwifSJ9"
  },
  {
    "id": 23338,
    "name": "Mortrée",
    "state_id": 62,
    "postal_code": "61500",
    "state_name": "Orne",
    "query": "https://www.facebook.com/events/search?q=Dance&sde=Abq6hpNmijm8kReC4KYmmDP0NuT4IxNliFRnd3vuRZUj8uh4BsVIK3dVq186DripYNQbuwiy5LR0V3y0W_iqLV_W&filters=eyJycF9ldmVudHNfbG9jYXRpb246MCI6IntcIm5hbWVcIjpcImZpbHRlcl9ldmVudHNfbG9jYXRpb25cIixcImFyZ3NcIjpcIjExMTE5NjA1NTU2NzQyMFwifSJ9"
  },
  {
    "id": 23339,
    "name": "La Motte-Fouquet",
    "state_id": 62,
    "postal_code": "61600",
    "state_name": "Orne",
    "query": ""
  },
  {
    "id": 23340,
    "name": "Moulins-la-Marche",
    "state_id": 62,
    "postal_code": "61380",
    "state_name": "Orne",
    "query": "https://www.facebook.com/events/search?q=Dance&sde=Abq6hpNmijm8kReC4KYmmDP0NuT4IxNliFRnd3vuRZUj8uh4BsVIK3dVq186DripYNQbuwiy5LR0V3y0W_iqLV_W&filters=eyJycF9ldmVudHNfbG9jYXRpb246MCI6IntcIm5hbWVcIjpcImZpbHRlcl9ldmVudHNfbG9jYXRpb25cIixcImFyZ3NcIjpcIjEwNzE4OTgyNTk4NjA3OVwifSJ9"
  },
  {
    "id": 23341,
    "name": "Moulins-sur-Orne",
    "state_id": 62,
    "postal_code": "61200",
    "state_name": "Orne",
    "query": "https://www.facebook.com/events/search?q=Dance&sde=Abq6hpNmijm8kReC4KYmmDP0NuT4IxNliFRnd3vuRZUj8uh4BsVIK3dVq186DripYNQbuwiy5LR0V3y0W_iqLV_W&filters=eyJycF9ldmVudHNfbG9jYXRpb246MCI6IntcIm5hbWVcIjpcImZpbHRlcl9ldmVudHNfbG9jYXRpb25cIixcImFyZ3NcIjpcIjEwNzM1OTI5NTk2NzE3MFwifSJ9"
  },
  {
    "id": 23342,
    "name": "Moutiers-au-Perche",
    "state_id": 62,
    "postal_code": "61110",
    "state_name": "Orne",
    "query": "https://www.facebook.com/events/search?q=Dance&sde=Abq6hpNmijm8kReC4KYmmDP0NuT4IxNliFRnd3vuRZUj8uh4BsVIK3dVq186DripYNQbuwiy5LR0V3y0W_iqLV_W&filters=eyJycF9ldmVudHNfbG9jYXRpb246MCI6IntcIm5hbWVcIjpcImZpbHRlcl9ldmVudHNfbG9jYXRpb25cIixcImFyZ3NcIjpcIjExMTM3NjAzODg5MTA2NVwifSJ9"
  },
  {
    "id": 23343,
    "name": "Neauphe-sous-Essai",
    "state_id": 62,
    "postal_code": "61500",
    "state_name": "Orne",
    "query": "https://www.facebook.com/events/search?q=Dance&sde=Abq6hpNmijm8kReC4KYmmDP0NuT4IxNliFRnd3vuRZUj8uh4BsVIK3dVq186DripYNQbuwiy5LR0V3y0W_iqLV_W&filters=eyJycF9ldmVudHNfbG9jYXRpb246MCI6IntcIm5hbWVcIjpcImZpbHRlcl9ldmVudHNfbG9jYXRpb25cIixcImFyZ3NcIjpcIjEwOTA1MDIzMjQ2MTkzMFwifSJ9"
  },
  {
    "id": 23344,
    "name": "Neauphe-sur-Dive",
    "state_id": 62,
    "postal_code": "61160",
    "state_name": "Orne",
    "query": ""
  },
  {
    "id": 23345,
    "name": "Nécy",
    "state_id": 62,
    "postal_code": "61160",
    "state_name": "Orne",
    "query": "https://www.facebook.com/events/search?q=Dance&sde=Abq6hpNmijm8kReC4KYmmDP0NuT4IxNliFRnd3vuRZUj8uh4BsVIK3dVq186DripYNQbuwiy5LR0V3y0W_iqLV_W&filters=eyJycF9ldmVudHNfbG9jYXRpb246MCI6IntcIm5hbWVcIjpcImZpbHRlcl9ldmVudHNfbG9jYXRpb25cIixcImFyZ3NcIjpcIjEwOTUxOTQxOTA4MDM1MFwifSJ9"
  },
  {
    "id": 23346,
    "name": "Neuilly-le-Bisson",
    "state_id": 62,
    "postal_code": "61250",
    "state_name": "Orne",
    "query": ""
  },
  {
    "id": 23347,
    "name": "Neuville-sur-Touques",
    "state_id": 62,
    "postal_code": "61120",
    "state_name": "Orne",
    "query": "https://www.facebook.com/events/search?q=Dance&sde=Abq6hpNmijm8kReC4KYmmDP0NuT4IxNliFRnd3vuRZUj8uh4BsVIK3dVq186DripYNQbuwiy5LR0V3y0W_iqLV_W&filters=eyJycF9ldmVudHNfbG9jYXRpb246MCI6IntcIm5hbWVcIjpcImZpbHRlcl9ldmVudHNfbG9jYXRpb25cIixcImFyZ3NcIjpcIjExMzMxNDgzNTM1NDM0OFwifSJ9"
  },
  {
    "id": 23348,
    "name": "Neuvy-au-Houlme",
    "state_id": 62,
    "postal_code": "61210",
    "state_name": "Orne",
    "query": "https://www.facebook.com/events/search?q=Dance&sde=Abq6hpNmijm8kReC4KYmmDP0NuT4IxNliFRnd3vuRZUj8uh4BsVIK3dVq186DripYNQbuwiy5LR0V3y0W_iqLV_W&filters=eyJycF9ldmVudHNfbG9jYXRpb246MCI6IntcIm5hbWVcIjpcImZpbHRlcl9ldmVudHNfbG9jYXRpb25cIixcImFyZ3NcIjpcIjExMzAzMTcyNTM4OTM0NlwifSJ9"
  },
  {
    "id": 23349,
    "name": "Perche en Nocé",
    "state_id": 62,
    "postal_code": "61340",
    "state_name": "Orne",
    "query": ""
  },
  {
    "id": 23350,
    "name": "Nonant-le-Pin",
    "state_id": 62,
    "postal_code": "61240",
    "state_name": "Orne",
    "query": "https://www.facebook.com/events/search?q=Dance&sde=Abq6hpNmijm8kReC4KYmmDP0NuT4IxNliFRnd3vuRZUj8uh4BsVIK3dVq186DripYNQbuwiy5LR0V3y0W_iqLV_W&filters=eyJycF9ldmVudHNfbG9jYXRpb246MCI6IntcIm5hbWVcIjpcImZpbHRlcl9ldmVudHNfbG9jYXRpb25cIixcImFyZ3NcIjpcIjExMjk0MjA1NTM5MTE3NlwifSJ9"
  },
  {
    "id": 23351,
    "name": "Occagnes",
    "state_id": 62,
    "postal_code": "61200",
    "state_name": "Orne",
    "query": "https://www.facebook.com/events/search?q=Dance&sde=Abq6hpNmijm8kReC4KYmmDP0NuT4IxNliFRnd3vuRZUj8uh4BsVIK3dVq186DripYNQbuwiy5LR0V3y0W_iqLV_W&filters=eyJycF9ldmVudHNfbG9jYXRpb246MCI6IntcIm5hbWVcIjpcImZpbHRlcl9ldmVudHNfbG9jYXRpb25cIixcImFyZ3NcIjpcIjExMTE2MTkxMjI0NzMwOVwifSJ9"
  },
  {
    "id": 23352,
    "name": "Ommoy",
    "state_id": 62,
    "postal_code": "61160",
    "state_name": "Orne",
    "query": ""
  },
  {
    "id": 23353,
    "name": "Orgères",
    "state_id": 62,
    "postal_code": "61230",
    "state_name": "Orne",
    "query": "https://www.facebook.com/events/search?q=Dance&sde=Abq6hpNmijm8kReC4KYmmDP0NuT4IxNliFRnd3vuRZUj8uh4BsVIK3dVq186DripYNQbuwiy5LR0V3y0W_iqLV_W&filters=eyJycF9ldmVudHNfbG9jYXRpb246MCI6IntcIm5hbWVcIjpcImZpbHRlcl9ldmVudHNfbG9jYXRpb25cIixcImFyZ3NcIjpcIjEwNjg3OTQ3NjAxMDg0M1wifSJ9"
  },
  {
    "id": 23354,
    "name": "Origny-le-Roux",
    "state_id": 62,
    "postal_code": "61130",
    "state_name": "Orne",
    "query": "https://www.facebook.com/events/search?q=Dance&sde=Abq6hpNmijm8kReC4KYmmDP0NuT4IxNliFRnd3vuRZUj8uh4BsVIK3dVq186DripYNQbuwiy5LR0V3y0W_iqLV_W&filters=eyJycF9ldmVudHNfbG9jYXRpb246MCI6IntcIm5hbWVcIjpcImZpbHRlcl9ldmVudHNfbG9jYXRpb25cIixcImFyZ3NcIjpcIjExNTY4NTMwODQ0NDA4N1wifSJ9"
  },
  {
    "id": 23355,
    "name": "Pacé",
    "state_id": 62,
    "postal_code": "61250",
    "state_name": "Orne",
    "query": ""
  },
  {
    "id": 23356,
    "name": "Parfondeval",
    "state_id": 62,
    "postal_code": "61400",
    "state_name": "Orne",
    "query": "https://www.facebook.com/events/search?q=Dance&sde=Abq6hpNmijm8kReC4KYmmDP0NuT4IxNliFRnd3vuRZUj8uh4BsVIK3dVq186DripYNQbuwiy5LR0V3y0W_iqLV_W&filters=eyJycF9ldmVudHNfbG9jYXRpb246MCI6IntcIm5hbWVcIjpcImZpbHRlcl9ldmVudHNfbG9jYXRpb25cIixcImFyZ3NcIjpcIjExMjg2NTQ5NTM5MTU0MVwifSJ9"
  },
  {
    "id": 23357,
    "name": "Le Pas-Saint-l'Homer",
    "state_id": 62,
    "postal_code": "61290",
    "state_name": "Orne",
    "query": ""
  },
  {
    "id": 23358,
    "name": "Passais Villages",
    "state_id": 62,
    "postal_code": "61350",
    "state_name": "Orne",
    "query": ""
  },
  {
    "id": 23359,
    "name": "Perrou",
    "state_id": 62,
    "postal_code": "61700",
    "state_name": "Orne",
    "query": "https://www.facebook.com/events/search?q=Dance&sde=Abq6hpNmijm8kReC4KYmmDP0NuT4IxNliFRnd3vuRZUj8uh4BsVIK3dVq186DripYNQbuwiy5LR0V3y0W_iqLV_W&filters=eyJycF9ldmVudHNfbG9jYXRpb246MCI6IntcIm5hbWVcIjpcImZpbHRlcl9ldmVudHNfbG9jYXRpb25cIixcImFyZ3NcIjpcIjExNTY1MzAwODQ1MTYyMlwifSJ9"
  },
  {
    "id": 23360,
    "name": "Pervenchères",
    "state_id": 62,
    "postal_code": "61360",
    "state_name": "Orne",
    "query": "https://www.facebook.com/events/search?q=Dance&sde=Abq6hpNmijm8kReC4KYmmDP0NuT4IxNliFRnd3vuRZUj8uh4BsVIK3dVq186DripYNQbuwiy5LR0V3y0W_iqLV_W&filters=eyJycF9ldmVudHNfbG9jYXRpb246MCI6IntcIm5hbWVcIjpcImZpbHRlcl9ldmVudHNfbG9jYXRpb25cIixcImFyZ3NcIjpcIjExMTQ0NTcwNTU1MDk4NVwifSJ9"
  },
  {
    "id": 23361,
    "name": "Le Pin-au-Haras",
    "state_id": 62,
    "postal_code": "61310",
    "state_name": "Orne",
    "query": "https://www.facebook.com/events/search?q=Dance&sde=Abq6hpNmijm8kReC4KYmmDP0NuT4IxNliFRnd3vuRZUj8uh4BsVIK3dVq186DripYNQbuwiy5LR0V3y0W_iqLV_W&filters=eyJycF9ldmVudHNfbG9jYXRpb246MCI6IntcIm5hbWVcIjpcImZpbHRlcl9ldmVudHNfbG9jYXRpb25cIixcImFyZ3NcIjpcIjEwNzQxNDI4OTI5NTUyNVwifSJ9"
  },
  {
    "id": 23362,
    "name": "Le Pin-la-Garenne",
    "state_id": 62,
    "postal_code": "61400",
    "state_name": "Orne",
    "query": "https://www.facebook.com/events/search?q=Dance&sde=Abq6hpNmijm8kReC4KYmmDP0NuT4IxNliFRnd3vuRZUj8uh4BsVIK3dVq186DripYNQbuwiy5LR0V3y0W_iqLV_W&filters=eyJycF9ldmVudHNfbG9jYXRpb246MCI6IntcIm5hbWVcIjpcImZpbHRlcl9ldmVudHNfbG9jYXRpb25cIixcImFyZ3NcIjpcIjExMTgxMjM5NTUwNTUxOFwifSJ9"
  },
  {
    "id": 23363,
    "name": "Planches",
    "state_id": 62,
    "postal_code": "61370",
    "state_name": "Orne",
    "query": "https://www.facebook.com/events/search?q=Dance&sde=Abq6hpNmijm8kReC4KYmmDP0NuT4IxNliFRnd3vuRZUj8uh4BsVIK3dVq186DripYNQbuwiy5LR0V3y0W_iqLV_W&filters=eyJycF9ldmVudHNfbG9jYXRpb246MCI6IntcIm5hbWVcIjpcImZpbHRlcl9ldmVudHNfbG9jYXRpb25cIixcImFyZ3NcIjpcIjEwNDkzNzA0Mjg3NjQ4NVwifSJ9"
  },
  {
    "id": 23364,
    "name": "Le Plantis",
    "state_id": 62,
    "postal_code": "61170",
    "state_name": "Orne",
    "query": ""
  },
  {
    "id": 23365,
    "name": "Pointel",
    "state_id": 62,
    "postal_code": "61220",
    "state_name": "Orne",
    "query": "https://www.facebook.com/events/search?q=Dance&sde=Abq6hpNmijm8kReC4KYmmDP0NuT4IxNliFRnd3vuRZUj8uh4BsVIK3dVq186DripYNQbuwiy5LR0V3y0W_iqLV_W&filters=eyJycF9ldmVudHNfbG9jYXRpb246MCI6IntcIm5hbWVcIjpcImZpbHRlcl9ldmVudHNfbG9jYXRpb25cIixcImFyZ3NcIjpcIjExNTc5NjM1ODQzMTg4OFwifSJ9"
  },
  {
    "id": 23366,
    "name": "Pontchardon",
    "state_id": 62,
    "postal_code": "61120",
    "state_name": "Orne",
    "query": ""
  },
  {
    "id": 23367,
    "name": "Pouvrai",
    "state_id": 62,
    "postal_code": "61130",
    "state_name": "Orne",
    "query": "https://www.facebook.com/events/search?q=Dance&sde=Abq6hpNmijm8kReC4KYmmDP0NuT4IxNliFRnd3vuRZUj8uh4BsVIK3dVq186DripYNQbuwiy5LR0V3y0W_iqLV_W&filters=eyJycF9ldmVudHNfbG9jYXRpb246MCI6IntcIm5hbWVcIjpcImZpbHRlcl9ldmVudHNfbG9jYXRpb25cIixcImFyZ3NcIjpcIjExMTczMjk5MjE4MTQ2N1wifSJ9"
  },
  {
    "id": 23368,
    "name": "Putanges-le-Lac",
    "state_id": 62,
    "postal_code": "61210",
    "state_name": "Orne",
    "query": ""
  },
  {
    "id": 23369,
    "name": "Écouves",
    "state_id": 62,
    "postal_code": "61250",
    "state_name": "Orne",
    "query": ""
  },
  {
    "id": 23370,
    "name": "Rai",
    "state_id": 62,
    "postal_code": "61270",
    "state_name": "Orne",
    "query": ""
  },
  {
    "id": 23371,
    "name": "Rânes",
    "state_id": 62,
    "postal_code": "61150",
    "state_name": "Orne",
    "query": "https://www.facebook.com/events/search?q=Dance&sde=Abq6hpNmijm8kReC4KYmmDP0NuT4IxNliFRnd3vuRZUj8uh4BsVIK3dVq186DripYNQbuwiy5LR0V3y0W_iqLV_W&filters=eyJycF9ldmVudHNfbG9jYXRpb246MCI6IntcIm5hbWVcIjpcImZpbHRlcl9ldmVudHNfbG9jYXRpb25cIixcImFyZ3NcIjpcIjEwOTE0NzgwNTc4NDkzMVwifSJ9"
  },
  {
    "id": 23372,
    "name": "Rémalard en Perche",
    "state_id": 62,
    "postal_code": "61110",
    "state_name": "Orne",
    "query": ""
  },
  {
    "id": 23373,
    "name": "Le Renouard",
    "state_id": 62,
    "postal_code": "61120",
    "state_name": "Orne",
    "query": "https://www.facebook.com/events/search?q=Dance&sde=Abq6hpNmijm8kReC4KYmmDP0NuT4IxNliFRnd3vuRZUj8uh4BsVIK3dVq186DripYNQbuwiy5LR0V3y0W_iqLV_W&filters=eyJycF9ldmVudHNfbG9jYXRpb246MCI6IntcIm5hbWVcIjpcImZpbHRlcl9ldmVudHNfbG9jYXRpb25cIixcImFyZ3NcIjpcIjExMzAwNTIyNTM4NTU5MFwifSJ9"
  },
  {
    "id": 23374,
    "name": "Résenlieu",
    "state_id": 62,
    "postal_code": "61230",
    "state_name": "Orne",
    "query": "https://www.facebook.com/events/search?q=Dance&sde=Abq6hpNmijm8kReC4KYmmDP0NuT4IxNliFRnd3vuRZUj8uh4BsVIK3dVq186DripYNQbuwiy5LR0V3y0W_iqLV_W&filters=eyJycF9ldmVudHNfbG9jYXRpb246MCI6IntcIm5hbWVcIjpcImZpbHRlcl9ldmVudHNfbG9jYXRpb25cIixcImFyZ3NcIjpcIjExNzAwOTU1NDk3NTg1MVwifSJ9"
  },
  {
    "id": 23375,
    "name": "Réveillon",
    "state_id": 62,
    "postal_code": "61400",
    "state_name": "Orne",
    "query": "https://www.facebook.com/events/search?q=Dance&sde=Abq6hpNmijm8kReC4KYmmDP0NuT4IxNliFRnd3vuRZUj8uh4BsVIK3dVq186DripYNQbuwiy5LR0V3y0W_iqLV_W&filters=eyJycF9ldmVudHNfbG9jYXRpb246MCI6IntcIm5hbWVcIjpcImZpbHRlcl9ldmVudHNfbG9jYXRpb25cIixcImFyZ3NcIjpcIjEwNjg4OTk0MjY3NTE2MVwifSJ9"
  },
  {
    "id": 23376,
    "name": "Ri",
    "state_id": 62,
    "postal_code": "61210",
    "state_name": "Orne",
    "query": ""
  },
  {
    "id": 23377,
    "name": "La Roche-Mabile",
    "state_id": 62,
    "postal_code": "61420",
    "state_name": "Orne",
    "query": ""
  },
  {
    "id": 23378,
    "name": "Roiville",
    "state_id": 62,
    "postal_code": "61120",
    "state_name": "Orne",
    "query": "https://www.facebook.com/events/search?q=Dance&sde=Abq6hpNmijm8kReC4KYmmDP0NuT4IxNliFRnd3vuRZUj8uh4BsVIK3dVq186DripYNQbuwiy5LR0V3y0W_iqLV_W&filters=eyJycF9ldmVudHNfbG9jYXRpb246MCI6IntcIm5hbWVcIjpcImZpbHRlcl9ldmVudHNfbG9jYXRpb25cIixcImFyZ3NcIjpcIjEwOTYyMzExOTA2OTE2MFwifSJ9"
  },
  {
    "id": 23379,
    "name": "Rônai",
    "state_id": 62,
    "postal_code": "61160",
    "state_name": "Orne",
    "query": ""
  },
  {
    "id": 23380,
    "name": "Rouperroux",
    "state_id": 62,
    "postal_code": "61320",
    "state_name": "Orne",
    "query": "https://www.facebook.com/events/search?q=Dance&sde=Abq6hpNmijm8kReC4KYmmDP0NuT4IxNliFRnd3vuRZUj8uh4BsVIK3dVq186DripYNQbuwiy5LR0V3y0W_iqLV_W&filters=eyJycF9ldmVudHNfbG9jYXRpb246MCI6IntcIm5hbWVcIjpcImZpbHRlcl9ldmVudHNfbG9jYXRpb25cIixcImFyZ3NcIjpcIjEwODc1MTYzNTgxNDg5NVwifSJ9"
  },
  {
    "id": 23381,
    "name": "Sai",
    "state_id": 62,
    "postal_code": "61200",
    "state_name": "Orne",
    "query": ""
  },
  {
    "id": 23382,
    "name": "Saint-Agnan-sur-Sarthe",
    "state_id": 62,
    "postal_code": "61170",
    "state_name": "Orne",
    "query": ""
  },
  {
    "id": 23383,
    "name": "Saint-André-de-Briouze",
    "state_id": 62,
    "postal_code": "61220",
    "state_name": "Orne",
    "query": ""
  },
  {
    "id": 23384,
    "name": "Saint-André-de-Messei",
    "state_id": 62,
    "postal_code": "61440",
    "state_name": "Orne",
    "query": "https://www.facebook.com/events/search?q=Dance&sde=Abq6hpNmijm8kReC4KYmmDP0NuT4IxNliFRnd3vuRZUj8uh4BsVIK3dVq186DripYNQbuwiy5LR0V3y0W_iqLV_W&filters=eyJycF9ldmVudHNfbG9jYXRpb246MCI6IntcIm5hbWVcIjpcImZpbHRlcl9ldmVudHNfbG9jYXRpb25cIixcImFyZ3NcIjpcIjEwNTUyMjUzOTQ4MTI0MlwifSJ9"
  },
  {
    "id": 23385,
    "name": "Saint-Aquilin-de-Corbion",
    "state_id": 62,
    "postal_code": "61380",
    "state_name": "Orne",
    "query": ""
  },
  {
    "id": 23386,
    "name": "Saint-Aubin-d'Appenai",
    "state_id": 62,
    "postal_code": "61170",
    "state_name": "Orne",
    "query": "https://www.facebook.com/events/search?q=Dance&sde=Abq6hpNmijm8kReC4KYmmDP0NuT4IxNliFRnd3vuRZUj8uh4BsVIK3dVq186DripYNQbuwiy5LR0V3y0W_iqLV_W&filters=eyJycF9ldmVudHNfbG9jYXRpb246MCI6IntcIm5hbWVcIjpcImZpbHRlcl9ldmVudHNfbG9jYXRpb25cIixcImFyZ3NcIjpcIjEwNDEwMzE1NjI5NDE1MVwifSJ9"
  },
  {
    "id": 23387,
    "name": "Saint-Aubin-de-Bonneval",
    "state_id": 62,
    "postal_code": "61470",
    "state_name": "Orne",
    "query": ""
  },
  {
    "id": 23388,
    "name": "Saint-Aubin-de-Courteraie",
    "state_id": 62,
    "postal_code": "61560",
    "state_name": "Orne",
    "query": ""
  },
  {
    "id": 23389,
    "name": "Saint-Bômer-les-Forges",
    "state_id": 62,
    "postal_code": "61700",
    "state_name": "Orne",
    "query": "https://www.facebook.com/events/search?q=Dance&sde=Abq6hpNmijm8kReC4KYmmDP0NuT4IxNliFRnd3vuRZUj8uh4BsVIK3dVq186DripYNQbuwiy5LR0V3y0W_iqLV_W&filters=eyJycF9ldmVudHNfbG9jYXRpb246MCI6IntcIm5hbWVcIjpcImZpbHRlcl9ldmVudHNfbG9jYXRpb25cIixcImFyZ3NcIjpcIjEwNTQ4NzYyMjgxODQ4MFwifSJ9"
  },
  {
    "id": 23390,
    "name": "Saint-Brice",
    "state_id": 62,
    "postal_code": "61700",
    "state_name": "Orne",
    "query": "https://www.facebook.com/events/search?q=Dance&sde=Abq6hpNmijm8kReC4KYmmDP0NuT4IxNliFRnd3vuRZUj8uh4BsVIK3dVq186DripYNQbuwiy5LR0V3y0W_iqLV_W&filters=eyJycF9ldmVudHNfbG9jYXRpb246MCI6IntcIm5hbWVcIjpcImZpbHRlcl9ldmVudHNfbG9jYXRpb25cIixcImFyZ3NcIjpcIjEwODQxNTg4NTg1NDQwN1wifSJ9"
  },
  {
    "id": 23391,
    "name": "Saint-Brice-sous-Rânes",
    "state_id": 62,
    "postal_code": "61150",
    "state_name": "Orne",
    "query": ""
  },
  {
    "id": 23392,
    "name": "Saint-Céneri-le-Gérei",
    "state_id": 62,
    "postal_code": "61250",
    "state_name": "Orne",
    "query": "https://www.facebook.com/events/search?q=Dance&sde=Abq6hpNmijm8kReC4KYmmDP0NuT4IxNliFRnd3vuRZUj8uh4BsVIK3dVq186DripYNQbuwiy5LR0V3y0W_iqLV_W&filters=eyJycF9ldmVudHNfbG9jYXRpb246MCI6IntcIm5hbWVcIjpcImZpbHRlcl9ldmVudHNfbG9jYXRpb25cIixcImFyZ3NcIjpcIjEwOTQzNDg5OTA3NTcxMFwifSJ9"
  },
  {
    "id": 23393,
    "name": "Sainte-Céronne-lès-Mortagne",
    "state_id": 62,
    "postal_code": "61380",
    "state_name": "Orne",
    "query": "https://www.facebook.com/events/search?q=Dance&sde=Abq6hpNmijm8kReC4KYmmDP0NuT4IxNliFRnd3vuRZUj8uh4BsVIK3dVq186DripYNQbuwiy5LR0V3y0W_iqLV_W&filters=eyJycF9ldmVudHNfbG9jYXRpb246MCI6IntcIm5hbWVcIjpcImZpbHRlcl9ldmVudHNfbG9jYXRpb25cIixcImFyZ3NcIjpcIjExMjEyMzgzODgxMjc5OFwifSJ9"
  },
  {
    "id": 23394,
    "name": "Saint-Christophe-de-Chaulieu",
    "state_id": 62,
    "postal_code": "61800",
    "state_name": "Orne",
    "query": ""
  },
  {
    "id": 23395,
    "name": "Boischampré",
    "state_id": 62,
    "postal_code": "61570",
    "state_name": "Orne",
    "query": ""
  },
  {
    "id": 23396,
    "name": "Saint-Clair-de-Halouze",
    "state_id": 62,
    "postal_code": "61490",
    "state_name": "Orne",
    "query": "https://www.facebook.com/events/search?q=Dance&sde=Abq6hpNmijm8kReC4KYmmDP0NuT4IxNliFRnd3vuRZUj8uh4BsVIK3dVq186DripYNQbuwiy5LR0V3y0W_iqLV_W&filters=eyJycF9ldmVudHNfbG9jYXRpb246MCI6IntcIm5hbWVcIjpcImZpbHRlcl9ldmVudHNfbG9jYXRpb25cIixcImFyZ3NcIjpcIjExMjM0NDI2MjExNDY4N1wifSJ9"
  },
  {
    "id": 23397,
    "name": "Saint-Cyr-la-Rosière",
    "state_id": 62,
    "postal_code": "61130",
    "state_name": "Orne",
    "query": "https://www.facebook.com/events/search?q=Dance&sde=Abq6hpNmijm8kReC4KYmmDP0NuT4IxNliFRnd3vuRZUj8uh4BsVIK3dVq186DripYNQbuwiy5LR0V3y0W_iqLV_W&filters=eyJycF9ldmVudHNfbG9jYXRpb246MCI6IntcIm5hbWVcIjpcImZpbHRlcl9ldmVudHNfbG9jYXRpb25cIixcImFyZ3NcIjpcIjEwOTE0OTIyMjQzNzM5NFwifSJ9"
  },
  {
    "id": 23398,
    "name": "Saint-Denis-sur-Huisne",
    "state_id": 62,
    "postal_code": "61400",
    "state_name": "Orne",
    "query": ""
  },
  {
    "id": 23399,
    "name": "Saint-Denis-sur-Sarthon",
    "state_id": 62,
    "postal_code": "61420",
    "state_name": "Orne",
    "query": "https://www.facebook.com/events/search?q=Dance&sde=Abq6hpNmijm8kReC4KYmmDP0NuT4IxNliFRnd3vuRZUj8uh4BsVIK3dVq186DripYNQbuwiy5LR0V3y0W_iqLV_W&filters=eyJycF9ldmVudHNfbG9jYXRpb246MCI6IntcIm5hbWVcIjpcImZpbHRlcl9ldmVudHNfbG9jYXRpb25cIixcImFyZ3NcIjpcIjEwMzk2NzQzNjMwNzQ5M1wifSJ9"
  },
  {
    "id": 23400,
    "name": "Saint-Ellier-les-Bois",
    "state_id": 62,
    "postal_code": "61320",
    "state_name": "Orne",
    "query": "https://www.facebook.com/events/search?q=Dance&sde=Abq6hpNmijm8kReC4KYmmDP0NuT4IxNliFRnd3vuRZUj8uh4BsVIK3dVq186DripYNQbuwiy5LR0V3y0W_iqLV_W&filters=eyJycF9ldmVudHNfbG9jYXRpb246MCI6IntcIm5hbWVcIjpcImZpbHRlcl9ldmVudHNfbG9jYXRpb25cIixcImFyZ3NcIjpcIjEwODk0OTE2NTgwNTg4MFwifSJ9"
  },
  {
    "id": 23401,
    "name": "Saint-Evroult-de-Montfort",
    "state_id": 62,
    "postal_code": "61230",
    "state_name": "Orne",
    "query": "https://www.facebook.com/events/search?q=Dance&sde=Abq6hpNmijm8kReC4KYmmDP0NuT4IxNliFRnd3vuRZUj8uh4BsVIK3dVq186DripYNQbuwiy5LR0V3y0W_iqLV_W&filters=eyJycF9ldmVudHNfbG9jYXRpb246MCI6IntcIm5hbWVcIjpcImZpbHRlcl9ldmVudHNfbG9jYXRpb25cIixcImFyZ3NcIjpcIjEwOTExMzg4NTc4ODg2M1wifSJ9"
  },
  {
    "id": 23402,
    "name": "Saint-Evroult-Notre-Dame-du-Bois",
    "state_id": 62,
    "postal_code": "61550",
    "state_name": "Orne",
    "query": "https://www.facebook.com/events/search?q=Dance&sde=Abq6hpNmijm8kReC4KYmmDP0NuT4IxNliFRnd3vuRZUj8uh4BsVIK3dVq186DripYNQbuwiy5LR0V3y0W_iqLV_W&filters=eyJycF9ldmVudHNfbG9jYXRpb246MCI6IntcIm5hbWVcIjpcImZpbHRlcl9ldmVudHNfbG9jYXRpb25cIixcImFyZ3NcIjpcIjExMjQ1NzExNTQzNzMxNVwifSJ9"
  },
  {
    "id": 23403,
    "name": "Saint-Fraimbault",
    "state_id": 62,
    "postal_code": "61350",
    "state_name": "Orne",
    "query": "https://www.facebook.com/events/search?q=Dance&sde=Abq6hpNmijm8kReC4KYmmDP0NuT4IxNliFRnd3vuRZUj8uh4BsVIK3dVq186DripYNQbuwiy5LR0V3y0W_iqLV_W&filters=eyJycF9ldmVudHNfbG9jYXRpb246MCI6IntcIm5hbWVcIjpcImZpbHRlcl9ldmVudHNfbG9jYXRpb25cIixcImFyZ3NcIjpcIjEwNjk0NzkyOTMzNTcyNlwifSJ9"
  },
  {
    "id": 23404,
    "name": "Saint-Fulgent-des-Ormes",
    "state_id": 62,
    "postal_code": "61130",
    "state_name": "Orne",
    "query": ""
  },
  {
    "id": 23405,
    "name": "Sainte-Gauburge-Sainte-Colombe",
    "state_id": 62,
    "postal_code": "61370",
    "state_name": "Orne",
    "query": "https://www.facebook.com/events/search?q=Dance&sde=Abq6hpNmijm8kReC4KYmmDP0NuT4IxNliFRnd3vuRZUj8uh4BsVIK3dVq186DripYNQbuwiy5LR0V3y0W_iqLV_W&filters=eyJycF9ldmVudHNfbG9jYXRpb246MCI6IntcIm5hbWVcIjpcImZpbHRlcl9ldmVudHNfbG9jYXRpb25cIixcImFyZ3NcIjpcIjEwNjk1NjA0MjY3ODA4M1wifSJ9"
  },
  {
    "id": 23406,
    "name": "Saint-Georges-d'Annebecq",
    "state_id": 62,
    "postal_code": "61600",
    "state_name": "Orne",
    "query": ""
  },
  {
    "id": 23407,
    "name": "Saint-Georges-des-Groseillers",
    "state_id": 62,
    "postal_code": "61100",
    "state_name": "Orne",
    "query": "https://www.facebook.com/events/search?q=Dance&sde=Abq6hpNmijm8kReC4KYmmDP0NuT4IxNliFRnd3vuRZUj8uh4BsVIK3dVq186DripYNQbuwiy5LR0V3y0W_iqLV_W&filters=eyJycF9ldmVudHNfbG9jYXRpb246MCI6IntcIm5hbWVcIjpcImZpbHRlcl9ldmVudHNfbG9jYXRpb25cIixcImFyZ3NcIjpcIjExMjIyMTI3MjEyMjk1MVwifSJ9"
  },
  {
    "id": 23408,
    "name": "Saint-Germain-d'Aunay",
    "state_id": 62,
    "postal_code": "61470",
    "state_name": "Orne",
    "query": ""
  },
  {
    "id": 23409,
    "name": "Saint-Germain-de-Clairefeuille",
    "state_id": 62,
    "postal_code": "61240",
    "state_name": "Orne",
    "query": "https://www.facebook.com/events/search/?q=Dance&sde=Abq6hpNmijm8kReC4KYmmDP0NuT4IxNliFRnd3vuRZUj8uh4BsVIK3dVq186DripYNQbuwiy5LR0V3y0W_iqLV_W&filters=eyJycF9ldmVudHNfbG9jYXRpb246MCI6IntcIm5hbWVcIjpcImZpbHRlcl9ldmVudHNfbG9jYXRpb25cIixcImFyZ3NcIjpcIjExMTc2OTAwODg0Njk5MFwifSJ9"
  },
  {
    "id": 23410,
    "name": "Saint-Germain-de-la-Coudre",
    "state_id": 62,
    "postal_code": "61130",
    "state_name": "Orne",
    "query": "https://www.facebook.com/events/search?q=Dance&sde=Abq6hpNmijm8kReC4KYmmDP0NuT4IxNliFRnd3vuRZUj8uh4BsVIK3dVq186DripYNQbuwiy5LR0V3y0W_iqLV_W&filters=eyJycF9ldmVudHNfbG9jYXRpb246MCI6IntcIm5hbWVcIjpcImZpbHRlcl9ldmVudHNfbG9jYXRpb25cIixcImFyZ3NcIjpcIjEwNTYzMDQzNjEzNzI0NVwifSJ9"
  },
  {
    "id": 23411,
    "name": "Saint-Germain-des-Grois",
    "state_id": 62,
    "postal_code": "61110",
    "state_name": "Orne",
    "query": "https://www.facebook.com/events/search?q=Dance&sde=Abq6hpNmijm8kReC4KYmmDP0NuT4IxNliFRnd3vuRZUj8uh4BsVIK3dVq186DripYNQbuwiy5LR0V3y0W_iqLV_W&filters=eyJycF9ldmVudHNfbG9jYXRpb246MCI6IntcIm5hbWVcIjpcImZpbHRlcl9ldmVudHNfbG9jYXRpb25cIixcImFyZ3NcIjpcIjExMjgyNjM4ODczNjk3NlwifSJ9"
  },
  {
    "id": 23412,
    "name": "Saint-Germain-de-Martigny",
    "state_id": 62,
    "postal_code": "61560",
    "state_name": "Orne",
    "query": ""
  },
  {
    "id": 23413,
    "name": "Saint-Germain-du-Corbéis",
    "state_id": 62,
    "postal_code": "61000",
    "state_name": "Orne",
    "query": "https://www.facebook.com/events/search?q=Dance&sde=Abq6hpNmijm8kReC4KYmmDP0NuT4IxNliFRnd3vuRZUj8uh4BsVIK3dVq186DripYNQbuwiy5LR0V3y0W_iqLV_W&filters=eyJycF9ldmVudHNfbG9jYXRpb246MCI6IntcIm5hbWVcIjpcImZpbHRlcl9ldmVudHNfbG9jYXRpb25cIixcImFyZ3NcIjpcIjEwNjEyODgwOTQxODI1NFwifSJ9"
  },
  {
    "id": 23414,
    "name": "Saint-Germain-le-Vieux",
    "state_id": 62,
    "postal_code": "61390",
    "state_name": "Orne",
    "query": ""
  },
  {
    "id": 23415,
    "name": "Saint-Gervais-des-Sablons",
    "state_id": 62,
    "postal_code": "61160",
    "state_name": "Orne",
    "query": ""
  },
  {
    "id": 23416,
    "name": "Saint-Gervais-du-Perron",
    "state_id": 62,
    "postal_code": "61500",
    "state_name": "Orne",
    "query": "https://www.facebook.com/events/search?q=Dance&sde=Abq6hpNmijm8kReC4KYmmDP0NuT4IxNliFRnd3vuRZUj8uh4BsVIK3dVq186DripYNQbuwiy5LR0V3y0W_iqLV_W&filters=eyJycF9ldmVudHNfbG9jYXRpb246MCI6IntcIm5hbWVcIjpcImZpbHRlcl9ldmVudHNfbG9jYXRpb25cIixcImFyZ3NcIjpcIjExNjAwOTExODQxNTM1MlwifSJ9"
  },
  {
    "id": 23417,
    "name": "Saint-Gilles-des-Marais",
    "state_id": 62,
    "postal_code": "61700",
    "state_name": "Orne",
    "query": ""
  },
  {
    "id": 23418,
    "name": "Saint-Hilaire-de-Briouze",
    "state_id": 62,
    "postal_code": "61220",
    "state_name": "Orne",
    "query": "https://www.facebook.com/events/search?q=Dance&sde=Abq6hpNmijm8kReC4KYmmDP0NuT4IxNliFRnd3vuRZUj8uh4BsVIK3dVq186DripYNQbuwiy5LR0V3y0W_iqLV_W&filters=eyJycF9ldmVudHNfbG9jYXRpb246MCI6IntcIm5hbWVcIjpcImZpbHRlcl9ldmVudHNfbG9jYXRpb25cIixcImFyZ3NcIjpcIjExNjM2NDQyNTA0NDI1OFwifSJ9"
  },
  {
    "id": 23419,
    "name": "Saint-Hilaire-le-Châtel",
    "state_id": 62,
    "postal_code": "61400",
    "state_name": "Orne",
    "query": "https://www.facebook.com/events/search?q=Dance&sde=Abq6hpNmijm8kReC4KYmmDP0NuT4IxNliFRnd3vuRZUj8uh4BsVIK3dVq186DripYNQbuwiy5LR0V3y0W_iqLV_W&filters=eyJycF9ldmVudHNfbG9jYXRpb246MCI6IntcIm5hbWVcIjpcImZpbHRlcl9ldmVudHNfbG9jYXRpb25cIixcImFyZ3NcIjpcIjEwNzE5MTczMjY1MzAyMFwifSJ9"
  },
  {
    "id": 23420,
    "name": "Saint-Hilaire-sur-Erre",
    "state_id": 62,
    "postal_code": "61340",
    "state_name": "Orne",
    "query": "https://www.facebook.com/events/search?q=Dance&sde=Abq6hpNmijm8kReC4KYmmDP0NuT4IxNliFRnd3vuRZUj8uh4BsVIK3dVq186DripYNQbuwiy5LR0V3y0W_iqLV_W&filters=eyJycF9ldmVudHNfbG9jYXRpb246MCI6IntcIm5hbWVcIjpcImZpbHRlcl9ldmVudHNfbG9jYXRpb25cIixcImFyZ3NcIjpcIjEwNzYwNDYzOTI2ODYyNFwifSJ9"
  },
  {
    "id": 23421,
    "name": "Saint-Hilaire-sur-Risle",
    "state_id": 62,
    "postal_code": "61270",
    "state_name": "Orne",
    "query": ""
  },
  {
    "id": 23422,
    "name": "Sainte-Honorine-la-Chardonne",
    "state_id": 62,
    "postal_code": "61430",
    "state_name": "Orne",
    "query": "https://www.facebook.com/events/search?q=Dance&sde=Abq6hpNmijm8kReC4KYmmDP0NuT4IxNliFRnd3vuRZUj8uh4BsVIK3dVq186DripYNQbuwiy5LR0V3y0W_iqLV_W&filters=eyJycF9ldmVudHNfbG9jYXRpb246MCI6IntcIm5hbWVcIjpcImZpbHRlcl9ldmVudHNfbG9jYXRpb25cIixcImFyZ3NcIjpcIjExNzgxMDU4MTU2MjQzMlwifSJ9"
  },
  {
    "id": 23423,
    "name": "Sainte-Honorine-la-Guillaume",
    "state_id": 62,
    "postal_code": "61210",
    "state_name": "Orne",
    "query": "https://www.facebook.com/events/search?q=Dance&sde=Abq6hpNmijm8kReC4KYmmDP0NuT4IxNliFRnd3vuRZUj8uh4BsVIK3dVq186DripYNQbuwiy5LR0V3y0W_iqLV_W&filters=eyJycF9ldmVudHNfbG9jYXRpb246MCI6IntcIm5hbWVcIjpcImZpbHRlcl9ldmVudHNfbG9jYXRpb25cIixcImFyZ3NcIjpcIjEwNzI4NDc5OTMwNzExNFwifSJ9"
  },
  {
    "id": 23424,
    "name": "Saint-Jouin-de-Blavou",
    "state_id": 62,
    "postal_code": "61360",
    "state_name": "Orne",
    "query": "https://www.facebook.com/events/search?q=Dance&sde=Abq6hpNmijm8kReC4KYmmDP0NuT4IxNliFRnd3vuRZUj8uh4BsVIK3dVq186DripYNQbuwiy5LR0V3y0W_iqLV_W&filters=eyJycF9ldmVudHNfbG9jYXRpb246MCI6IntcIm5hbWVcIjpcImZpbHRlcl9ldmVudHNfbG9jYXRpb25cIixcImFyZ3NcIjpcIjExMjczMDg2ODc0NDE1M1wifSJ9"
  },
  {
    "id": 23425,
    "name": "Saint-Julien-sur-Sarthe",
    "state_id": 62,
    "postal_code": "61170",
    "state_name": "Orne",
    "query": "https://www.facebook.com/events/search?q=Dance&sde=Abq6hpNmijm8kReC4KYmmDP0NuT4IxNliFRnd3vuRZUj8uh4BsVIK3dVq186DripYNQbuwiy5LR0V3y0W_iqLV_W&filters=eyJycF9ldmVudHNfbG9jYXRpb246MCI6IntcIm5hbWVcIjpcImZpbHRlcl9ldmVudHNfbG9jYXRpb25cIixcImFyZ3NcIjpcIjEwNzczNTgwNTkxNTAxMFwifSJ9"
  },
  {
    "id": 23426,
    "name": "Saint-Lambert-sur-Dive",
    "state_id": 62,
    "postal_code": "61160",
    "state_name": "Orne",
    "query": ""
  },
  {
    "id": 23427,
    "name": "Saint-Langis-lès-Mortagne",
    "state_id": 62,
    "postal_code": "61400",
    "state_name": "Orne",
    "query": "https://www.facebook.com/events/search?q=Dance&sde=Abq6hpNmijm8kReC4KYmmDP0NuT4IxNliFRnd3vuRZUj8uh4BsVIK3dVq186DripYNQbuwiy5LR0V3y0W_iqLV_W&filters=eyJycF9ldmVudHNfbG9jYXRpb246MCI6IntcIm5hbWVcIjpcImZpbHRlcl9ldmVudHNfbG9jYXRpb25cIixcImFyZ3NcIjpcIjExNzIwMzcxMTYyMzM3N1wifSJ9"
  },
  {
    "id": 23428,
    "name": "Saint-Léger-sur-Sarthe",
    "state_id": 62,
    "postal_code": "61170",
    "state_name": "Orne",
    "query": "https://www.facebook.com/events/search?q=Dance&sde=Abq6hpNmijm8kReC4KYmmDP0NuT4IxNliFRnd3vuRZUj8uh4BsVIK3dVq186DripYNQbuwiy5LR0V3y0W_iqLV_W&filters=eyJycF9ldmVudHNfbG9jYXRpb246MCI6IntcIm5hbWVcIjpcImZpbHRlcl9ldmVudHNfbG9jYXRpb25cIixcImFyZ3NcIjpcIjEwMzEzNDg5OTcyNjgwM1wifSJ9"
  },
  {
    "id": 23429,
    "name": "Saint-Léonard-des-Parcs",
    "state_id": 62,
    "postal_code": "61390",
    "state_name": "Orne",
    "query": ""
  },
  {
    "id": 23430,
    "name": "Saint-Mard-de-Réno",
    "state_id": 62,
    "postal_code": "61400",
    "state_name": "Orne",
    "query": "https://www.facebook.com/events/search?q=Dance&sde=Abq6hpNmijm8kReC4KYmmDP0NuT4IxNliFRnd3vuRZUj8uh4BsVIK3dVq186DripYNQbuwiy5LR0V3y0W_iqLV_W&filters=eyJycF9ldmVudHNfbG9jYXRpb246MCI6IntcIm5hbWVcIjpcImZpbHRlcl9ldmVudHNfbG9jYXRpb25cIixcImFyZ3NcIjpcIjExNjc1MDk3NTAwMTc5OFwifSJ9"
  },
  {
    "id": 23431,
    "name": "Sainte-Marguerite-de-Carrouges",
    "state_id": 62,
    "postal_code": "61320",
    "state_name": "Orne",
    "query": "https://www.facebook.com/events/search?q=Dance&sde=Abq6hpNmijm8kReC4KYmmDP0NuT4IxNliFRnd3vuRZUj8uh4BsVIK3dVq186DripYNQbuwiy5LR0V3y0W_iqLV_W&filters=eyJycF9ldmVudHNfbG9jYXRpb246MCI6IntcIm5hbWVcIjpcImZpbHRlcl9ldmVudHNfbG9jYXRpb25cIixcImFyZ3NcIjpcIjEwOTYyNTQwMjQwMjk1OVwifSJ9"
  },
  {
    "id": 23432,
    "name": "Sainte-Marie-la-Robert",
    "state_id": 62,
    "postal_code": "61320",
    "state_name": "Orne",
    "query": ""
  },
  {
    "id": 23433,
    "name": "Saint-Mars-d'Égrenne",
    "state_id": 62,
    "postal_code": "61350",
    "state_name": "Orne",
    "query": "https://www.facebook.com/events/search?q=Dance&sde=Abq6hpNmijm8kReC4KYmmDP0NuT4IxNliFRnd3vuRZUj8uh4BsVIK3dVq186DripYNQbuwiy5LR0V3y0W_iqLV_W&filters=eyJycF9ldmVudHNfbG9jYXRpb246MCI6IntcIm5hbWVcIjpcImZpbHRlcl9ldmVudHNfbG9jYXRpb25cIixcImFyZ3NcIjpcIjEwOTc3NTk3NTcwODcyM1wifSJ9"
  },
  {
    "id": 23434,
    "name": "Les Aspres",
    "state_id": 62,
    "postal_code": "61270",
    "state_name": "Orne",
    "query": "https://www.facebook.com/events/search/?q=Gardening&sde=Abq6hpNmijm8kReC4KYmmDP0NuT4IxNliFRnd3vuRZUj8uh4BsVIK3dVq186DripYNQbuwiy5LR0V3y0W_iqLV_W&filters=eyJycF9ldmVudHNfbG9jYXRpb246MCI6IntcIm5hbWVcIjpcImZpbHRlcl9ldmVudHNfbG9jYXRpb25cIixcImFyZ3NcIjpcIjEwMzk4MTA1NjMwMzYzOFwifSJ9"
  },
  {
    "id": 23435,
    "name": "Saint-Martin-d'Écublei",
    "state_id": 62,
    "postal_code": "61300",
    "state_name": "Orne",
    "query": "https://www.facebook.com/events/search?q=Dance&sde=Abq6hpNmijm8kReC4KYmmDP0NuT4IxNliFRnd3vuRZUj8uh4BsVIK3dVq186DripYNQbuwiy5LR0V3y0W_iqLV_W&filters=eyJycF9ldmVudHNfbG9jYXRpb246MCI6IntcIm5hbWVcIjpcImZpbHRlcl9ldmVudHNfbG9jYXRpb25cIixcImFyZ3NcIjpcIjExNjIyMTQzODM5MjA3N1wifSJ9"
  },
  {
    "id": 23436,
    "name": "Saint-Martin-des-Landes",
    "state_id": 62,
    "postal_code": "61320",
    "state_name": "Orne",
    "query": ""
  },
  {
    "id": 23437,
    "name": "Saint-Martin-des-Pézerits",
    "state_id": 62,
    "postal_code": "61380",
    "state_name": "Orne",
    "query": ""
  },
  {
    "id": 23438,
    "name": "Saint-Martin-du-Vieux-Bellême",
    "state_id": 62,
    "postal_code": "61130",
    "state_name": "Orne",
    "query": "https://www.facebook.com/events/search?q=Dance&sde=Abq6hpNmijm8kReC4KYmmDP0NuT4IxNliFRnd3vuRZUj8uh4BsVIK3dVq186DripYNQbuwiy5LR0V3y0W_iqLV_W&filters=eyJycF9ldmVudHNfbG9jYXRpb246MCI6IntcIm5hbWVcIjpcImZpbHRlcl9ldmVudHNfbG9jYXRpb25cIixcImFyZ3NcIjpcIjEwNzMyMTk0NTk2NDQxOFwifSJ9"
  },
  {
    "id": 23439,
    "name": "Saint-Martin-l'Aiguillon",
    "state_id": 62,
    "postal_code": "61320",
    "state_name": "Orne",
    "query": ""
  },
  {
    "id": 23440,
    "name": "Charencey",
    "state_id": 62,
    "postal_code": "61190",
    "state_name": "Orne",
    "query": "https://www.facebook.com/events/search?q=Dance&sde=Abq6hpNmijm8kReC4KYmmDP0NuT4IxNliFRnd3vuRZUj8uh4BsVIK3dVq186DripYNQbuwiy5LR0V3y0W_iqLV_W&filters=eyJycF9ldmVudHNfbG9jYXRpb246MCI6IntcIm5hbWVcIjpcImZpbHRlcl9ldmVudHNfbG9jYXRpb25cIixcImFyZ3NcIjpcIjEwOTQwNzM4OTA5MTU0NlwifSJ9"
  },
  {
    "id": 23441,
    "name": "Saint-Michel-Tubœuf",
    "state_id": 62,
    "postal_code": "61300",
    "state_name": "Orne",
    "query": ""
  },
  {
    "id": 23442,
    "name": "Saint-Nicolas-des-Bois",
    "state_id": 62,
    "postal_code": "61250",
    "state_name": "Orne",
    "query": "https://www.facebook.com/events/search?q=Dance&sde=Abq6hpNmijm8kReC4KYmmDP0NuT4IxNliFRnd3vuRZUj8uh4BsVIK3dVq186DripYNQbuwiy5LR0V3y0W_iqLV_W&filters=eyJycF9ldmVudHNfbG9jYXRpb246MCI6IntcIm5hbWVcIjpcImZpbHRlcl9ldmVudHNfbG9jYXRpb25cIixcImFyZ3NcIjpcIjExMTc5Mjk1MjE3NjM0N1wifSJ9"
  },
  {
    "id": 23443,
    "name": "Saint-Nicolas-de-Sommaire",
    "state_id": 62,
    "postal_code": "61550",
    "state_name": "Orne",
    "query": "https://www.facebook.com/events/search?q=Dance&sde=Abq6hpNmijm8kReC4KYmmDP0NuT4IxNliFRnd3vuRZUj8uh4BsVIK3dVq186DripYNQbuwiy5LR0V3y0W_iqLV_W&filters=eyJycF9ldmVudHNfbG9jYXRpb246MCI6IntcIm5hbWVcIjpcImZpbHRlcl9ldmVudHNfbG9jYXRpb25cIixcImFyZ3NcIjpcIjEwNTU2NTAwOTQ3NzMxOVwifSJ9"
  },
  {
    "id": 23444,
    "name": "Sainte-Opportune",
    "state_id": 62,
    "postal_code": "61100",
    "state_name": "Orne",
    "query": "https://www.facebook.com/events/search?q=Dance&sde=Abq6hpNmijm8kReC4KYmmDP0NuT4IxNliFRnd3vuRZUj8uh4BsVIK3dVq186DripYNQbuwiy5LR0V3y0W_iqLV_W&filters=eyJycF9ldmVudHNfbG9jYXRpb246MCI6IntcIm5hbWVcIjpcImZpbHRlcl9ldmVudHNfbG9jYXRpb25cIixcImFyZ3NcIjpcIjEwODA4NjQwOTIxMjE5NFwifSJ9"
  },
  {
    "id": 23445,
    "name": "Saint-Ouen-de-Sécherouvre",
    "state_id": 62,
    "postal_code": "61560",
    "state_name": "Orne",
    "query": ""
  },
  {
    "id": 23446,
    "name": "Saint-Ouen-le-Brisoult",
    "state_id": 62,
    "postal_code": "61410",
    "state_name": "Orne",
    "query": ""
  },
  {
    "id": 23447,
    "name": "Saint-Ouen-sur-Iton",
    "state_id": 62,
    "postal_code": "61300",
    "state_name": "Orne",
    "query": "https://www.facebook.com/events/search?q=Dance&sde=Abq6hpNmijm8kReC4KYmmDP0NuT4IxNliFRnd3vuRZUj8uh4BsVIK3dVq186DripYNQbuwiy5LR0V3y0W_iqLV_W&filters=eyJycF9ldmVudHNfbG9jYXRpb246MCI6IntcIm5hbWVcIjpcImZpbHRlcl9ldmVudHNfbG9jYXRpb25cIixcImFyZ3NcIjpcIjEwNTUzMjA2MjgxMjUyOVwifSJ9"
  },
  {
    "id": 23448,
    "name": "Saint-Patrice-du-Désert",
    "state_id": 62,
    "postal_code": "61600",
    "state_name": "Orne",
    "query": "https://www.facebook.com/events/search?q=Dance&sde=Abq6hpNmijm8kReC4KYmmDP0NuT4IxNliFRnd3vuRZUj8uh4BsVIK3dVq186DripYNQbuwiy5LR0V3y0W_iqLV_W&filters=eyJycF9ldmVudHNfbG9jYXRpb246MCI6IntcIm5hbWVcIjpcImZpbHRlcl9ldmVudHNfbG9jYXRpb25cIixcImFyZ3NcIjpcIjEwOTE1NDQwNTc4NTk2MFwifSJ9"
  },
  {
    "id": 23449,
    "name": "Saint-Paul",
    "state_id": 62,
    "postal_code": "61100",
    "state_name": "Orne",
    "query": ""
  },
  {
    "id": 23450,
    "name": "Saint-Philbert-sur-Orne",
    "state_id": 62,
    "postal_code": "61430",
    "state_name": "Orne",
    "query": ""
  },
  {
    "id": 23451,
    "name": "Saint-Pierre-d'Entremont",
    "state_id": 62,
    "postal_code": "61800",
    "state_name": "Orne",
    "query": "https://www.facebook.com/events/search?q=Dance&sde=Abq6hpNmijm8kReC4KYmmDP0NuT4IxNliFRnd3vuRZUj8uh4BsVIK3dVq186DripYNQbuwiy5LR0V3y0W_iqLV_W&filters=eyJycF9ldmVudHNfbG9jYXRpb246MCI6IntcIm5hbWVcIjpcImZpbHRlcl9ldmVudHNfbG9jYXRpb25cIixcImFyZ3NcIjpcIjExMTI4NDkzNTU2MDMzN1wifSJ9"
  },
  {
    "id": 23452,
    "name": "Saint-Pierre-des-Loges",
    "state_id": 62,
    "postal_code": "61370",
    "state_name": "Orne",
    "query": ""
  },
  {
    "id": 23453,
    "name": "Saint-Pierre-du-Regard",
    "state_id": 62,
    "postal_code": "61790",
    "state_name": "Orne",
    "query": "https://www.facebook.com/events/search?q=Dance&sde=Abq6hpNmijm8kReC4KYmmDP0NuT4IxNliFRnd3vuRZUj8uh4BsVIK3dVq186DripYNQbuwiy5LR0V3y0W_iqLV_W&filters=eyJycF9ldmVudHNfbG9jYXRpb246MCI6IntcIm5hbWVcIjpcImZpbHRlcl9ldmVudHNfbG9jYXRpb25cIixcImFyZ3NcIjpcIjEwNzQ4OTI5MjYyMTY1MlwifSJ9"
  },
  {
    "id": 23454,
    "name": "Saint-Pierre-la-Bruyère",
    "state_id": 62,
    "postal_code": "61340",
    "state_name": "Orne",
    "query": "https://www.facebook.com/events/search?q=Dance&sde=Abq6hpNmijm8kReC4KYmmDP0NuT4IxNliFRnd3vuRZUj8uh4BsVIK3dVq186DripYNQbuwiy5LR0V3y0W_iqLV_W&filters=eyJycF9ldmVudHNfbG9jYXRpb246MCI6IntcIm5hbWVcIjpcImZpbHRlcl9ldmVudHNfbG9jYXRpb25cIixcImFyZ3NcIjpcIjEwMzc2OTkxOTY2MTgwOVwifSJ9"
  },
  {
    "id": 23455,
    "name": "Saint-Quentin-de-Blavou",
    "state_id": 62,
    "postal_code": "61360",
    "state_name": "Orne",
    "query": ""
  },
  {
    "id": 23456,
    "name": "Saint-Quentin-les-Chardonnets",
    "state_id": 62,
    "postal_code": "61800",
    "state_name": "Orne",
    "query": "https://www.facebook.com/events/search?q=Dance&sde=Abq6hpNmijm8kReC4KYmmDP0NuT4IxNliFRnd3vuRZUj8uh4BsVIK3dVq186DripYNQbuwiy5LR0V3y0W_iqLV_W&filters=eyJycF9ldmVudHNfbG9jYXRpb246MCI6IntcIm5hbWVcIjpcImZpbHRlcl9ldmVudHNfbG9jYXRpb25cIixcImFyZ3NcIjpcIjEwMzcxMjcxMzAwMTQ5M1wifSJ9"
  },
  {
    "id": 23457,
    "name": "Saint-Roch-sur-Égrenne",
    "state_id": 62,
    "postal_code": "61350",
    "state_name": "Orne",
    "query": "https://www.facebook.com/events/search?q=Dance&sde=Abq6hpNmijm8kReC4KYmmDP0NuT4IxNliFRnd3vuRZUj8uh4BsVIK3dVq186DripYNQbuwiy5LR0V3y0W_iqLV_W&filters=eyJycF9ldmVudHNfbG9jYXRpb246MCI6IntcIm5hbWVcIjpcImZpbHRlcl9ldmVudHNfbG9jYXRpb25cIixcImFyZ3NcIjpcIjEwNTk0NDM1OTQzNzMzNFwifSJ9"
  },
  {
    "id": 23458,
    "name": "Saint-Sauveur-de-Carrouges",
    "state_id": 62,
    "postal_code": "61320",
    "state_name": "Orne",
    "query": ""
  },
  {
    "id": 23459,
    "name": "Sainte-Scolasse-sur-Sarthe",
    "state_id": 62,
    "postal_code": "61170",
    "state_name": "Orne",
    "query": "https://www.facebook.com/events/search?q=Dance&sde=Abq6hpNmijm8kReC4KYmmDP0NuT4IxNliFRnd3vuRZUj8uh4BsVIK3dVq186DripYNQbuwiy5LR0V3y0W_iqLV_W&filters=eyJycF9ldmVudHNfbG9jYXRpb246MCI6IntcIm5hbWVcIjpcImZpbHRlcl9ldmVudHNfbG9jYXRpb25cIixcImFyZ3NcIjpcIjExNjcwNTk2MTY3NjIxNVwifSJ9"
  },
  {
    "id": 23460,
    "name": "Saint-Sulpice-sur-Risle",
    "state_id": 62,
    "postal_code": "61300",
    "state_name": "Orne",
    "query": "https://www.facebook.com/events/search?q=Dance&sde=Abq6hpNmijm8kReC4KYmmDP0NuT4IxNliFRnd3vuRZUj8uh4BsVIK3dVq186DripYNQbuwiy5LR0V3y0W_iqLV_W&filters=eyJycF9ldmVudHNfbG9jYXRpb246MCI6IntcIm5hbWVcIjpcImZpbHRlcl9ldmVudHNfbG9jYXRpb25cIixcImFyZ3NcIjpcIjExNjc0NzU4MTY3Mjc1MlwifSJ9"
  },
  {
    "id": 23461,
    "name": "Saint-Symphorien-des-Bruyères",
    "state_id": 62,
    "postal_code": "61300",
    "state_name": "Orne",
    "query": "https://www.facebook.com/events/search?q=Dance&sde=Abq6hpNmijm8kReC4KYmmDP0NuT4IxNliFRnd3vuRZUj8uh4BsVIK3dVq186DripYNQbuwiy5LR0V3y0W_iqLV_W&filters=eyJycF9ldmVudHNfbG9jYXRpb246MCI6IntcIm5hbWVcIjpcImZpbHRlcl9ldmVudHNfbG9jYXRpb25cIixcImFyZ3NcIjpcIjExMzM0NTE3MjAyNTk1MFwifSJ9"
  },
  {
    "id": 23462,
    "name": "Saires-la-Verrerie",
    "state_id": 62,
    "postal_code": "61220",
    "state_name": "Orne",
    "query": "https://www.facebook.com/events/search?q=Dance&sde=Abq6hpNmijm8kReC4KYmmDP0NuT4IxNliFRnd3vuRZUj8uh4BsVIK3dVq186DripYNQbuwiy5LR0V3y0W_iqLV_W&filters=eyJycF9ldmVudHNfbG9jYXRpb246MCI6IntcIm5hbWVcIjpcImZpbHRlcl9ldmVudHNfbG9jYXRpb25cIixcImFyZ3NcIjpcIjExNjYzNjExODM0OTk4N1wifSJ9"
  },
  {
    "id": 23463,
    "name": "Sap-en-Auge",
    "state_id": 62,
    "postal_code": "61120",
    "state_name": "Orne",
    "query": ""
  },
  {
    "id": 23464,
    "name": "Le Sap-André",
    "state_id": 62,
    "postal_code": "61230",
    "state_name": "Orne",
    "query": ""
  },
  {
    "id": 23465,
    "name": "Sarceaux",
    "state_id": 62,
    "postal_code": "61200",
    "state_name": "Orne",
    "query": "https://www.facebook.com/events/search?q=Dance&sde=Abq6hpNmijm8kReC4KYmmDP0NuT4IxNliFRnd3vuRZUj8uh4BsVIK3dVq186DripYNQbuwiy5LR0V3y0W_iqLV_W&filters=eyJycF9ldmVudHNfbG9jYXRpb246MCI6IntcIm5hbWVcIjpcImZpbHRlcl9ldmVudHNfbG9jYXRpb25cIixcImFyZ3NcIjpcIjExNTU4OTI3ODQ1ODEwOFwifSJ9"
  },
  {
    "id": 23466,
    "name": "Les Monts d'Andaine",
    "state_id": 62,
    "postal_code": "61600",
    "state_name": "Orne",
    "query": ""
  },
  {
    "id": 23467,
    "name": "Sées",
    "state_id": 62,
    "postal_code": "61500",
    "state_name": "Orne",
    "query": "https://www.facebook.com/events/search?q=Dance&sde=Abq6hpNmijm8kReC4KYmmDP0NuT4IxNliFRnd3vuRZUj8uh4BsVIK3dVq186DripYNQbuwiy5LR0V3y0W_iqLV_W&filters=eyJycF9ldmVudHNfbG9jYXRpb246MCI6IntcIm5hbWVcIjpcImZpbHRlcl9ldmVudHNfbG9jYXRpb25cIixcImFyZ3NcIjpcIjExMTk1MTc2MjE1NTQ5NVwifSJ9"
  },
  {
    "id": 23468,
    "name": "La Selle-la-Forge",
    "state_id": 62,
    "postal_code": "61100",
    "state_name": "Orne",
    "query": "https://www.facebook.com/events/search?q=Dance&sde=Abq6hpNmijm8kReC4KYmmDP0NuT4IxNliFRnd3vuRZUj8uh4BsVIK3dVq186DripYNQbuwiy5LR0V3y0W_iqLV_W&filters=eyJycF9ldmVudHNfbG9jYXRpb246MCI6IntcIm5hbWVcIjpcImZpbHRlcl9ldmVudHNfbG9jYXRpb25cIixcImFyZ3NcIjpcIjEwNDA3NzI0Mjk2MTYzOVwifSJ9"
  },
  {
    "id": 23469,
    "name": "Semallé",
    "state_id": 62,
    "postal_code": "61250",
    "state_name": "Orne",
    "query": "https://www.facebook.com/events/search?q=Dance&sde=Abq6hpNmijm8kReC4KYmmDP0NuT4IxNliFRnd3vuRZUj8uh4BsVIK3dVq186DripYNQbuwiy5LR0V3y0W_iqLV_W&filters=eyJycF9ldmVudHNfbG9jYXRpb246MCI6IntcIm5hbWVcIjpcImZpbHRlcl9ldmVudHNfbG9jYXRpb25cIixcImFyZ3NcIjpcIjEwOTc1Mzk1NTcyMjMxMVwifSJ9"
  },
  {
    "id": 23470,
    "name": "Sévigny",
    "state_id": 62,
    "postal_code": "61200",
    "state_name": "Orne",
    "query": "https://www.facebook.com/events/search?q=Dance&sde=Abq6hpNmijm8kReC4KYmmDP0NuT4IxNliFRnd3vuRZUj8uh4BsVIK3dVq186DripYNQbuwiy5LR0V3y0W_iqLV_W&filters=eyJycF9ldmVudHNfbG9jYXRpb246MCI6IntcIm5hbWVcIjpcImZpbHRlcl9ldmVudHNfbG9jYXRpb25cIixcImFyZ3NcIjpcIjExMTk2OTM5NTQ4NTc3MVwifSJ9"
  },
  {
    "id": 23471,
    "name": "Sevrai",
    "state_id": 62,
    "postal_code": "61150",
    "state_name": "Orne",
    "query": "https://www.facebook.com/events/search?q=Dance&sde=Abq6hpNmijm8kReC4KYmmDP0NuT4IxNliFRnd3vuRZUj8uh4BsVIK3dVq186DripYNQbuwiy5LR0V3y0W_iqLV_W&filters=eyJycF9ldmVudHNfbG9jYXRpb246MCI6IntcIm5hbWVcIjpcImZpbHRlcl9ldmVudHNfbG9jYXRpb25cIixcImFyZ3NcIjpcIjExNzA1ODc2ODMwNDY3NlwifSJ9"
  },
  {
    "id": 23472,
    "name": "Gouffern en Auge",
    "state_id": 62,
    "postal_code": "61160",
    "state_name": "Orne",
    "query": ""
  },
  {
    "id": 23473,
    "name": "Soligny-la-Trappe",
    "state_id": 62,
    "postal_code": "61380",
    "state_name": "Orne",
    "query": "https://www.facebook.com/events/search?q=Dance&sde=Abq6hpNmijm8kReC4KYmmDP0NuT4IxNliFRnd3vuRZUj8uh4BsVIK3dVq186DripYNQbuwiy5LR0V3y0W_iqLV_W&filters=eyJycF9ldmVudHNfbG9jYXRpb246MCI6IntcIm5hbWVcIjpcImZpbHRlcl9ldmVudHNfbG9jYXRpb25cIixcImFyZ3NcIjpcIjExMjE1NDY2NTQ3NTk0OFwifSJ9"
  },
  {
    "id": 23474,
    "name": "Suré",
    "state_id": 62,
    "postal_code": "61360",
    "state_name": "Orne",
    "query": ""
  },
  {
    "id": 23475,
    "name": "Tanques",
    "state_id": 62,
    "postal_code": "61150",
    "state_name": "Orne",
    "query": ""
  },
  {
    "id": 23476,
    "name": "Tanville",
    "state_id": 62,
    "postal_code": "61500",
    "state_name": "Orne",
    "query": "https://www.facebook.com/events/search?q=Dance&sde=Abq6hpNmijm8kReC4KYmmDP0NuT4IxNliFRnd3vuRZUj8uh4BsVIK3dVq186DripYNQbuwiy5LR0V3y0W_iqLV_W&filters=eyJycF9ldmVudHNfbG9jYXRpb246MCI6IntcIm5hbWVcIjpcImZpbHRlcl9ldmVudHNfbG9jYXRpb25cIixcImFyZ3NcIjpcIjEwNzIzNzY2NTk4MTEyMVwifSJ9"
  },
  {
    "id": 23477,
    "name": "Tellières-le-Plessis",
    "state_id": 62,
    "postal_code": "61390",
    "state_name": "Orne",
    "query": ""
  },
  {
    "id": 23478,
    "name": "Tessé-Froulay",
    "state_id": 62,
    "postal_code": "61410",
    "state_name": "Orne",
    "query": "https://www.facebook.com/events/search?q=Dance&sde=Abq6hpNmijm8kReC4KYmmDP0NuT4IxNliFRnd3vuRZUj8uh4BsVIK3dVq186DripYNQbuwiy5LR0V3y0W_iqLV_W&filters=eyJycF9ldmVudHNfbG9jYXRpb246MCI6IntcIm5hbWVcIjpcImZpbHRlcl9ldmVudHNfbG9jYXRpb25cIixcImFyZ3NcIjpcIjExMjk1MDk0NTM5MDY3NlwifSJ9"
  },
  {
    "id": 23479,
    "name": "Bagnoles de l'Orne Normandie",
    "state_id": 62,
    "postal_code": "61140",
    "state_name": "Orne",
    "query": "https://www.facebook.com/events/search/?q=Gardening&sde=Abq6hpNmijm8kReC4KYmmDP0NuT4IxNliFRnd3vuRZUj8uh4BsVIK3dVq186DripYNQbuwiy5LR0V3y0W_iqLV_W&filters=eyJycF9ldmVudHNfbG9jYXRpb246MCI6IntcIm5hbWVcIjpcImZpbHRlcl9ldmVudHNfbG9jYXRpb25cIixcImFyZ3NcIjpcIjEwODEyNDY3NTg3NDI0MlwifSJ9"
  },
  {
    "id": 23480,
    "name": "Val-au-Perche",
    "state_id": 62,
    "postal_code": "61130",
    "state_name": "Orne",
    "query": ""
  },
  {
    "id": 23481,
    "name": "Ticheville",
    "state_id": 62,
    "postal_code": "61120",
    "state_name": "Orne",
    "query": "https://www.facebook.com/events/search?q=Dance&sde=Abq6hpNmijm8kReC4KYmmDP0NuT4IxNliFRnd3vuRZUj8uh4BsVIK3dVq186DripYNQbuwiy5LR0V3y0W_iqLV_W&filters=eyJycF9ldmVudHNfbG9jYXRpb246MCI6IntcIm5hbWVcIjpcImZpbHRlcl9ldmVudHNfbG9jYXRpb25cIixcImFyZ3NcIjpcIjExMTM3ODM1NTU0OTgzMlwifSJ9"
  },
  {
    "id": 23482,
    "name": "Tinchebray-Bocage",
    "state_id": 62,
    "postal_code": "61800",
    "state_name": "Orne",
    "query": "https://www.facebook.com/events/search?q=Dance&sde=Abq6hpNmijm8kReC4KYmmDP0NuT4IxNliFRnd3vuRZUj8uh4BsVIK3dVq186DripYNQbuwiy5LR0V3y0W_iqLV_W&filters=eyJycF9ldmVudHNfbG9jYXRpb246MCI6IntcIm5hbWVcIjpcImZpbHRlcl9ldmVudHNfbG9jYXRpb25cIixcImFyZ3NcIjpcIjgyNTY3MDUxNDE2Njk4NFwifSJ9"
  },
  {
    "id": 23483,
    "name": "Torchamp",
    "state_id": 62,
    "postal_code": "61330",
    "state_name": "Orne",
    "query": "https://www.facebook.com/events/search?q=Dance&sde=Abq6hpNmijm8kReC4KYmmDP0NuT4IxNliFRnd3vuRZUj8uh4BsVIK3dVq186DripYNQbuwiy5LR0V3y0W_iqLV_W&filters=eyJycF9ldmVudHNfbG9jYXRpb246MCI6IntcIm5hbWVcIjpcImZpbHRlcl9ldmVudHNfbG9jYXRpb25cIixcImFyZ3NcIjpcIjExMzA5OTIyNTM4MzE2MVwifSJ9"
  },
  {
    "id": 23484,
    "name": "Touquettes",
    "state_id": 62,
    "postal_code": "61550",
    "state_name": "Orne",
    "query": "https://www.facebook.com/events/search/?q=Dance&sde=Abq6hpNmijm8kReC4KYmmDP0NuT4IxNliFRnd3vuRZUj8uh4BsVIK3dVq186DripYNQbuwiy5LR0V3y0W_iqLV_W&filters=eyJycF9ldmVudHNfbG9jYXRpb246MCI6IntcIm5hbWVcIjpcImZpbHRlcl9ldmVudHNfbG9jYXRpb25cIixcImFyZ3NcIjpcIjExMjc3NTc4ODc0MTQxOVwifSJ9"
  },
  {
    "id": 23485,
    "name": "Tournai-sur-Dive",
    "state_id": 62,
    "postal_code": "61160",
    "state_name": "Orne",
    "query": "https://www.facebook.com/events/search?q=Dance&sde=Abq6hpNmijm8kReC4KYmmDP0NuT4IxNliFRnd3vuRZUj8uh4BsVIK3dVq186DripYNQbuwiy5LR0V3y0W_iqLV_W&filters=eyJycF9ldmVudHNfbG9jYXRpb246MCI6IntcIm5hbWVcIjpcImZpbHRlcl9ldmVudHNfbG9jYXRpb25cIixcImFyZ3NcIjpcIjEwOTQ3MjUyNTc1MTQwN1wifSJ9"
  },
  {
    "id": 23486,
    "name": "Tourouvre au Perche",
    "state_id": 62,
    "postal_code": "61190",
    "state_name": "Orne",
    "query": ""
  },
  {
    "id": 23487,
    "name": "Trémont",
    "state_id": 62,
    "postal_code": "61390",
    "state_name": "Orne",
    "query": ""
  },
  {
    "id": 23488,
    "name": "La Trinité-des-Laitiers",
    "state_id": 62,
    "postal_code": "61230",
    "state_name": "Orne",
    "query": ""
  },
  {
    "id": 23489,
    "name": "Trun",
    "state_id": 62,
    "postal_code": "61160",
    "state_name": "Orne",
    "query": ""
  },
  {
    "id": 23490,
    "name": "Valframbert",
    "state_id": 62,
    "postal_code": "61250",
    "state_name": "Orne",
    "query": "https://www.facebook.com/events/search?q=Dance&sde=Abq6hpNmijm8kReC4KYmmDP0NuT4IxNliFRnd3vuRZUj8uh4BsVIK3dVq186DripYNQbuwiy5LR0V3y0W_iqLV_W&filters=eyJycF9ldmVudHNfbG9jYXRpb246MCI6IntcIm5hbWVcIjpcImZpbHRlcl9ldmVudHNfbG9jYXRpb25cIixcImFyZ3NcIjpcIjEwNzM5MTg1NTk2MzcyMlwifSJ9"
  },
  {
    "id": 23491,
    "name": "Vaunoise",
    "state_id": 62,
    "postal_code": "61130",
    "state_name": "Orne",
    "query": "https://www.facebook.com/events/search?q=Dance&sde=Abq6hpNmijm8kReC4KYmmDP0NuT4IxNliFRnd3vuRZUj8uh4BsVIK3dVq186DripYNQbuwiy5LR0V3y0W_iqLV_W&filters=eyJycF9ldmVudHNfbG9jYXRpb246MCI6IntcIm5hbWVcIjpcImZpbHRlcl9ldmVudHNfbG9jYXRpb25cIixcImFyZ3NcIjpcIjEwNzM2MDUzOTMwMDExN1wifSJ9"
  },
  {
    "id": 23492,
    "name": "Les Ventes-de-Bourse",
    "state_id": 62,
    "postal_code": "61170",
    "state_name": "Orne",
    "query": "https://www.facebook.com/events/search?q=Dance&sde=Abq6hpNmijm8kReC4KYmmDP0NuT4IxNliFRnd3vuRZUj8uh4BsVIK3dVq186DripYNQbuwiy5LR0V3y0W_iqLV_W&filters=eyJycF9ldmVudHNfbG9jYXRpb246MCI6IntcIm5hbWVcIjpcImZpbHRlcl9ldmVudHNfbG9jYXRpb25cIixcImFyZ3NcIjpcIjExMTc2ODYwNTUxNzE3NlwifSJ9"
  },
  {
    "id": 23493,
    "name": "La Ventrouze",
    "state_id": 62,
    "postal_code": "61190",
    "state_name": "Orne",
    "query": ""
  },
  {
    "id": 23494,
    "name": "Verrières",
    "state_id": 62,
    "postal_code": "61110",
    "state_name": "Orne",
    "query": "https://www.facebook.com/events/search?q=Dance&sde=Abq6hpNmijm8kReC4KYmmDP0NuT4IxNliFRnd3vuRZUj8uh4BsVIK3dVq186DripYNQbuwiy5LR0V3y0W_iqLV_W&filters=eyJycF9ldmVudHNfbG9jYXRpb246MCI6IntcIm5hbWVcIjpcImZpbHRlcl9ldmVudHNfbG9jYXRpb25cIixcImFyZ3NcIjpcIjEwODE5MTA5NTg3MjkxOVwifSJ9"
  },
  {
    "id": 23495,
    "name": "Vidai",
    "state_id": 62,
    "postal_code": "61360",
    "state_name": "Orne",
    "query": "https://www.facebook.com/events/search?q=Dance&sde=Abq6hpNmijm8kReC4KYmmDP0NuT4IxNliFRnd3vuRZUj8uh4BsVIK3dVq186DripYNQbuwiy5LR0V3y0W_iqLV_W&filters=eyJycF9ldmVudHNfbG9jYXRpb246MCI6IntcIm5hbWVcIjpcImZpbHRlcl9ldmVudHNfbG9jYXRpb25cIixcImFyZ3NcIjpcIjEwNjExMzc3NjA4NzAxN1wifSJ9"
  },
  {
    "id": 23496,
    "name": "Vieux-Pont",
    "state_id": 62,
    "postal_code": "61150",
    "state_name": "Orne",
    "query": "https://www.facebook.com/events/search?q=Dance&sde=Abq6hpNmijm8kReC4KYmmDP0NuT4IxNliFRnd3vuRZUj8uh4BsVIK3dVq186DripYNQbuwiy5LR0V3y0W_iqLV_W&filters=eyJycF9ldmVudHNfbG9jYXRpb246MCI6IntcIm5hbWVcIjpcImZpbHRlcl9ldmVudHNfbG9jYXRpb25cIixcImFyZ3NcIjpcIjExMjc2MzM5MjA4MjY5MlwifSJ9"
  },
  {
    "id": 23497,
    "name": "Villedieu-lès-Bailleul",
    "state_id": 62,
    "postal_code": "61160",
    "state_name": "Orne",
    "query": ""
  },
  {
    "id": 23498,
    "name": "Villiers-sous-Mortagne",
    "state_id": 62,
    "postal_code": "61400",
    "state_name": "Orne",
    "query": "https://www.facebook.com/events/search?q=Dance&sde=Abq6hpNmijm8kReC4KYmmDP0NuT4IxNliFRnd3vuRZUj8uh4BsVIK3dVq186DripYNQbuwiy5LR0V3y0W_iqLV_W&filters=eyJycF9ldmVudHNfbG9jYXRpb246MCI6IntcIm5hbWVcIjpcImZpbHRlcl9ldmVudHNfbG9jYXRpb25cIixcImFyZ3NcIjpcIjExNjA3MzQ1ODQwNTgyMlwifSJ9"
  },
  {
    "id": 23499,
    "name": "Vimoutiers",
    "state_id": 62,
    "postal_code": "61120",
    "state_name": "Orne",
    "query": "https://www.facebook.com/events/search?q=Dance&sde=Abq6hpNmijm8kReC4KYmmDP0NuT4IxNliFRnd3vuRZUj8uh4BsVIK3dVq186DripYNQbuwiy5LR0V3y0W_iqLV_W&filters=eyJycF9ldmVudHNfbG9jYXRpb246MCI6IntcIm5hbWVcIjpcImZpbHRlcl9ldmVudHNfbG9jYXRpb25cIixcImFyZ3NcIjpcIjEwNTY3MDg2MjgwMDI2N1wifSJ9"
  },
  {
    "id": 23500,
    "name": "Vitrai-sous-Laigle",
    "state_id": 62,
    "postal_code": "61300",
    "state_name": "Orne",
    "query": ""
  },
  {
    "id": 23501,
    "name": "Les Yveteaux",
    "state_id": 62,
    "postal_code": "61210",
    "state_name": "Orne",
    "query": ""
  }
]