[
  {
    "id": 17366,
    "name": "Albaret-le-Comtal",
    "state_id": 49,
    "postal_code": "48310",
    "state_name": "Lozère",
    "query": "https://www.facebook.com/events/search?q=Home%20and%20garden&sde=Abq6hpNmijm8kReC4KYmmDP0NuT4IxNliFRnd3vuRZUj8uh4BsVIK3dVq186DripYNQbuwiy5LR0V3y0W_iqLV_W&filters=eyJycF9ldmVudHNfbG9jYXRpb246MCI6IntcIm5hbWVcIjpcImZpbHRlcl9ldmVudHNfbG9jYXRpb25cIixcImFyZ3NcIjpcIjEwNTYzNjgwOTQ3MDExMFwifSJ9"
  },
  {
    "id": 17367,
    "name": "Albaret-Sainte-Marie",
    "state_id": 49,
    "postal_code": "48200",
    "state_name": "Lozère",
    "query": "https://www.facebook.com/events/search?q=Home%20and%20garden&sde=Abq6hpNmijm8kReC4KYmmDP0NuT4IxNliFRnd3vuRZUj8uh4BsVIK3dVq186DripYNQbuwiy5LR0V3y0W_iqLV_W&filters=eyJycF9ldmVudHNfbG9jYXRpb246MCI6IntcIm5hbWVcIjpcImZpbHRlcl9ldmVudHNfbG9jYXRpb25cIixcImFyZ3NcIjpcIjExMTk2MDc0ODgxNjQ3OFwifSJ9"
  },
  {
    "id": 17368,
    "name": "Allenc",
    "state_id": 49,
    "postal_code": "48190",
    "state_name": "Lozère",
    "query": "https://www.facebook.com/events/search?q=Home%20and%20garden&sde=Abq6hpNmijm8kReC4KYmmDP0NuT4IxNliFRnd3vuRZUj8uh4BsVIK3dVq186DripYNQbuwiy5LR0V3y0W_iqLV_W&filters=eyJycF9ldmVudHNfbG9jYXRpb246MCI6IntcIm5hbWVcIjpcImZpbHRlcl9ldmVudHNfbG9jYXRpb25cIixcImFyZ3NcIjpcIjEwODI1MDk0OTIwMzYwM1wifSJ9"
  },
  {
    "id": 17369,
    "name": "Altier",
    "state_id": 49,
    "postal_code": "48800",
    "state_name": "Lozère",
    "query": "https://www.facebook.com/events/search?q=Home%20and%20garden&sde=Abq6hpNmijm8kReC4KYmmDP0NuT4IxNliFRnd3vuRZUj8uh4BsVIK3dVq186DripYNQbuwiy5LR0V3y0W_iqLV_W&filters=eyJycF9ldmVudHNfbG9jYXRpb246MCI6IntcIm5hbWVcIjpcImZpbHRlcl9ldmVudHNfbG9jYXRpb25cIixcImFyZ3NcIjpcIjEwNzkwMDYyOTIzMjU1NVwifSJ9"
  },
  {
    "id": 17370,
    "name": "Antrenas",
    "state_id": 49,
    "postal_code": "48100",
    "state_name": "Lozère",
    "query": "https://www.facebook.com/events/search?q=Home%20and%20garden&sde=Abq6hpNmijm8kReC4KYmmDP0NuT4IxNliFRnd3vuRZUj8uh4BsVIK3dVq186DripYNQbuwiy5LR0V3y0W_iqLV_W&filters=eyJycF9ldmVudHNfbG9jYXRpb246MCI6IntcIm5hbWVcIjpcImZpbHRlcl9ldmVudHNfbG9jYXRpb25cIixcImFyZ3NcIjpcIjExMjIwMjU2MjEyNTIzOFwifSJ9"
  },
  {
    "id": 17371,
    "name": "Arzenc-d'Apcher",
    "state_id": 49,
    "postal_code": "48310",
    "state_name": "Lozère",
    "query": ""
  },
  {
    "id": 17372,
    "name": "Arzenc-de-Randon",
    "state_id": 49,
    "postal_code": "48170",
    "state_name": "Lozère",
    "query": ""
  },
  {
    "id": 17373,
    "name": "Peyre en Aubrac",
    "state_id": 49,
    "postal_code": "48130",
    "state_name": "Lozère",
    "query": ""
  },
  {
    "id": 17374,
    "name": "Auroux",
    "state_id": 49,
    "postal_code": "48600",
    "state_name": "Lozère",
    "query": "https://www.facebook.com/events/search?q=Home%20and%20garden&sde=Abq6hpNmijm8kReC4KYmmDP0NuT4IxNliFRnd3vuRZUj8uh4BsVIK3dVq186DripYNQbuwiy5LR0V3y0W_iqLV_W&filters=eyJycF9ldmVudHNfbG9jYXRpb246MCI6IntcIm5hbWVcIjpcImZpbHRlcl9ldmVudHNfbG9jYXRpb25cIixcImFyZ3NcIjpcIjEwNzc2NjE5OTI0NjY0MVwifSJ9"
  },
  {
    "id": 17375,
    "name": "Les Monts-Verts",
    "state_id": 49,
    "postal_code": "48200",
    "state_name": "Lozère",
    "query": ""
  },
  {
    "id": 17376,
    "name": "Badaroux",
    "state_id": 49,
    "postal_code": "48000",
    "state_name": "Lozère",
    "query": "https://www.facebook.com/events/search?q=Home%20and%20garden&sde=Abq6hpNmijm8kReC4KYmmDP0NuT4IxNliFRnd3vuRZUj8uh4BsVIK3dVq186DripYNQbuwiy5LR0V3y0W_iqLV_W&filters=eyJycF9ldmVudHNfbG9jYXRpb246MCI6IntcIm5hbWVcIjpcImZpbHRlcl9ldmVudHNfbG9jYXRpb25cIixcImFyZ3NcIjpcIjExMjgyMjI3NTM5OTE3N1wifSJ9"
  },
  {
    "id": 17377,
    "name": "Pied-de-Borne",
    "state_id": 49,
    "postal_code": "48800",
    "state_name": "Lozère",
    "query": ""
  },
  {
    "id": 17378,
    "name": "Balsièges",
    "state_id": 49,
    "postal_code": "48000",
    "state_name": "Lozère",
    "query": "https://www.facebook.com/events/search?q=Home%20and%20garden&sde=Abq6hpNmijm8kReC4KYmmDP0NuT4IxNliFRnd3vuRZUj8uh4BsVIK3dVq186DripYNQbuwiy5LR0V3y0W_iqLV_W&filters=eyJycF9ldmVudHNfbG9jYXRpb246MCI6IntcIm5hbWVcIjpcImZpbHRlcl9ldmVudHNfbG9jYXRpb25cIixcImFyZ3NcIjpcIjExMjU4NTg5MjA4NjkxOVwifSJ9"
  },
  {
    "id": 17379,
    "name": "Banassac-Canilhac",
    "state_id": 49,
    "postal_code": "48500",
    "state_name": "Lozère",
    "query": ""
  },
  {
    "id": 17380,
    "name": "Barjac",
    "state_id": 49,
    "postal_code": "48000",
    "state_name": "Lozère",
    "query": "https://www.facebook.com/events/search?q=Home%20and%20garden&sde=Abq6hpNmijm8kReC4KYmmDP0NuT4IxNliFRnd3vuRZUj8uh4BsVIK3dVq186DripYNQbuwiy5LR0V3y0W_iqLV_W&filters=eyJycF9ldmVudHNfbG9jYXRpb246MCI6IntcIm5hbWVcIjpcImZpbHRlcl9ldmVudHNfbG9jYXRpb25cIixcImFyZ3NcIjpcIjEwNjE3NDc5Mjc0NzQ4MVwifSJ9"
  },
  {
    "id": 17381,
    "name": "Barre-des-Cévennes",
    "state_id": 49,
    "postal_code": "48400",
    "state_name": "Lozère",
    "query": "https://www.facebook.com/events/search?q=Home%20and%20garden&sde=Abq6hpNmijm8kReC4KYmmDP0NuT4IxNliFRnd3vuRZUj8uh4BsVIK3dVq186DripYNQbuwiy5LR0V3y0W_iqLV_W&filters=eyJycF9ldmVudHNfbG9jYXRpb246MCI6IntcIm5hbWVcIjpcImZpbHRlcl9ldmVudHNfbG9jYXRpb25cIixcImFyZ3NcIjpcIjEwODU5ODQxOTE2NTQ2N1wifSJ9"
  },
  {
    "id": 17382,
    "name": "Bassurels",
    "state_id": 49,
    "postal_code": "48400",
    "state_name": "Lozère",
    "query": "https://www.facebook.com/events/search?q=Home%20and%20garden&sde=Abq6hpNmijm8kReC4KYmmDP0NuT4IxNliFRnd3vuRZUj8uh4BsVIK3dVq186DripYNQbuwiy5LR0V3y0W_iqLV_W&filters=eyJycF9ldmVudHNfbG9jYXRpb246MCI6IntcIm5hbWVcIjpcImZpbHRlcl9ldmVudHNfbG9jYXRpb25cIixcImFyZ3NcIjpcIjEwODQyNDUzMjUxNTg4MlwifSJ9"
  },
  {
    "id": 17383,
    "name": "La Bastide-Puylaurent",
    "state_id": 49,
    "postal_code": "48250",
    "state_name": "Lozère",
    "query": "https://www.facebook.com/events/search?q=Home%20and%20garden&sde=Abq6hpNmijm8kReC4KYmmDP0NuT4IxNliFRnd3vuRZUj8uh4BsVIK3dVq186DripYNQbuwiy5LR0V3y0W_iqLV_W&filters=eyJycF9ldmVudHNfbG9jYXRpb246MCI6IntcIm5hbWVcIjpcImZpbHRlcl9ldmVudHNfbG9jYXRpb25cIixcImFyZ3NcIjpcIjEwNTU2NzU0NjE0Mjg3NlwifSJ9"
  },
  {
    "id": 17384,
    "name": "Les Bessons",
    "state_id": 49,
    "postal_code": "48200",
    "state_name": "Lozère",
    "query": "https://www.facebook.com/events/search?q=Home%20and%20garden&sde=Abq6hpNmijm8kReC4KYmmDP0NuT4IxNliFRnd3vuRZUj8uh4BsVIK3dVq186DripYNQbuwiy5LR0V3y0W_iqLV_W&filters=eyJycF9ldmVudHNfbG9jYXRpb246MCI6IntcIm5hbWVcIjpcImZpbHRlcl9ldmVudHNfbG9jYXRpb25cIixcImFyZ3NcIjpcIjEwODA0MTcwOTIyNDcwN1wifSJ9"
  },
  {
    "id": 17385,
    "name": "Blavignac",
    "state_id": 49,
    "postal_code": "48200",
    "state_name": "Lozère",
    "query": "https://www.facebook.com/events/search?q=Home%20and%20garden&sde=Abq6hpNmijm8kReC4KYmmDP0NuT4IxNliFRnd3vuRZUj8uh4BsVIK3dVq186DripYNQbuwiy5LR0V3y0W_iqLV_W&filters=eyJycF9ldmVudHNfbG9jYXRpb246MCI6IntcIm5hbWVcIjpcImZpbHRlcl9ldmVudHNfbG9jYXRpb25cIixcImFyZ3NcIjpcIjEwODM3OTEyOTE4NjI3N1wifSJ9"
  },
  {
    "id": 17386,
    "name": "Mont Lozère et Goulet",
    "state_id": 49,
    "postal_code": "48170",
    "state_name": "Lozère",
    "query": ""
  },
  {
    "id": 17387,
    "name": "Les Bondons",
    "state_id": 49,
    "postal_code": "48400",
    "state_name": "Lozère",
    "query": "https://www.facebook.com/events/search?q=Home%20and%20garden&sde=Abq6hpNmijm8kReC4KYmmDP0NuT4IxNliFRnd3vuRZUj8uh4BsVIK3dVq186DripYNQbuwiy5LR0V3y0W_iqLV_W&filters=eyJycF9ldmVudHNfbG9jYXRpb246MCI6IntcIm5hbWVcIjpcImZpbHRlcl9ldmVudHNfbG9jYXRpb25cIixcImFyZ3NcIjpcIjEwODA5MTUyNTg4NTg3OFwifSJ9"
  },
  {
    "id": 17388,
    "name": "Le Born",
    "state_id": 49,
    "postal_code": "48000",
    "state_name": "Lozère",
    "query": "https://www.facebook.com/events/search?q=Home%20and%20garden&sde=Abq6hpNmijm8kReC4KYmmDP0NuT4IxNliFRnd3vuRZUj8uh4BsVIK3dVq186DripYNQbuwiy5LR0V3y0W_iqLV_W&filters=eyJycF9ldmVudHNfbG9jYXRpb246MCI6IntcIm5hbWVcIjpcImZpbHRlcl9ldmVudHNfbG9jYXRpb25cIixcImFyZ3NcIjpcIjExMDM5ODQ5NTY0NjcxMlwifSJ9"
  },
  {
    "id": 17389,
    "name": "Brenoux",
    "state_id": 49,
    "postal_code": "48000",
    "state_name": "Lozère",
    "query": "https://www.facebook.com/events/search?q=Home%20and%20garden&sde=Abq6hpNmijm8kReC4KYmmDP0NuT4IxNliFRnd3vuRZUj8uh4BsVIK3dVq186DripYNQbuwiy5LR0V3y0W_iqLV_W&filters=eyJycF9ldmVudHNfbG9jYXRpb246MCI6IntcIm5hbWVcIjpcImZpbHRlcl9ldmVudHNfbG9jYXRpb25cIixcImFyZ3NcIjpcIjEwNzkzNDg1MjU2MzE1MlwifSJ9"
  },
  {
    "id": 17390,
    "name": "Brion",
    "state_id": 49,
    "postal_code": "48310",
    "state_name": "Lozère",
    "query": "https://www.facebook.com/events/search?q=Home%20and%20garden&sde=Abq6hpNmijm8kReC4KYmmDP0NuT4IxNliFRnd3vuRZUj8uh4BsVIK3dVq186DripYNQbuwiy5LR0V3y0W_iqLV_W&filters=eyJycF9ldmVudHNfbG9jYXRpb246MCI6IntcIm5hbWVcIjpcImZpbHRlcl9ldmVudHNfbG9jYXRpb25cIixcImFyZ3NcIjpcIjEwNzM3NzE2OTMwMDAyN1wifSJ9"
  },
  {
    "id": 17391,
    "name": "Le Buisson",
    "state_id": 49,
    "postal_code": "48100",
    "state_name": "Lozère",
    "query": "https://www.facebook.com/events/search?q=Home%20and%20garden&sde=Abq6hpNmijm8kReC4KYmmDP0NuT4IxNliFRnd3vuRZUj8uh4BsVIK3dVq186DripYNQbuwiy5LR0V3y0W_iqLV_W&filters=eyJycF9ldmVudHNfbG9jYXRpb246MCI6IntcIm5hbWVcIjpcImZpbHRlcl9ldmVudHNfbG9jYXRpb25cIixcImFyZ3NcIjpcIjExMzc1MTA4MTk2OTYxNFwifSJ9"
  },
  {
    "id": 17392,
    "name": "La Canourgue",
    "state_id": 49,
    "postal_code": "48500",
    "state_name": "Lozère",
    "query": "https://www.facebook.com/events/search?q=Home%20and%20garden&sde=Abq6hpNmijm8kReC4KYmmDP0NuT4IxNliFRnd3vuRZUj8uh4BsVIK3dVq186DripYNQbuwiy5LR0V3y0W_iqLV_W&filters=eyJycF9ldmVudHNfbG9jYXRpb246MCI6IntcIm5hbWVcIjpcImZpbHRlcl9ldmVudHNfbG9jYXRpb25cIixcImFyZ3NcIjpcIjExMjI4MTc1ODc4MzMxNVwifSJ9"
  },
  {
    "id": 17393,
    "name": "Cassagnas",
    "state_id": 49,
    "postal_code": "48400",
    "state_name": "Lozère",
    "query": "https://www.facebook.com/events/search?q=Home%20and%20garden&sde=Abq6hpNmijm8kReC4KYmmDP0NuT4IxNliFRnd3vuRZUj8uh4BsVIK3dVq186DripYNQbuwiy5LR0V3y0W_iqLV_W&filters=eyJycF9ldmVudHNfbG9jYXRpb246MCI6IntcIm5hbWVcIjpcImZpbHRlcl9ldmVudHNfbG9jYXRpb25cIixcImFyZ3NcIjpcIjEwODUxNzQ5NTg0NDU0OVwifSJ9"
  },
  {
    "id": 17394,
    "name": "Chadenet",
    "state_id": 49,
    "postal_code": "48190",
    "state_name": "Lozère",
    "query": ""
  },
  {
    "id": 17395,
    "name": "Bel-Air-Val-d'Ance",
    "state_id": 49,
    "postal_code": "48600",
    "state_name": "Lozère",
    "query": ""
  },
  {
    "id": 17396,
    "name": "Chanac",
    "state_id": 49,
    "postal_code": "48230",
    "state_name": "Lozère",
    "query": "https://www.facebook.com/events/search?q=Home%20and%20garden&sde=Abq6hpNmijm8kReC4KYmmDP0NuT4IxNliFRnd3vuRZUj8uh4BsVIK3dVq186DripYNQbuwiy5LR0V3y0W_iqLV_W&filters=eyJycF9ldmVudHNfbG9jYXRpb246MCI6IntcIm5hbWVcIjpcImZpbHRlcl9ldmVudHNfbG9jYXRpb25cIixcImFyZ3NcIjpcIjEwOTUwMTA0NTczNjM2NVwifSJ9"
  },
  {
    "id": 17397,
    "name": "Chastanier",
    "state_id": 49,
    "postal_code": "48300",
    "state_name": "Lozère",
    "query": "https://www.facebook.com/events/search?q=Home%20and%20garden&sde=Abq6hpNmijm8kReC4KYmmDP0NuT4IxNliFRnd3vuRZUj8uh4BsVIK3dVq186DripYNQbuwiy5LR0V3y0W_iqLV_W&filters=eyJycF9ldmVudHNfbG9jYXRpb246MCI6IntcIm5hbWVcIjpcImZpbHRlcl9ldmVudHNfbG9jYXRpb25cIixcImFyZ3NcIjpcIjEwOTM3OTQ0NTc0NjYyMVwifSJ9"
  },
  {
    "id": 17398,
    "name": "Chastel-Nouvel",
    "state_id": 49,
    "postal_code": "48000",
    "state_name": "Lozère",
    "query": "https://www.facebook.com/events/search?q=Home%20and%20garden&sde=Abq6hpNmijm8kReC4KYmmDP0NuT4IxNliFRnd3vuRZUj8uh4BsVIK3dVq186DripYNQbuwiy5LR0V3y0W_iqLV_W&filters=eyJycF9ldmVudHNfbG9jYXRpb246MCI6IntcIm5hbWVcIjpcImZpbHRlcl9ldmVudHNfbG9jYXRpb25cIixcImFyZ3NcIjpcIjEwNDA5NzM3Mjk1OTI0MFwifSJ9"
  },
  {
    "id": 17399,
    "name": "Châteauneuf-de-Randon",
    "state_id": 49,
    "postal_code": "48170",
    "state_name": "Lozère",
    "query": "https://www.facebook.com/events/search?q=Home%20and%20garden&sde=Abq6hpNmijm8kReC4KYmmDP0NuT4IxNliFRnd3vuRZUj8uh4BsVIK3dVq186DripYNQbuwiy5LR0V3y0W_iqLV_W&filters=eyJycF9ldmVudHNfbG9jYXRpb246MCI6IntcIm5hbWVcIjpcImZpbHRlcl9ldmVudHNfbG9jYXRpb25cIixcImFyZ3NcIjpcIjExMjYwNTU5ODc1MjYzOVwifSJ9"
  },
  {
    "id": 17400,
    "name": "Chauchailles",
    "state_id": 49,
    "postal_code": "48310",
    "state_name": "Lozère",
    "query": ""
  },
  {
    "id": 17401,
    "name": "Chaudeyrac",
    "state_id": 49,
    "postal_code": "48170",
    "state_name": "Lozère",
    "query": "https://www.facebook.com/events/search?q=Home%20and%20garden&sde=Abq6hpNmijm8kReC4KYmmDP0NuT4IxNliFRnd3vuRZUj8uh4BsVIK3dVq186DripYNQbuwiy5LR0V3y0W_iqLV_W&filters=eyJycF9ldmVudHNfbG9jYXRpb246MCI6IntcIm5hbWVcIjpcImZpbHRlcl9ldmVudHNfbG9jYXRpb25cIixcImFyZ3NcIjpcIjExMDA2Mzg2MjM0NjE0OFwifSJ9"
  },
  {
    "id": 17402,
    "name": "Chaulhac",
    "state_id": 49,
    "postal_code": "48140",
    "state_name": "Lozère",
    "query": ""
  },
  {
    "id": 17403,
    "name": "Cheylard-l'Évêque",
    "state_id": 49,
    "postal_code": "48300",
    "state_name": "Lozère",
    "query": ""
  },
  {
    "id": 17404,
    "name": "Bédouès-Cocurès",
    "state_id": 49,
    "postal_code": "48400",
    "state_name": "Lozère",
    "query": ""
  },
  {
    "id": 17405,
    "name": "Le Collet-de-Dèze",
    "state_id": 49,
    "postal_code": "48160",
    "state_name": "Lozère",
    "query": "https://www.facebook.com/events/search?q=Home%20and%20garden&sde=Abq6hpNmijm8kReC4KYmmDP0NuT4IxNliFRnd3vuRZUj8uh4BsVIK3dVq186DripYNQbuwiy5LR0V3y0W_iqLV_W&filters=eyJycF9ldmVudHNfbG9jYXRpb246MCI6IntcIm5hbWVcIjpcImZpbHRlcl9ldmVudHNfbG9jYXRpb25cIixcImFyZ3NcIjpcIjEwOTY4MzgzMjM4Mzc3NVwifSJ9"
  },
  {
    "id": 17406,
    "name": "Cubières",
    "state_id": 49,
    "postal_code": "48190",
    "state_name": "Lozère",
    "query": ""
  },
  {
    "id": 17407,
    "name": "Cubiérettes",
    "state_id": 49,
    "postal_code": "48190",
    "state_name": "Lozère",
    "query": ""
  },
  {
    "id": 17408,
    "name": "Cultures",
    "state_id": 49,
    "postal_code": "48230",
    "state_name": "Lozère",
    "query": "https://www.facebook.com/events/search?q=Home%20and%20garden&sde=Abq6hpNmijm8kReC4KYmmDP0NuT4IxNliFRnd3vuRZUj8uh4BsVIK3dVq186DripYNQbuwiy5LR0V3y0W_iqLV_W&filters=eyJycF9ldmVudHNfbG9jYXRpb246MCI6IntcIm5hbWVcIjpcImZpbHRlcl9ldmVudHNfbG9jYXRpb25cIixcImFyZ3NcIjpcIjEwNzkxNDg4OTIyOTYyNlwifSJ9"
  },
  {
    "id": 17409,
    "name": "Esclanèdes",
    "state_id": 49,
    "postal_code": "48230",
    "state_name": "Lozère",
    "query": "https://www.facebook.com/events/search?q=Home%20and%20garden&sde=Abq6hpNmijm8kReC4KYmmDP0NuT4IxNliFRnd3vuRZUj8uh4BsVIK3dVq186DripYNQbuwiy5LR0V3y0W_iqLV_W&filters=eyJycF9ldmVudHNfbG9jYXRpb246MCI6IntcIm5hbWVcIjpcImZpbHRlcl9ldmVudHNfbG9jYXRpb25cIixcImFyZ3NcIjpcIjEwNjIwNjcwNjA3Njg3M1wifSJ9"
  },
  {
    "id": 17410,
    "name": "La Fage-Montivernoux",
    "state_id": 49,
    "postal_code": "48310",
    "state_name": "Lozère",
    "query": ""
  },
  {
    "id": 17411,
    "name": "La Fage-Saint-Julien",
    "state_id": 49,
    "postal_code": "48200",
    "state_name": "Lozère",
    "query": ""
  },
  {
    "id": 17412,
    "name": "Florac Trois Rivières",
    "state_id": 49,
    "postal_code": "48400",
    "state_name": "Lozère",
    "query": ""
  },
  {
    "id": 17413,
    "name": "Fontans",
    "state_id": 49,
    "postal_code": "48700",
    "state_name": "Lozère",
    "query": "https://www.facebook.com/events/search?q=Home%20and%20garden&sde=Abq6hpNmijm8kReC4KYmmDP0NuT4IxNliFRnd3vuRZUj8uh4BsVIK3dVq186DripYNQbuwiy5LR0V3y0W_iqLV_W&filters=eyJycF9ldmVudHNfbG9jYXRpb246MCI6IntcIm5hbWVcIjpcImZpbHRlcl9ldmVudHNfbG9jYXRpb25cIixcImFyZ3NcIjpcIjExMjUwMjEwNTQzMTg2M1wifSJ9"
  },
  {
    "id": 17414,
    "name": "Fournels",
    "state_id": 49,
    "postal_code": "48310",
    "state_name": "Lozère",
    "query": "https://www.facebook.com/events/search?q=Home%20and%20garden&sde=Abq6hpNmijm8kReC4KYmmDP0NuT4IxNliFRnd3vuRZUj8uh4BsVIK3dVq186DripYNQbuwiy5LR0V3y0W_iqLV_W&filters=eyJycF9ldmVudHNfbG9jYXRpb246MCI6IntcIm5hbWVcIjpcImZpbHRlcl9ldmVudHNfbG9jYXRpb25cIixcImFyZ3NcIjpcIjEwMzgzNDY5Mjk4OTIxNlwifSJ9"
  },
  {
    "id": 17415,
    "name": "Fraissinet-de-Fourques",
    "state_id": 49,
    "postal_code": "48400",
    "state_name": "Lozère",
    "query": ""
  },
  {
    "id": 17416,
    "name": "Gabriac",
    "state_id": 49,
    "postal_code": "48110",
    "state_name": "Lozère",
    "query": "https://www.facebook.com/events/search?q=Home%20and%20garden&sde=Abq6hpNmijm8kReC4KYmmDP0NuT4IxNliFRnd3vuRZUj8uh4BsVIK3dVq186DripYNQbuwiy5LR0V3y0W_iqLV_W&filters=eyJycF9ldmVudHNfbG9jYXRpb246MCI6IntcIm5hbWVcIjpcImZpbHRlcl9ldmVudHNfbG9jYXRpb25cIixcImFyZ3NcIjpcIjExMzI0NTE1ODY5MjczMVwifSJ9"
  },
  {
    "id": 17417,
    "name": "Gabrias",
    "state_id": 49,
    "postal_code": "48100",
    "state_name": "Lozère",
    "query": ""
  },
  {
    "id": 17418,
    "name": "Gatuzières",
    "state_id": 49,
    "postal_code": "48150",
    "state_name": "Lozère",
    "query": "https://www.facebook.com/events/search?q=Home%20and%20garden&sde=Abq6hpNmijm8kReC4KYmmDP0NuT4IxNliFRnd3vuRZUj8uh4BsVIK3dVq186DripYNQbuwiy5LR0V3y0W_iqLV_W&filters=eyJycF9ldmVudHNfbG9jYXRpb246MCI6IntcIm5hbWVcIjpcImZpbHRlcl9ldmVudHNfbG9jYXRpb25cIixcImFyZ3NcIjpcIjEwODAwMTUzNTg4OTcyOVwifSJ9"
  },
  {
    "id": 17419,
    "name": "Grandrieu",
    "state_id": 49,
    "postal_code": "48600",
    "state_name": "Lozère",
    "query": "https://www.facebook.com/events/search/?q=Home%20and%20garden&sde=Abq6hpNmijm8kReC4KYmmDP0NuT4IxNliFRnd3vuRZUj8uh4BsVIK3dVq186DripYNQbuwiy5LR0V3y0W_iqLV_W&filters=eyJycF9ldmVudHNfbG9jYXRpb246MCI6IntcIm5hbWVcIjpcImZpbHRlcl9ldmVudHNfbG9jYXRpb25cIixcImFyZ3NcIjpcIjEwNDExODIyMjk1OTEzNlwifSJ9"
  },
  {
    "id": 17420,
    "name": "Grandvals",
    "state_id": 49,
    "postal_code": "48260",
    "state_name": "Lozère",
    "query": ""
  },
  {
    "id": 17421,
    "name": "Grèzes",
    "state_id": 49,
    "postal_code": "48100",
    "state_name": "Lozère",
    "query": "https://www.facebook.com/events/search/?q=Home%20and%20garden&sde=Abq6hpNmijm8kReC4KYmmDP0NuT4IxNliFRnd3vuRZUj8uh4BsVIK3dVq186DripYNQbuwiy5LR0V3y0W_iqLV_W&filters=eyJycF9ldmVudHNfbG9jYXRpb246MCI6IntcIm5hbWVcIjpcImZpbHRlcl9ldmVudHNfbG9jYXRpb25cIixcImFyZ3NcIjpcIjEwNjQ4NDQyOTM4NTE0NFwifSJ9"
  },
  {
    "id": 17422,
    "name": "Les Hermaux",
    "state_id": 49,
    "postal_code": "48340",
    "state_name": "Lozère",
    "query": ""
  },
  {
    "id": 17423,
    "name": "Hures-la-Parade",
    "state_id": 49,
    "postal_code": "48150",
    "state_name": "Lozère",
    "query": ""
  },
  {
    "id": 17424,
    "name": "Ispagnac",
    "state_id": 49,
    "postal_code": "48320",
    "state_name": "Lozère",
    "query": "https://www.facebook.com/events/search?q=Home%20and%20garden&sde=Abq6hpNmijm8kReC4KYmmDP0NuT4IxNliFRnd3vuRZUj8uh4BsVIK3dVq186DripYNQbuwiy5LR0V3y0W_iqLV_W&filters=eyJycF9ldmVudHNfbG9jYXRpb246MCI6IntcIm5hbWVcIjpcImZpbHRlcl9ldmVudHNfbG9jYXRpb25cIixcImFyZ3NcIjpcIjEwNDA0NjMwNjI5NzMxMFwifSJ9"
  },
  {
    "id": 17425,
    "name": "Julianges",
    "state_id": 49,
    "postal_code": "48140",
    "state_name": "Lozère",
    "query": ""
  },
  {
    "id": 17426,
    "name": "Lajo",
    "state_id": 49,
    "postal_code": "48120",
    "state_name": "Lozère",
    "query": "https://www.facebook.com/events/search?q=Home%20and%20garden&sde=Abq6hpNmijm8kReC4KYmmDP0NuT4IxNliFRnd3vuRZUj8uh4BsVIK3dVq186DripYNQbuwiy5LR0V3y0W_iqLV_W&filters=eyJycF9ldmVudHNfbG9jYXRpb246MCI6IntcIm5hbWVcIjpcImZpbHRlcl9ldmVudHNfbG9jYXRpb25cIixcImFyZ3NcIjpcIjEwNTUyNTM5OTQ4MDk3OFwifSJ9"
  },
  {
    "id": 17427,
    "name": "Langogne",
    "state_id": 49,
    "postal_code": "48300",
    "state_name": "Lozère",
    "query": "https://www.facebook.com/events/search?q=Home%20and%20garden&sde=Abq6hpNmijm8kReC4KYmmDP0NuT4IxNliFRnd3vuRZUj8uh4BsVIK3dVq186DripYNQbuwiy5LR0V3y0W_iqLV_W&filters=eyJycF9ldmVudHNfbG9jYXRpb246MCI6IntcIm5hbWVcIjpcImZpbHRlcl9ldmVudHNfbG9jYXRpb25cIixcImFyZ3NcIjpcIjEwNjIyMjc4Mjc0MjQ4MlwifSJ9"
  },
  {
    "id": 17428,
    "name": "Lanuéjols",
    "state_id": 49,
    "postal_code": "48000",
    "state_name": "Lozère",
    "query": "https://www.facebook.com/events/search?q=Home%20and%20garden&sde=Abq6hpNmijm8kReC4KYmmDP0NuT4IxNliFRnd3vuRZUj8uh4BsVIK3dVq186DripYNQbuwiy5LR0V3y0W_iqLV_W&filters=eyJycF9ldmVudHNfbG9jYXRpb246MCI6IntcIm5hbWVcIjpcImZpbHRlcl9ldmVudHNfbG9jYXRpb25cIixcImFyZ3NcIjpcIjQ4MTI2MzQwMjAzMDk5NVwifSJ9"
  },
  {
    "id": 17429,
    "name": "Laubert",
    "state_id": 49,
    "postal_code": "48170",
    "state_name": "Lozère",
    "query": ""
  },
  {
    "id": 17430,
    "name": "Les Laubies",
    "state_id": 49,
    "postal_code": "48700",
    "state_name": "Lozère",
    "query": ""
  },
  {
    "id": 17431,
    "name": "Laval-du-Tarn",
    "state_id": 49,
    "postal_code": "48500",
    "state_name": "Lozère",
    "query": "https://www.facebook.com/events/search?q=Home%20and%20garden&sde=Abq6hpNmijm8kReC4KYmmDP0NuT4IxNliFRnd3vuRZUj8uh4BsVIK3dVq186DripYNQbuwiy5LR0V3y0W_iqLV_W&filters=eyJycF9ldmVudHNfbG9jYXRpb246MCI6IntcIm5hbWVcIjpcImZpbHRlcl9ldmVudHNfbG9jYXRpb25cIixcImFyZ3NcIjpcIjExMDA5NTEyNTY3NjI4MlwifSJ9"
  },
  {
    "id": 17432,
    "name": "Luc",
    "state_id": 49,
    "postal_code": "48250",
    "state_name": "Lozère",
    "query": "https://www.facebook.com/events/search?q=Home%20and%20garden&sde=Abq6hpNmijm8kReC4KYmmDP0NuT4IxNliFRnd3vuRZUj8uh4BsVIK3dVq186DripYNQbuwiy5LR0V3y0W_iqLV_W&filters=eyJycF9ldmVudHNfbG9jYXRpb246MCI6IntcIm5hbWVcIjpcImZpbHRlcl9ldmVudHNfbG9jYXRpb25cIixcImFyZ3NcIjpcIjExMzUwMTkwODY2NDQ1MlwifSJ9"
  },
  {
    "id": 17433,
    "name": "Prinsuéjols-Malbouzon",
    "state_id": 49,
    "postal_code": "48100",
    "state_name": "Lozère",
    "query": ""
  },
  {
    "id": 17434,
    "name": "La Malène",
    "state_id": 49,
    "postal_code": "48210",
    "state_name": "Lozère",
    "query": "https://www.facebook.com/events/search?q=Home%20and%20garden&sde=Abq6hpNmijm8kReC4KYmmDP0NuT4IxNliFRnd3vuRZUj8uh4BsVIK3dVq186DripYNQbuwiy5LR0V3y0W_iqLV_W&filters=eyJycF9ldmVudHNfbG9jYXRpb246MCI6IntcIm5hbWVcIjpcImZpbHRlcl9ldmVudHNfbG9jYXRpb25cIixcImFyZ3NcIjpcIjEwMzExNzc1NjM5NDgxNlwifSJ9"
  },
  {
    "id": 17435,
    "name": "Le Malzieu-Forain",
    "state_id": 49,
    "postal_code": "48140",
    "state_name": "Lozère",
    "query": ""
  },
  {
    "id": 17436,
    "name": "Le Malzieu-Ville",
    "state_id": 49,
    "postal_code": "48140",
    "state_name": "Lozère",
    "query": "https://www.facebook.com/events/search?q=Home%20and%20garden&sde=Abq6hpNmijm8kReC4KYmmDP0NuT4IxNliFRnd3vuRZUj8uh4BsVIK3dVq186DripYNQbuwiy5LR0V3y0W_iqLV_W&filters=eyJycF9ldmVudHNfbG9jYXRpb246MCI6IntcIm5hbWVcIjpcImZpbHRlcl9ldmVudHNfbG9jYXRpb25cIixcImFyZ3NcIjpcIjEwNzQ0NTA4MjYxODg0N1wifSJ9"
  },
  {
    "id": 17437,
    "name": "Marchastel",
    "state_id": 49,
    "postal_code": "48260",
    "state_name": "Lozère",
    "query": "https://www.facebook.com/events/search?q=Home%20and%20garden&sde=Abq6hpNmijm8kReC4KYmmDP0NuT4IxNliFRnd3vuRZUj8uh4BsVIK3dVq186DripYNQbuwiy5LR0V3y0W_iqLV_W&filters=eyJycF9ldmVudHNfbG9jYXRpb246MCI6IntcIm5hbWVcIjpcImZpbHRlcl9ldmVudHNfbG9jYXRpb25cIixcImFyZ3NcIjpcIjEwODU1MzIzOTE3NDEyNVwifSJ9"
  },
  {
    "id": 17438,
    "name": "Marvejols",
    "state_id": 49,
    "postal_code": "48100",
    "state_name": "Lozère",
    "query": "https://www.facebook.com/events/search?q=Home%20and%20garden&sde=Abq6hpNmijm8kReC4KYmmDP0NuT4IxNliFRnd3vuRZUj8uh4BsVIK3dVq186DripYNQbuwiy5LR0V3y0W_iqLV_W&filters=eyJycF9ldmVudHNfbG9jYXRpb246MCI6IntcIm5hbWVcIjpcImZpbHRlcl9ldmVudHNfbG9jYXRpb25cIixcImFyZ3NcIjpcIjEwMzA4MTM5MzA2NTczN1wifSJ9"
  },
  {
    "id": 17439,
    "name": "Massegros Causses Gorges",
    "state_id": 49,
    "postal_code": "48210",
    "state_name": "Lozère",
    "query": ""
  },
  {
    "id": 17440,
    "name": "Mende",
    "state_id": 49,
    "postal_code": "48000",
    "state_name": "Lozère",
    "query": "https://www.facebook.com/events/search?q=Home%20and%20garden&sde=Abq6hpNmijm8kReC4KYmmDP0NuT4IxNliFRnd3vuRZUj8uh4BsVIK3dVq186DripYNQbuwiy5LR0V3y0W_iqLV_W&filters=eyJycF9ldmVudHNfbG9jYXRpb246MCI6IntcIm5hbWVcIjpcImZpbHRlcl9ldmVudHNfbG9jYXRpb25cIixcImFyZ3NcIjpcIjExMjAzMTEwMjE0Nzg1NVwifSJ9"
  },
  {
    "id": 17441,
    "name": "Meyrueis",
    "state_id": 49,
    "postal_code": "48150",
    "state_name": "Lozère",
    "query": "https://www.facebook.com/events/search?q=Home%20and%20garden&sde=Abq6hpNmijm8kReC4KYmmDP0NuT4IxNliFRnd3vuRZUj8uh4BsVIK3dVq186DripYNQbuwiy5LR0V3y0W_iqLV_W&filters=eyJycF9ldmVudHNfbG9jYXRpb246MCI6IntcIm5hbWVcIjpcImZpbHRlcl9ldmVudHNfbG9jYXRpb25cIixcImFyZ3NcIjpcIjEwNTU3NTM1NjE0Mzc2OVwifSJ9"
  },
  {
    "id": 17442,
    "name": "Moissac-Vallée-Française",
    "state_id": 49,
    "postal_code": "48110",
    "state_name": "Lozère",
    "query": ""
  },
  {
    "id": 17443,
    "name": "Molezon",
    "state_id": 49,
    "postal_code": "48110",
    "state_name": "Lozère",
    "query": ""
  },
  {
    "id": 17444,
    "name": "Bourgs sur Colagne",
    "state_id": 49,
    "postal_code": "48100",
    "state_name": "Lozère",
    "query": ""
  },
  {
    "id": 17445,
    "name": "Montbel",
    "state_id": 49,
    "postal_code": "48170",
    "state_name": "Lozère",
    "query": "https://www.facebook.com/events/search?q=Home%20and%20garden&sde=Abq6hpNmijm8kReC4KYmmDP0NuT4IxNliFRnd3vuRZUj8uh4BsVIK3dVq186DripYNQbuwiy5LR0V3y0W_iqLV_W&filters=eyJycF9ldmVudHNfbG9jYXRpb246MCI6IntcIm5hbWVcIjpcImZpbHRlcl9ldmVudHNfbG9jYXRpb25cIixcImFyZ3NcIjpcIjExMDI5MTMxMjMyMjI4NVwifSJ9"
  },
  {
    "id": 17446,
    "name": "Montrodat",
    "state_id": 49,
    "postal_code": "48100",
    "state_name": "Lozère",
    "query": "https://www.facebook.com/events/search?q=Home%20and%20garden&sde=Abq6hpNmijm8kReC4KYmmDP0NuT4IxNliFRnd3vuRZUj8uh4BsVIK3dVq186DripYNQbuwiy5LR0V3y0W_iqLV_W&filters=eyJycF9ldmVudHNfbG9jYXRpb246MCI6IntcIm5hbWVcIjpcImZpbHRlcl9ldmVudHNfbG9jYXRpb25cIixcImFyZ3NcIjpcIjEwNDE2OTM1OTYyMDEwNFwifSJ9"
  },
  {
    "id": 17447,
    "name": "Nasbinals",
    "state_id": 49,
    "postal_code": "48260",
    "state_name": "Lozère",
    "query": "https://www.facebook.com/events/search?q=Home%20and%20garden&sde=Abq6hpNmijm8kReC4KYmmDP0NuT4IxNliFRnd3vuRZUj8uh4BsVIK3dVq186DripYNQbuwiy5LR0V3y0W_iqLV_W&filters=eyJycF9ldmVudHNfbG9jYXRpb246MCI6IntcIm5hbWVcIjpcImZpbHRlcl9ldmVudHNfbG9jYXRpb25cIixcImFyZ3NcIjpcIjExNzEzMDg4MTYzMDk0M1wifSJ9"
  },
  {
    "id": 17448,
    "name": "Naussac-Fontanes",
    "state_id": 49,
    "postal_code": "48300",
    "state_name": "Lozère",
    "query": ""
  },
  {
    "id": 17449,
    "name": "Noalhac",
    "state_id": 49,
    "postal_code": "48310",
    "state_name": "Lozère",
    "query": ""
  },
  {
    "id": 17450,
    "name": "Palhers",
    "state_id": 49,
    "postal_code": "48100",
    "state_name": "Lozère",
    "query": ""
  },
  {
    "id": 17451,
    "name": "La Panouse",
    "state_id": 49,
    "postal_code": "48600",
    "state_name": "Lozère",
    "query": ""
  },
  {
    "id": 17452,
    "name": "Paulhac-en-Margeride",
    "state_id": 49,
    "postal_code": "48140",
    "state_name": "Lozère",
    "query": ""
  },
  {
    "id": 17453,
    "name": "Pelouse",
    "state_id": 49,
    "postal_code": "48000",
    "state_name": "Lozère",
    "query": ""
  },
  {
    "id": 17454,
    "name": "Pierrefiche",
    "state_id": 49,
    "postal_code": "48300",
    "state_name": "Lozère",
    "query": ""
  },
  {
    "id": 17455,
    "name": "Le Pompidou",
    "state_id": 49,
    "postal_code": "48110",
    "state_name": "Lozère",
    "query": "https://www.facebook.com/events/search?q=Home%20and%20garden&sde=Abq6hpNmijm8kReC4KYmmDP0NuT4IxNliFRnd3vuRZUj8uh4BsVIK3dVq186DripYNQbuwiy5LR0V3y0W_iqLV_W&filters=eyJycF9ldmVudHNfbG9jYXRpb246MCI6IntcIm5hbWVcIjpcImZpbHRlcl9ldmVudHNfbG9jYXRpb25cIixcImFyZ3NcIjpcIjExMjMyODk2NTQ0OTUyOVwifSJ9"
  },
  {
    "id": 17456,
    "name": "Pont de Montvert - Sud Mont Lozère",
    "state_id": 49,
    "postal_code": "48220",
    "state_name": "Lozère",
    "query": ""
  },
  {
    "id": 17457,
    "name": "Pourcharesses",
    "state_id": 49,
    "postal_code": "48800",
    "state_name": "Lozère",
    "query": "https://www.facebook.com/events/search?q=Home%20and%20garden&sde=Abq6hpNmijm8kReC4KYmmDP0NuT4IxNliFRnd3vuRZUj8uh4BsVIK3dVq186DripYNQbuwiy5LR0V3y0W_iqLV_W&filters=eyJycF9ldmVudHNfbG9jYXRpb246MCI6IntcIm5hbWVcIjpcImZpbHRlcl9ldmVudHNfbG9jYXRpb25cIixcImFyZ3NcIjpcIjExMjY1MDc2ODc0ODE1OVwifSJ9"
  },
  {
    "id": 17458,
    "name": "Prévenchères",
    "state_id": 49,
    "postal_code": "48800",
    "state_name": "Lozère",
    "query": "https://www.facebook.com/events/search?q=Home%20and%20garden&sde=Abq6hpNmijm8kReC4KYmmDP0NuT4IxNliFRnd3vuRZUj8uh4BsVIK3dVq186DripYNQbuwiy5LR0V3y0W_iqLV_W&filters=eyJycF9ldmVudHNfbG9jYXRpb246MCI6IntcIm5hbWVcIjpcImZpbHRlcl9ldmVudHNfbG9jYXRpb25cIixcImFyZ3NcIjpcIjEwNjI4NzI0NjA2ODkxOFwifSJ9"
  },
  {
    "id": 17459,
    "name": "Prunières",
    "state_id": 49,
    "postal_code": "48200",
    "state_name": "Lozère",
    "query": "https://www.facebook.com/events/search?q=Home%20and%20garden&sde=Abq6hpNmijm8kReC4KYmmDP0NuT4IxNliFRnd3vuRZUj8uh4BsVIK3dVq186DripYNQbuwiy5LR0V3y0W_iqLV_W&filters=eyJycF9ldmVudHNfbG9jYXRpb246MCI6IntcIm5hbWVcIjpcImZpbHRlcl9ldmVudHNfbG9jYXRpb25cIixcImFyZ3NcIjpcIjExMDUzNTg3NTYzODQ2OVwifSJ9"
  },
  {
    "id": 17460,
    "name": "Recoules-d'Aubrac",
    "state_id": 49,
    "postal_code": "48260",
    "state_name": "Lozère",
    "query": "https://www.facebook.com/events/search?q=Home%20and%20garden&sde=Abq6hpNmijm8kReC4KYmmDP0NuT4IxNliFRnd3vuRZUj8uh4BsVIK3dVq186DripYNQbuwiy5LR0V3y0W_iqLV_W&filters=eyJycF9ldmVudHNfbG9jYXRpb246MCI6IntcIm5hbWVcIjpcImZpbHRlcl9ldmVudHNfbG9jYXRpb25cIixcImFyZ3NcIjpcIjEwNTYwNjQwOTQ3MzE4NVwifSJ9"
  },
  {
    "id": 17461,
    "name": "Recoules-de-Fumas",
    "state_id": 49,
    "postal_code": "48100",
    "state_name": "Lozère",
    "query": ""
  },
  {
    "id": 17462,
    "name": "Lachamp-Ribennes",
    "state_id": 49,
    "postal_code": "48100",
    "state_name": "Lozère",
    "query": ""
  },
  {
    "id": 17463,
    "name": "Monts-de-Randon",
    "state_id": 49,
    "postal_code": "48000",
    "state_name": "Lozère",
    "query": ""
  },
  {
    "id": 17464,
    "name": "Rimeize",
    "state_id": 49,
    "postal_code": "48200",
    "state_name": "Lozère",
    "query": "https://www.facebook.com/events/search?q=Home%20and%20garden&sde=Abq6hpNmijm8kReC4KYmmDP0NuT4IxNliFRnd3vuRZUj8uh4BsVIK3dVq186DripYNQbuwiy5LR0V3y0W_iqLV_W&filters=eyJycF9ldmVudHNfbG9jYXRpb246MCI6IntcIm5hbWVcIjpcImZpbHRlcl9ldmVudHNfbG9jYXRpb25cIixcImFyZ3NcIjpcIjEwNDAwOTA2Mjk2ODQ2M1wifSJ9"
  },
  {
    "id": 17465,
    "name": "Rocles",
    "state_id": 49,
    "postal_code": "48300",
    "state_name": "Lozère",
    "query": "https://www.facebook.com/events/search?q=Home%20and%20garden&sde=Abq6hpNmijm8kReC4KYmmDP0NuT4IxNliFRnd3vuRZUj8uh4BsVIK3dVq186DripYNQbuwiy5LR0V3y0W_iqLV_W&filters=eyJycF9ldmVudHNfbG9jYXRpb246MCI6IntcIm5hbWVcIjpcImZpbHRlcl9ldmVudHNfbG9jYXRpb25cIixcImFyZ3NcIjpcIjExMzgzOTEyNTI5NzY5NlwifSJ9"
  },
  {
    "id": 17466,
    "name": "Rousses",
    "state_id": 49,
    "postal_code": "48400",
    "state_name": "Lozère",
    "query": "https://www.facebook.com/events/search?q=Home%20and%20garden&sde=Abq6hpNmijm8kReC4KYmmDP0NuT4IxNliFRnd3vuRZUj8uh4BsVIK3dVq186DripYNQbuwiy5LR0V3y0W_iqLV_W&filters=eyJycF9ldmVudHNfbG9jYXRpb246MCI6IntcIm5hbWVcIjpcImZpbHRlcl9ldmVudHNfbG9jYXRpb25cIixcImFyZ3NcIjpcIjExMzM2OTk5ODY3NTc1M1wifSJ9"
  },
  {
    "id": 17467,
    "name": "Le Rozier",
    "state_id": 49,
    "postal_code": "48150",
    "state_name": "Lozère",
    "query": ""
  },
  {
    "id": 17468,
    "name": "Saint-Alban-sur-Limagnole",
    "state_id": 49,
    "postal_code": "48120",
    "state_name": "Lozère",
    "query": "https://www.facebook.com/events/search?q=Home%20and%20garden&sde=Abq6hpNmijm8kReC4KYmmDP0NuT4IxNliFRnd3vuRZUj8uh4BsVIK3dVq186DripYNQbuwiy5LR0V3y0W_iqLV_W&filters=eyJycF9ldmVudHNfbG9jYXRpb246MCI6IntcIm5hbWVcIjpcImZpbHRlcl9ldmVudHNfbG9jYXRpb25cIixcImFyZ3NcIjpcIjExMTc0NTYyODg0MzA0OFwifSJ9"
  },
  {
    "id": 17469,
    "name": "Saint-André-Capcèze",
    "state_id": 49,
    "postal_code": "48800",
    "state_name": "Lozère",
    "query": "https://www.facebook.com/events/search?q=Home%20and%20garden&sde=Abq6hpNmijm8kReC4KYmmDP0NuT4IxNliFRnd3vuRZUj8uh4BsVIK3dVq186DripYNQbuwiy5LR0V3y0W_iqLV_W&filters=eyJycF9ldmVudHNfbG9jYXRpb246MCI6IntcIm5hbWVcIjpcImZpbHRlcl9ldmVudHNfbG9jYXRpb25cIixcImFyZ3NcIjpcIjEwNjE2MDAzMjc0OTQzNVwifSJ9"
  },
  {
    "id": 17470,
    "name": "Saint-André-de-Lancize",
    "state_id": 49,
    "postal_code": "48240",
    "state_name": "Lozère",
    "query": "https://www.facebook.com/events/search?q=Home%20and%20garden&sde=Abq6hpNmijm8kReC4KYmmDP0NuT4IxNliFRnd3vuRZUj8uh4BsVIK3dVq186DripYNQbuwiy5LR0V3y0W_iqLV_W&filters=eyJycF9ldmVudHNfbG9jYXRpb246MCI6IntcIm5hbWVcIjpcImZpbHRlcl9ldmVudHNfbG9jYXRpb25cIixcImFyZ3NcIjpcIjEwODAzNjk4OTIxNjk5MFwifSJ9"
  },
  {
    "id": 17471,
    "name": "Saint-Bauzile",
    "state_id": 49,
    "postal_code": "48000",
    "state_name": "Lozère",
    "query": "https://www.facebook.com/events/search?q=Home%20and%20garden&sde=Abq6hpNmijm8kReC4KYmmDP0NuT4IxNliFRnd3vuRZUj8uh4BsVIK3dVq186DripYNQbuwiy5LR0V3y0W_iqLV_W&filters=eyJycF9ldmVudHNfbG9jYXRpb246MCI6IntcIm5hbWVcIjpcImZpbHRlcl9ldmVudHNfbG9jYXRpb25cIixcImFyZ3NcIjpcIjEwODcyNDY2NTgxNjk0MlwifSJ9"
  },
  {
    "id": 17472,
    "name": "Saint-Bonnet-de-Chirac",
    "state_id": 49,
    "postal_code": "48100",
    "state_name": "Lozère",
    "query": ""
  },
  {
    "id": 17473,
    "name": "Saint Bonnet-Laval",
    "state_id": 49,
    "postal_code": "48600",
    "state_name": "Lozère",
    "query": ""
  },
  {
    "id": 17474,
    "name": "Saint-Chély-d'Apcher",
    "state_id": 49,
    "postal_code": "48200",
    "state_name": "Lozère",
    "query": "https://www.facebook.com/events/search?q=Home%20and%20garden&sde=Abq6hpNmijm8kReC4KYmmDP0NuT4IxNliFRnd3vuRZUj8uh4BsVIK3dVq186DripYNQbuwiy5LR0V3y0W_iqLV_W&filters=eyJycF9ldmVudHNfbG9jYXRpb246MCI6IntcIm5hbWVcIjpcImZpbHRlcl9ldmVudHNfbG9jYXRpb25cIixcImFyZ3NcIjpcIjEwMzk2ODI3NjMwNTgyNlwifSJ9"
  },
  {
    "id": 17475,
    "name": "Mas-Saint-Chély",
    "state_id": 49,
    "postal_code": "48210",
    "state_name": "Lozère",
    "query": "https://www.facebook.com/events/search?q=Home%20and%20garden&sde=Abq6hpNmijm8kReC4KYmmDP0NuT4IxNliFRnd3vuRZUj8uh4BsVIK3dVq186DripYNQbuwiy5LR0V3y0W_iqLV_W&filters=eyJycF9ldmVudHNfbG9jYXRpb246MCI6IntcIm5hbWVcIjpcImZpbHRlcl9ldmVudHNfbG9jYXRpb25cIixcImFyZ3NcIjpcIjExNTcwOTE5ODQ0NTI1NFwifSJ9"
  },
  {
    "id": 17476,
    "name": "Sainte-Croix-Vallée-Française",
    "state_id": 49,
    "postal_code": "48110",
    "state_name": "Lozère",
    "query": "https://www.facebook.com/events/search?q=Home%20and%20garden&sde=Abq6hpNmijm8kReC4KYmmDP0NuT4IxNliFRnd3vuRZUj8uh4BsVIK3dVq186DripYNQbuwiy5LR0V3y0W_iqLV_W&filters=eyJycF9ldmVudHNfbG9jYXRpb246MCI6IntcIm5hbWVcIjpcImZpbHRlcl9ldmVudHNfbG9jYXRpb25cIixcImFyZ3NcIjpcIjEwMzExODMxMzA2MjMwOVwifSJ9"
  },
  {
    "id": 17477,
    "name": "Saint-Denis-en-Margeride",
    "state_id": 49,
    "postal_code": "48700",
    "state_name": "Lozère",
    "query": "https://www.facebook.com/events/search?q=Home%20and%20garden&sde=Abq6hpNmijm8kReC4KYmmDP0NuT4IxNliFRnd3vuRZUj8uh4BsVIK3dVq186DripYNQbuwiy5LR0V3y0W_iqLV_W&filters=eyJycF9ldmVudHNfbG9jYXRpb246MCI6IntcIm5hbWVcIjpcImZpbHRlcl9ldmVudHNfbG9jYXRpb25cIixcImFyZ3NcIjpcIjExMTg0NjQ3NTQ5NzkzOVwifSJ9"
  },
  {
    "id": 17478,
    "name": "Gorges du Tarn Causses",
    "state_id": 49,
    "postal_code": "48210",
    "state_name": "Lozère",
    "query": ""
  },
  {
    "id": 17479,
    "name": "Saint-Étienne-du-Valdonnez",
    "state_id": 49,
    "postal_code": "48000",
    "state_name": "Lozère",
    "query": "https://www.facebook.com/events/search?q=Home%20and%20garden&sde=Abq6hpNmijm8kReC4KYmmDP0NuT4IxNliFRnd3vuRZUj8uh4BsVIK3dVq186DripYNQbuwiy5LR0V3y0W_iqLV_W&filters=eyJycF9ldmVudHNfbG9jYXRpb246MCI6IntcIm5hbWVcIjpcImZpbHRlcl9ldmVudHNfbG9jYXRpb25cIixcImFyZ3NcIjpcIjEwNTY0NTA3OTQ3MDI4MVwifSJ9"
  },
  {
    "id": 17480,
    "name": "Saint-Étienne-Vallée-Française",
    "state_id": 49,
    "postal_code": "48330",
    "state_name": "Lozère",
    "query": "https://www.facebook.com/events/search?q=Home%20and%20garden&sde=Abq6hpNmijm8kReC4KYmmDP0NuT4IxNliFRnd3vuRZUj8uh4BsVIK3dVq186DripYNQbuwiy5LR0V3y0W_iqLV_W&filters=eyJycF9ldmVudHNfbG9jYXRpb246MCI6IntcIm5hbWVcIjpcImZpbHRlcl9ldmVudHNfbG9jYXRpb25cIixcImFyZ3NcIjpcIjEwNTU5NDg0NjEzOTkyNlwifSJ9"
  },
  {
    "id": 17481,
    "name": "Sainte-Eulalie",
    "state_id": 49,
    "postal_code": "48120",
    "state_name": "Lozère",
    "query": ""
  },
  {
    "id": 17482,
    "name": "Saint-Flour-de-Mercoire",
    "state_id": 49,
    "postal_code": "48300",
    "state_name": "Lozère",
    "query": ""
  },
  {
    "id": 17483,
    "name": "Saint-Frézal-d'Albuges",
    "state_id": 49,
    "postal_code": "48170",
    "state_name": "Lozère",
    "query": ""
  },
  {
    "id": 17484,
    "name": "Ventalon en Cévennes",
    "state_id": 49,
    "postal_code": "48160",
    "state_name": "Lozère",
    "query": ""
  },
  {
    "id": 17485,
    "name": "Saint-Gal",
    "state_id": 49,
    "postal_code": "48700",
    "state_name": "Lozère",
    "query": ""
  },
  {
    "id": 17486,
    "name": "Saint-Germain-de-Calberte",
    "state_id": 49,
    "postal_code": "48370",
    "state_name": "Lozère",
    "query": "https://www.facebook.com/events/search?q=Home%20and%20garden&sde=Abq6hpNmijm8kReC4KYmmDP0NuT4IxNliFRnd3vuRZUj8uh4BsVIK3dVq186DripYNQbuwiy5LR0V3y0W_iqLV_W&filters=eyJycF9ldmVudHNfbG9jYXRpb246MCI6IntcIm5hbWVcIjpcImZpbHRlcl9ldmVudHNfbG9jYXRpb25cIixcImFyZ3NcIjpcIjEwNzk5NjM0NTg4ODU0NVwifSJ9"
  },
  {
    "id": 17487,
    "name": "Saint-Germain-du-Teil",
    "state_id": 49,
    "postal_code": "48340",
    "state_name": "Lozère",
    "query": "https://www.facebook.com/events/search?q=Home%20and%20garden&sde=Abq6hpNmijm8kReC4KYmmDP0NuT4IxNliFRnd3vuRZUj8uh4BsVIK3dVq186DripYNQbuwiy5LR0V3y0W_iqLV_W&filters=eyJycF9ldmVudHNfbG9jYXRpb246MCI6IntcIm5hbWVcIjpcImZpbHRlcl9ldmVudHNfbG9jYXRpb25cIixcImFyZ3NcIjpcIjExMjcxNDg0MjA3NTAwMVwifSJ9"
  },
  {
    "id": 17488,
    "name": "Sainte-Hélène",
    "state_id": 49,
    "postal_code": "48190",
    "state_name": "Lozère",
    "query": ""
  },
  {
    "id": 17489,
    "name": "Saint-Hilaire-de-Lavit",
    "state_id": 49,
    "postal_code": "48160",
    "state_name": "Lozère",
    "query": "https://www.facebook.com/events/search?q=Home%20and%20garden&sde=Abq6hpNmijm8kReC4KYmmDP0NuT4IxNliFRnd3vuRZUj8uh4BsVIK3dVq186DripYNQbuwiy5LR0V3y0W_iqLV_W&filters=eyJycF9ldmVudHNfbG9jYXRpb246MCI6IntcIm5hbWVcIjpcImZpbHRlcl9ldmVudHNfbG9jYXRpb25cIixcImFyZ3NcIjpcIjEwODU4NDM4MjUwMDI0MlwifSJ9"
  },
  {
    "id": 17490,
    "name": "Saint-Jean-la-Fouillouse",
    "state_id": 49,
    "postal_code": "48170",
    "state_name": "Lozère",
    "query": ""
  },
  {
    "id": 17491,
    "name": "Saint-Juéry",
    "state_id": 49,
    "postal_code": "48310",
    "state_name": "Lozère",
    "query": "https://www.facebook.com/events/search?q=Home%20and%20garden&sde=Abq6hpNmijm8kReC4KYmmDP0NuT4IxNliFRnd3vuRZUj8uh4BsVIK3dVq186DripYNQbuwiy5LR0V3y0W_iqLV_W&filters=eyJycF9ldmVudHNfbG9jYXRpb246MCI6IntcIm5hbWVcIjpcImZpbHRlcl9ldmVudHNfbG9jYXRpb25cIixcImFyZ3NcIjpcIjEwNjUzODY4NjA0NTc3NVwifSJ9"
  },
  {
    "id": 17492,
    "name": "Saint-Julien-des-Points",
    "state_id": 49,
    "postal_code": "48160",
    "state_name": "Lozère",
    "query": ""
  },
  {
    "id": 17493,
    "name": "Saint-Laurent-de-Muret",
    "state_id": 49,
    "postal_code": "48100",
    "state_name": "Lozère",
    "query": "https://www.facebook.com/events/search?q=Home%20and%20garden&sde=Abq6hpNmijm8kReC4KYmmDP0NuT4IxNliFRnd3vuRZUj8uh4BsVIK3dVq186DripYNQbuwiy5LR0V3y0W_iqLV_W&filters=eyJycF9ldmVudHNfbG9jYXRpb246MCI6IntcIm5hbWVcIjpcImZpbHRlcl9ldmVudHNfbG9jYXRpb25cIixcImFyZ3NcIjpcIjEwOTM3MjU1OTA4ODY2NFwifSJ9"
  },
  {
    "id": 17494,
    "name": "Cans et Cévennes",
    "state_id": 49,
    "postal_code": "48400",
    "state_name": "Lozère",
    "query": ""
  },
  {
    "id": 17495,
    "name": "Saint-Laurent-de-Veyrès",
    "state_id": 49,
    "postal_code": "48310",
    "state_name": "Lozère",
    "query": ""
  },
  {
    "id": 17496,
    "name": "Saint-Léger-de-Peyre",
    "state_id": 49,
    "postal_code": "48100",
    "state_name": "Lozère",
    "query": "https://www.facebook.com/events/search?q=Home%20and%20garden&sde=Abq6hpNmijm8kReC4KYmmDP0NuT4IxNliFRnd3vuRZUj8uh4BsVIK3dVq186DripYNQbuwiy5LR0V3y0W_iqLV_W&filters=eyJycF9ldmVudHNfbG9jYXRpb246MCI6IntcIm5hbWVcIjpcImZpbHRlcl9ldmVudHNfbG9jYXRpb25cIixcImFyZ3NcIjpcIjEwMzc1MTEzOTY2MzI4M1wifSJ9"
  },
  {
    "id": 17497,
    "name": "Saint-Léger-du-Malzieu",
    "state_id": 49,
    "postal_code": "48140",
    "state_name": "Lozère",
    "query": ""
  },
  {
    "id": 17498,
    "name": "Saint-Martin-de-Boubaux",
    "state_id": 49,
    "postal_code": "48160",
    "state_name": "Lozère",
    "query": "https://www.facebook.com/events/search?q=Home%20and%20garden&sde=Abq6hpNmijm8kReC4KYmmDP0NuT4IxNliFRnd3vuRZUj8uh4BsVIK3dVq186DripYNQbuwiy5LR0V3y0W_iqLV_W&filters=eyJycF9ldmVudHNfbG9jYXRpb246MCI6IntcIm5hbWVcIjpcImZpbHRlcl9ldmVudHNfbG9jYXRpb25cIixcImFyZ3NcIjpcIjExMzQ1ODg0MTk5ODI5NVwifSJ9"
  },
  {
    "id": 17499,
    "name": "Saint-Martin-de-Lansuscle",
    "state_id": 49,
    "postal_code": "48110",
    "state_name": "Lozère",
    "query": "https://www.facebook.com/events/search?q=Home%20and%20garden&sde=Abq6hpNmijm8kReC4KYmmDP0NuT4IxNliFRnd3vuRZUj8uh4BsVIK3dVq186DripYNQbuwiy5LR0V3y0W_iqLV_W&filters=eyJycF9ldmVudHNfbG9jYXRpb246MCI6IntcIm5hbWVcIjpcImZpbHRlcl9ldmVudHNfbG9jYXRpb25cIixcImFyZ3NcIjpcIjExMTg1MTc1ODgzMTM5MVwifSJ9"
  },
  {
    "id": 17500,
    "name": "Saint-Michel-de-Dèze",
    "state_id": 49,
    "postal_code": "48160",
    "state_name": "Lozère",
    "query": "https://www.facebook.com/events/search?q=Home%20and%20garden&sde=Abq6hpNmijm8kReC4KYmmDP0NuT4IxNliFRnd3vuRZUj8uh4BsVIK3dVq186DripYNQbuwiy5LR0V3y0W_iqLV_W&filters=eyJycF9ldmVudHNfbG9jYXRpb246MCI6IntcIm5hbWVcIjpcImZpbHRlcl9ldmVudHNfbG9jYXRpb25cIixcImFyZ3NcIjpcIjEwMzc1Nzg5Mjk5NjQ4MFwifSJ9"
  },
  {
    "id": 17501,
    "name": "Saint-Paul-le-Froid",
    "state_id": 49,
    "postal_code": "48600",
    "state_name": "Lozère",
    "query": "https://www.facebook.com/events/search?q=Home%20and%20garden&sde=Abq6hpNmijm8kReC4KYmmDP0NuT4IxNliFRnd3vuRZUj8uh4BsVIK3dVq186DripYNQbuwiy5LR0V3y0W_iqLV_W&filters=eyJycF9ldmVudHNfbG9jYXRpb246MCI6IntcIm5hbWVcIjpcImZpbHRlcl9ldmVudHNfbG9jYXRpb25cIixcImFyZ3NcIjpcIjEwNTQ2NjQyNjE1MzYwMFwifSJ9"
  },
  {
    "id": 17502,
    "name": "Saint-Pierre-de-Nogaret",
    "state_id": 49,
    "postal_code": "48340",
    "state_name": "Lozère",
    "query": ""
  },
  {
    "id": 17503,
    "name": "Saint-Pierre-des-Tripiers",
    "state_id": 49,
    "postal_code": "48150",
    "state_name": "Lozère",
    "query": "https://www.facebook.com/events/search?q=Home%20and%20garden&sde=Abq6hpNmijm8kReC4KYmmDP0NuT4IxNliFRnd3vuRZUj8uh4BsVIK3dVq186DripYNQbuwiy5LR0V3y0W_iqLV_W&filters=eyJycF9ldmVudHNfbG9jYXRpb246MCI6IntcIm5hbWVcIjpcImZpbHRlcl9ldmVudHNfbG9jYXRpb25cIixcImFyZ3NcIjpcIjEwMzc0NTg3OTY2MzgwN1wifSJ9"
  },
  {
    "id": 17504,
    "name": "Saint-Pierre-le-Vieux",
    "state_id": 49,
    "postal_code": "48200",
    "state_name": "Lozère",
    "query": "https://www.facebook.com/events/search?q=Home%20and%20garden&sde=Abq6hpNmijm8kReC4KYmmDP0NuT4IxNliFRnd3vuRZUj8uh4BsVIK3dVq186DripYNQbuwiy5LR0V3y0W_iqLV_W&filters=eyJycF9ldmVudHNfbG9jYXRpb246MCI6IntcIm5hbWVcIjpcImZpbHRlcl9ldmVudHNfbG9jYXRpb25cIixcImFyZ3NcIjpcIjExMzk0Mjk0MTk1Mzc4MVwifSJ9"
  },
  {
    "id": 17505,
    "name": "Saint-Privat-de-Vallongue",
    "state_id": 49,
    "postal_code": "48240",
    "state_name": "Lozère",
    "query": "https://www.facebook.com/events/search?q=Home%20and%20garden&sde=Abq6hpNmijm8kReC4KYmmDP0NuT4IxNliFRnd3vuRZUj8uh4BsVIK3dVq186DripYNQbuwiy5LR0V3y0W_iqLV_W&filters=eyJycF9ldmVudHNfbG9jYXRpb246MCI6IntcIm5hbWVcIjpcImZpbHRlcl9ldmVudHNfbG9jYXRpb25cIixcImFyZ3NcIjpcIjEwNTU4MDQwOTQ3NTM2MFwifSJ9"
  },
  {
    "id": 17506,
    "name": "Saint-Privat-du-Fau",
    "state_id": 49,
    "postal_code": "48140",
    "state_name": "Lozère",
    "query": ""
  },
  {
    "id": 17507,
    "name": "Saint-Saturnin",
    "state_id": 49,
    "postal_code": "48500",
    "state_name": "Lozère",
    "query": ""
  },
  {
    "id": 17508,
    "name": "Saint-Sauveur-de-Ginestoux",
    "state_id": 49,
    "postal_code": "48170",
    "state_name": "Lozère",
    "query": ""
  },
  {
    "id": 17509,
    "name": "Les Salelles",
    "state_id": 49,
    "postal_code": "48230",
    "state_name": "Lozère",
    "query": ""
  },
  {
    "id": 17510,
    "name": "Les Salces",
    "state_id": 49,
    "postal_code": "48100",
    "state_name": "Lozère",
    "query": "https://www.facebook.com/events/search?q=Home%20and%20garden&sde=Abq6hpNmijm8kReC4KYmmDP0NuT4IxNliFRnd3vuRZUj8uh4BsVIK3dVq186DripYNQbuwiy5LR0V3y0W_iqLV_W&filters=eyJycF9ldmVudHNfbG9jYXRpb246MCI6IntcIm5hbWVcIjpcImZpbHRlcl9ldmVudHNfbG9jYXRpb25cIixcImFyZ3NcIjpcIjEwODU0NzUwMjUwMjUxM1wifSJ9"
  },
  {
    "id": 17511,
    "name": "Serverette",
    "state_id": 49,
    "postal_code": "48700",
    "state_name": "Lozère",
    "query": "https://www.facebook.com/events/search?q=Home%20and%20garden&sde=Abq6hpNmijm8kReC4KYmmDP0NuT4IxNliFRnd3vuRZUj8uh4BsVIK3dVq186DripYNQbuwiy5LR0V3y0W_iqLV_W&filters=eyJycF9ldmVudHNfbG9jYXRpb246MCI6IntcIm5hbWVcIjpcImZpbHRlcl9ldmVudHNfbG9jYXRpb25cIixcImFyZ3NcIjpcIjEwNTU4OTE5OTQ3Mzk2MVwifSJ9"
  },
  {
    "id": 17512,
    "name": "Termes",
    "state_id": 49,
    "postal_code": "48310",
    "state_name": "Lozère",
    "query": "https://www.facebook.com/events/search?q=Home%20and%20garden&sde=Abq6hpNmijm8kReC4KYmmDP0NuT4IxNliFRnd3vuRZUj8uh4BsVIK3dVq186DripYNQbuwiy5LR0V3y0W_iqLV_W&filters=eyJycF9ldmVudHNfbG9jYXRpb246MCI6IntcIm5hbWVcIjpcImZpbHRlcl9ldmVudHNfbG9jYXRpb25cIixcImFyZ3NcIjpcIjExNDE5NTYzNTU4NTkyNFwifSJ9"
  },
  {
    "id": 17513,
    "name": "La Tieule",
    "state_id": 49,
    "postal_code": "48500",
    "state_name": "Lozère",
    "query": "https://www.facebook.com/events/search?q=Home%20and%20garden&sde=Abq6hpNmijm8kReC4KYmmDP0NuT4IxNliFRnd3vuRZUj8uh4BsVIK3dVq186DripYNQbuwiy5LR0V3y0W_iqLV_W&filters=eyJycF9ldmVudHNfbG9jYXRpb246MCI6IntcIm5hbWVcIjpcImZpbHRlcl9ldmVudHNfbG9jYXRpb25cIixcImFyZ3NcIjpcIjEwNjA3MTc3Mjc1ODExNVwifSJ9"
  },
  {
    "id": 17514,
    "name": "Trélans",
    "state_id": 49,
    "postal_code": "48340",
    "state_name": "Lozère",
    "query": ""
  },
  {
    "id": 17515,
    "name": "Vebron",
    "state_id": 49,
    "postal_code": "48400",
    "state_name": "Lozère",
    "query": "https://www.facebook.com/events/search?q=Home%20and%20garden&sde=Abq6hpNmijm8kReC4KYmmDP0NuT4IxNliFRnd3vuRZUj8uh4BsVIK3dVq186DripYNQbuwiy5LR0V3y0W_iqLV_W&filters=eyJycF9ldmVudHNfbG9jYXRpb246MCI6IntcIm5hbWVcIjpcImZpbHRlcl9ldmVudHNfbG9jYXRpb25cIixcImFyZ3NcIjpcIjEwODc2ODY2MjQ3NzE3OFwifSJ9"
  },
  {
    "id": 17516,
    "name": "Vialas",
    "state_id": 49,
    "postal_code": "48220",
    "state_name": "Lozère",
    "query": "https://www.facebook.com/events/search?q=Home%20and%20garden&sde=Abq6hpNmijm8kReC4KYmmDP0NuT4IxNliFRnd3vuRZUj8uh4BsVIK3dVq186DripYNQbuwiy5LR0V3y0W_iqLV_W&filters=eyJycF9ldmVudHNfbG9jYXRpb246MCI6IntcIm5hbWVcIjpcImZpbHRlcl9ldmVudHNfbG9jYXRpb25cIixcImFyZ3NcIjpcIjEwODA5MDM4NTg4MDU5N1wifSJ9"
  },
  {
    "id": 17517,
    "name": "Villefort",
    "state_id": 49,
    "postal_code": "48800",
    "state_name": "Lozère",
    "query": "https://www.facebook.com/events/search?q=Home%20and%20garden&sde=Abq6hpNmijm8kReC4KYmmDP0NuT4IxNliFRnd3vuRZUj8uh4BsVIK3dVq186DripYNQbuwiy5LR0V3y0W_iqLV_W&filters=eyJycF9ldmVudHNfbG9jYXRpb246MCI6IntcIm5hbWVcIjpcImZpbHRlcl9ldmVudHNfbG9jYXRpb25cIixcImFyZ3NcIjpcIjEwODY5NTc5OTE2MDQ1OVwifSJ9"
  }
]